<?xml version="1.0" encoding="UTF-8"?>
<gpx version="1.1" creator="hike-recap example data"
     xmlns="http://www.topografix.com/GPX/1/1">
  <metadata>
    <name>Stage 7</name>
    <desc>Derived from OpenStreetMap relation 114289, ODbL. Example data.</desc>
  </metadata>
  <trk>
    <name>Stage 7</name>
    <trkseg>
      <trkpt lat="50.915404" lon="14.309104"/>
      <trkpt lat="50.915329" lon="14.308942"/>
      <trkpt lat="50.915148" lon="14.308525"/>
      <trkpt lat="50.914975" lon="14.308099"/>
      <trkpt lat="50.914858" lon="14.307836"/>
      <trkpt lat="50.914813" lon="14.307600"/>
      <trkpt lat="50.914586" lon="14.307024"/>
      <trkpt lat="50.914524" lon="14.306676"/>
      <trkpt lat="50.914362" lon="14.306569"/>
      <trkpt lat="50.914182" lon="14.306403"/>
      <trkpt lat="50.913784" lon="14.306059"/>
      <trkpt lat="50.913536" lon="14.305704"/>
      <trkpt lat="50.913415" lon="14.305181"/>
      <trkpt lat="50.913145" lon="14.304351"/>
      <trkpt lat="50.912976" lon="14.303778"/>
      <trkpt lat="50.912713" lon="14.302377"/>
      <trkpt lat="50.912535" lon="14.301998"/>
      <trkpt lat="50.912271" lon="14.301770"/>
      <trkpt lat="50.912210" lon="14.301682"/>
      <trkpt lat="50.912166" lon="14.301551"/>
      <trkpt lat="50.912143" lon="14.301221"/>
      <trkpt lat="50.912122" lon="14.301034"/>
      <trkpt lat="50.912078" lon="14.300880"/>
      <trkpt lat="50.911714" lon="14.300431"/>
      <trkpt lat="50.911295" lon="14.299881"/>
      <trkpt lat="50.910976" lon="14.299552"/>
      <trkpt lat="50.910821" lon="14.299455"/>
      <trkpt lat="50.910683" lon="14.299373"/>
      <trkpt lat="50.910309" lon="14.299284"/>
      <trkpt lat="50.910188" lon="14.299077"/>
      <trkpt lat="50.910134" lon="14.298958"/>
      <trkpt lat="50.910109" lon="14.298866"/>
      <trkpt lat="50.910092" lon="14.298746"/>
      <trkpt lat="50.910138" lon="14.298692"/>
      <trkpt lat="50.910207" lon="14.298587"/>
      <trkpt lat="50.910313" lon="14.298415"/>
      <trkpt lat="50.910359" lon="14.298293"/>
      <trkpt lat="50.910369" lon="14.298121"/>
      <trkpt lat="50.910262" lon="14.298095"/>
      <trkpt lat="50.910106" lon="14.297990"/>
      <trkpt lat="50.910065" lon="14.297931"/>
      <trkpt lat="50.910004" lon="14.297713"/>
      <trkpt lat="50.909797" lon="14.297276"/>
      <trkpt lat="50.909758" lon="14.297225"/>
      <trkpt lat="50.909717" lon="14.297173"/>
      <trkpt lat="50.909685" lon="14.297155"/>
      <trkpt lat="50.909390" lon="14.296962"/>
      <trkpt lat="50.908748" lon="14.296515"/>
      <trkpt lat="50.908364" lon="14.296235"/>
      <trkpt lat="50.908175" lon="14.296096"/>
      <trkpt lat="50.908073" lon="14.295989"/>
      <trkpt lat="50.907975" lon="14.295831"/>
      <trkpt lat="50.907877" lon="14.295619"/>
      <trkpt lat="50.907596" lon="14.295139"/>
      <trkpt lat="50.907490" lon="14.294878"/>
      <trkpt lat="50.907435" lon="14.294736"/>
      <trkpt lat="50.907367" lon="14.294633"/>
      <trkpt lat="50.907083" lon="14.294389"/>
      <trkpt lat="50.907052" lon="14.294302"/>
      <trkpt lat="50.906901" lon="14.293637"/>
      <trkpt lat="50.906857" lon="14.293334"/>
      <trkpt lat="50.906922" lon="14.292886"/>
      <trkpt lat="50.907058" lon="14.292125"/>
      <trkpt lat="50.907155" lon="14.291638"/>
      <trkpt lat="50.907160" lon="14.291472"/>
      <trkpt lat="50.907121" lon="14.291274"/>
      <trkpt lat="50.907102" lon="14.291150"/>
      <trkpt lat="50.907116" lon="14.291077"/>
      <trkpt lat="50.907272" lon="14.290962"/>
      <trkpt lat="50.907327" lon="14.290852"/>
      <trkpt lat="50.907363" lon="14.290716"/>
      <trkpt lat="50.907368" lon="14.290640"/>
      <trkpt lat="50.907335" lon="14.290508"/>
      <trkpt lat="50.907198" lon="14.290124"/>
      <trkpt lat="50.907096" lon="14.289676"/>
      <trkpt lat="50.906989" lon="14.289077"/>
      <trkpt lat="50.906913" lon="14.288803"/>
      <trkpt lat="50.906558" lon="14.288073"/>
      <trkpt lat="50.906435" lon="14.287477"/>
      <trkpt lat="50.906376" lon="14.287364"/>
      <trkpt lat="50.906180" lon="14.287149"/>
      <trkpt lat="50.905994" lon="14.286347"/>
      <trkpt lat="50.905943" lon="14.286239"/>
      <trkpt lat="50.905720" lon="14.285806"/>
      <trkpt lat="50.905651" lon="14.285554"/>
      <trkpt lat="50.905598" lon="14.285271"/>
      <trkpt lat="50.905624" lon="14.284684"/>
      <trkpt lat="50.905609" lon="14.284567"/>
      <trkpt lat="50.905481" lon="14.284132"/>
      <trkpt lat="50.905420" lon="14.283934"/>
      <trkpt lat="50.905269" lon="14.283585"/>
      <trkpt lat="50.905144" lon="14.283122"/>
      <trkpt lat="50.905051" lon="14.282803"/>
      <trkpt lat="50.904961" lon="14.282688"/>
      <trkpt lat="50.904863" lon="14.282597"/>
      <trkpt lat="50.904798" lon="14.282504"/>
      <trkpt lat="50.904655" lon="14.282235"/>
      <trkpt lat="50.904569" lon="14.281946"/>
      <trkpt lat="50.904459" lon="14.281525"/>
      <trkpt lat="50.904418" lon="14.281411"/>
      <trkpt lat="50.904332" lon="14.281287"/>
      <trkpt lat="50.904286" lon="14.281235"/>
      <trkpt lat="50.904212" lon="14.281204"/>
      <trkpt lat="50.904112" lon="14.281202"/>
      <trkpt lat="50.903958" lon="14.281215"/>
      <trkpt lat="50.903781" lon="14.281250"/>
      <trkpt lat="50.903678" lon="14.281226"/>
      <trkpt lat="50.903473" lon="14.281143"/>
      <trkpt lat="50.903356" lon="14.281081"/>
      <trkpt lat="50.903280" lon="14.281006"/>
      <trkpt lat="50.903016" lon="14.280628"/>
      <trkpt lat="50.902113" lon="14.279620"/>
      <trkpt lat="50.902024" lon="14.279520"/>
      <trkpt lat="50.901776" lon="14.279222"/>
      <trkpt lat="50.901591" lon="14.278915"/>
      <trkpt lat="50.901536" lon="14.278563"/>
      <trkpt lat="50.901511" lon="14.278347"/>
      <trkpt lat="50.901384" lon="14.277989"/>
      <trkpt lat="50.901363" lon="14.277814"/>
      <trkpt lat="50.901328" lon="14.277356"/>
      <trkpt lat="50.901326" lon="14.276877"/>
      <trkpt lat="50.901248" lon="14.276446"/>
      <trkpt lat="50.901094" lon="14.276044"/>
      <trkpt lat="50.900636" lon="14.275541"/>
      <trkpt lat="50.900389" lon="14.275145"/>
      <trkpt lat="50.900237" lon="14.274967"/>
      <trkpt lat="50.899887" lon="14.274690"/>
      <trkpt lat="50.899631" lon="14.274367"/>
      <trkpt lat="50.899488" lon="14.273970"/>
      <trkpt lat="50.899361" lon="14.273713"/>
      <trkpt lat="50.899258" lon="14.273587"/>
      <trkpt lat="50.899091" lon="14.273417"/>
      <trkpt lat="50.899026" lon="14.273331"/>
      <trkpt lat="50.898976" lon="14.273164"/>
      <trkpt lat="50.898966" lon="14.272858"/>
      <trkpt lat="50.898950" lon="14.272612"/>
      <trkpt lat="50.898877" lon="14.272334"/>
      <trkpt lat="50.898764" lon="14.272077"/>
      <trkpt lat="50.898321" lon="14.271142"/>
      <trkpt lat="50.898198" lon="14.270523"/>
      <trkpt lat="50.898171" lon="14.270030"/>
      <trkpt lat="50.898179" lon="14.269697"/>
      <trkpt lat="50.898040" lon="14.269903"/>
      <trkpt lat="50.897808" lon="14.270206"/>
      <trkpt lat="50.897666" lon="14.270332"/>
      <trkpt lat="50.897501" lon="14.270346"/>
      <trkpt lat="50.896826" lon="14.269941"/>
      <trkpt lat="50.896657" lon="14.269737"/>
      <trkpt lat="50.896458" lon="14.269569"/>
      <trkpt lat="50.896289" lon="14.269500"/>
      <trkpt lat="50.896250" lon="14.269384"/>
      <trkpt lat="50.896230" lon="14.269324"/>
      <trkpt lat="50.896205" lon="14.269170"/>
      <trkpt lat="50.896175" lon="14.268940"/>
      <trkpt lat="50.896103" lon="14.268270"/>
      <trkpt lat="50.896047" lon="14.267893"/>
      <trkpt lat="50.896019" lon="14.267576"/>
      <trkpt lat="50.896002" lon="14.267016"/>
      <trkpt lat="50.895969" lon="14.266761"/>
      <trkpt lat="50.895786" lon="14.266262"/>
      <trkpt lat="50.895779" lon="14.266241"/>
      <trkpt lat="50.895605" lon="14.265816"/>
      <trkpt lat="50.895547" lon="14.265655"/>
      <trkpt lat="50.895328" lon="14.265082"/>
      <trkpt lat="50.895297" lon="14.264944"/>
      <trkpt lat="50.895230" lon="14.264742"/>
      <trkpt lat="50.895165" lon="14.264572"/>
      <trkpt lat="50.895051" lon="14.264424"/>
      <trkpt lat="50.894982" lon="14.264337"/>
      <trkpt lat="50.894835" lon="14.264161"/>
      <trkpt lat="50.894682" lon="14.263986"/>
      <trkpt lat="50.894621" lon="14.263920"/>
      <trkpt lat="50.894531" lon="14.263828"/>
      <trkpt lat="50.894469" lon="14.263739"/>
      <trkpt lat="50.894441" lon="14.263674"/>
      <trkpt lat="50.894408" lon="14.263570"/>
      <trkpt lat="50.894327" lon="14.263176"/>
      <trkpt lat="50.894129" lon="14.262308"/>
      <trkpt lat="50.894323" lon="14.261842"/>
      <trkpt lat="50.894504" lon="14.261554"/>
      <trkpt lat="50.894962" lon="14.260573"/>
      <trkpt lat="50.894992" lon="14.260508"/>
      <trkpt lat="50.895237" lon="14.260298"/>
      <trkpt lat="50.895316" lon="14.260221"/>
      <trkpt lat="50.895346" lon="14.259421"/>
      <trkpt lat="50.895435" lon="14.259224"/>
      <trkpt lat="50.895546" lon="14.259118"/>
      <trkpt lat="50.895623" lon="14.259091"/>
      <trkpt lat="50.895570" lon="14.258964"/>
      <trkpt lat="50.895511" lon="14.258800"/>
      <trkpt lat="50.895401" lon="14.258506"/>
      <trkpt lat="50.895333" lon="14.258390"/>
      <trkpt lat="50.895340" lon="14.258305"/>
      <trkpt lat="50.895393" lon="14.258301"/>
      <trkpt lat="50.895504" lon="14.258382"/>
      <trkpt lat="50.895575" lon="14.258436"/>
      <trkpt lat="50.895624" lon="14.258455"/>
      <trkpt lat="50.896005" lon="14.258485"/>
      <trkpt lat="50.896090" lon="14.258469"/>
      <trkpt lat="50.896122" lon="14.258420"/>
      <trkpt lat="50.896112" lon="14.258340"/>
      <trkpt lat="50.896015" lon="14.258235"/>
      <trkpt lat="50.895845" lon="14.258087"/>
      <trkpt lat="50.895817" lon="14.258011"/>
      <trkpt lat="50.895804" lon="14.257798"/>
      <trkpt lat="50.895764" lon="14.257601"/>
      <trkpt lat="50.895659" lon="14.257365"/>
      <trkpt lat="50.895584" lon="14.257125"/>
      <trkpt lat="50.895530" lon="14.256844"/>
      <trkpt lat="50.895505" lon="14.256546"/>
      <trkpt lat="50.895487" lon="14.256194"/>
      <trkpt lat="50.895451" lon="14.256053"/>
      <trkpt lat="50.895371" lon="14.255921"/>
      <trkpt lat="50.895171" lon="14.255612"/>
      <trkpt lat="50.894888" lon="14.255227"/>
      <trkpt lat="50.894820" lon="14.254669"/>
      <trkpt lat="50.894844" lon="14.254167"/>
      <trkpt lat="50.894869" lon="14.253920"/>
      <trkpt lat="50.894930" lon="14.253455"/>
      <trkpt lat="50.895006" lon="14.252966"/>
      <trkpt lat="50.895006" lon="14.252740"/>
      <trkpt lat="50.894860" lon="14.252347"/>
      <trkpt lat="50.894883" lon="14.252195"/>
      <trkpt lat="50.894833" lon="14.251830"/>
      <trkpt lat="50.894782" lon="14.251664"/>
      <trkpt lat="50.894686" lon="14.251471"/>
      <trkpt lat="50.894524" lon="14.251293"/>
      <trkpt lat="50.894381" lon="14.250630"/>
      <trkpt lat="50.894354" lon="14.250125"/>
      <trkpt lat="50.894398" lon="14.250020"/>
      <trkpt lat="50.894321" lon="14.249675"/>
      <trkpt lat="50.894267" lon="14.249515"/>
      <trkpt lat="50.894142" lon="14.248661"/>
      <trkpt lat="50.894183" lon="14.248567"/>
      <trkpt lat="50.894181" lon="14.248529"/>
      <trkpt lat="50.894109" lon="14.248383"/>
      <trkpt lat="50.894075" lon="14.248186"/>
      <trkpt lat="50.894095" lon="14.247905"/>
      <trkpt lat="50.893911" lon="14.247621"/>
      <trkpt lat="50.893905" lon="14.247507"/>
      <trkpt lat="50.894025" lon="14.246987"/>
      <trkpt lat="50.894302" lon="14.245781"/>
      <trkpt lat="50.894365" lon="14.245425"/>
      <trkpt lat="50.894365" lon="14.244881"/>
      <trkpt lat="50.894346" lon="14.244566"/>
      <trkpt lat="50.894250" lon="14.244137"/>
      <trkpt lat="50.894188" lon="14.243643"/>
      <trkpt lat="50.894086" lon="14.243351"/>
      <trkpt lat="50.893960" lon="14.242591"/>
      <trkpt lat="50.893816" lon="14.242167"/>
      <trkpt lat="50.893807" lon="14.241767"/>
      <trkpt lat="50.893693" lon="14.241422"/>
      <trkpt lat="50.893701" lon="14.241283"/>
      <trkpt lat="50.893751" lon="14.241037"/>
      <trkpt lat="50.893732" lon="14.240748"/>
      <trkpt lat="50.893159" lon="14.239872"/>
      <trkpt lat="50.893099" lon="14.239656"/>
      <trkpt lat="50.892793" lon="14.239200"/>
      <trkpt lat="50.892754" lon="14.238670"/>
      <trkpt lat="50.892684" lon="14.238404"/>
      <trkpt lat="50.892563" lon="14.238173"/>
      <trkpt lat="50.892466" lon="14.237941"/>
      <trkpt lat="50.892379" lon="14.237680"/>
      <trkpt lat="50.892294" lon="14.237367"/>
      <trkpt lat="50.892237" lon="14.237187"/>
      <trkpt lat="50.892217" lon="14.237032"/>
      <trkpt lat="50.892212" lon="14.236724"/>
      <trkpt lat="50.892220" lon="14.236473"/>
      <trkpt lat="50.892274" lon="14.236242"/>
      <trkpt lat="50.892355" lon="14.235937"/>
      <trkpt lat="50.892424" lon="14.235774"/>
      <trkpt lat="50.892489" lon="14.235627"/>
      <trkpt lat="50.892486" lon="14.235596"/>
      <trkpt lat="50.892512" lon="14.235534"/>
      <trkpt lat="50.892542" lon="14.235454"/>
      <trkpt lat="50.892595" lon="14.235355"/>
      <trkpt lat="50.892654" lon="14.235263"/>
      <trkpt lat="50.892777" lon="14.235095"/>
      <trkpt lat="50.892895" lon="14.234937"/>
      <trkpt lat="50.893103" lon="14.234902"/>
      <trkpt lat="50.893164" lon="14.234871"/>
      <trkpt lat="50.893223" lon="14.234763"/>
      <trkpt lat="50.893257" lon="14.234704"/>
      <trkpt lat="50.893121" lon="14.234596"/>
      <trkpt lat="50.893070" lon="14.234540"/>
      <trkpt lat="50.893031" lon="14.234487"/>
      <trkpt lat="50.892989" lon="14.234427"/>
      <trkpt lat="50.892910" lon="14.234277"/>
      <trkpt lat="50.892848" lon="14.234155"/>
      <trkpt lat="50.892764" lon="14.233991"/>
      <trkpt lat="50.892706" lon="14.233896"/>
      <trkpt lat="50.892627" lon="14.233705"/>
      <trkpt lat="50.892550" lon="14.233478"/>
      <trkpt lat="50.892506" lon="14.233358"/>
      <trkpt lat="50.892471" lon="14.233207"/>
      <trkpt lat="50.892431" lon="14.232934"/>
      <trkpt lat="50.892389" lon="14.232757"/>
      <trkpt lat="50.892315" lon="14.232480"/>
      <trkpt lat="50.892289" lon="14.232375"/>
      <trkpt lat="50.892262" lon="14.232262"/>
      <trkpt lat="50.892222" lon="14.232127"/>
      <trkpt lat="50.892188" lon="14.232006"/>
      <trkpt lat="50.891851" lon="14.231476"/>
      <trkpt lat="50.891793" lon="14.231365"/>
      <trkpt lat="50.891755" lon="14.231312"/>
      <trkpt lat="50.891656" lon="14.231158"/>
      <trkpt lat="50.891538" lon="14.230910"/>
      <trkpt lat="50.891567" lon="14.230884"/>
      <trkpt lat="50.891593" lon="14.230833"/>
      <trkpt lat="50.891580" lon="14.230646"/>
      <trkpt lat="50.891576" lon="14.230457"/>
      <trkpt lat="50.891573" lon="14.230376"/>
      <trkpt lat="50.891611" lon="14.230292"/>
      <trkpt lat="50.891560" lon="14.230165"/>
      <trkpt lat="50.891448" lon="14.229858"/>
      <trkpt lat="50.891386" lon="14.229674"/>
      <trkpt lat="50.890499" lon="14.228993"/>
      <trkpt lat="50.890413" lon="14.228788"/>
      <trkpt lat="50.890394" lon="14.228749"/>
      <trkpt lat="50.890364" lon="14.228677"/>
      <trkpt lat="50.890351" lon="14.228647"/>
      <trkpt lat="50.890333" lon="14.228608"/>
      <trkpt lat="50.890294" lon="14.228519"/>
      <trkpt lat="50.890258" lon="14.228438"/>
      <trkpt lat="50.890093" lon="14.228756"/>
      <trkpt lat="50.889912" lon="14.228977"/>
      <trkpt lat="50.889373" lon="14.229550"/>
      <trkpt lat="50.888259" lon="14.230725"/>
      <trkpt lat="50.888146" lon="14.230454"/>
      <trkpt lat="50.888075" lon="14.230295"/>
      <trkpt lat="50.887959" lon="14.230318"/>
      <trkpt lat="50.887865" lon="14.230392"/>
      <trkpt lat="50.887850" lon="14.230389"/>
      <trkpt lat="50.887841" lon="14.230363"/>
      <trkpt lat="50.887764" lon="14.230426"/>
      <trkpt lat="50.887744" lon="14.230377"/>
      <trkpt lat="50.887779" lon="14.230257"/>
      <trkpt lat="50.887836" lon="14.230143"/>
      <trkpt lat="50.887629" lon="14.230115"/>
      <trkpt lat="50.887738" lon="14.229937"/>
      <trkpt lat="50.887595" lon="14.229896"/>
      <trkpt lat="50.887676" lon="14.229648"/>
      <trkpt lat="50.887492" lon="14.229615"/>
      <trkpt lat="50.887320" lon="14.229428"/>
      <trkpt lat="50.887077" lon="14.229141"/>
      <trkpt lat="50.886777" lon="14.228976"/>
      <trkpt lat="50.886497" lon="14.228942"/>
      <trkpt lat="50.886240" lon="14.228827"/>
      <trkpt lat="50.886298" lon="14.228713"/>
      <trkpt lat="50.886078" lon="14.228645"/>
      <trkpt lat="50.886071" lon="14.228571"/>
      <trkpt lat="50.886070" lon="14.228441"/>
      <trkpt lat="50.886060" lon="14.228387"/>
      <trkpt lat="50.885987" lon="14.228261"/>
      <trkpt lat="50.885935" lon="14.228010"/>
      <trkpt lat="50.885682" lon="14.226716"/>
      <trkpt lat="50.885598" lon="14.226226"/>
      <trkpt lat="50.885475" lon="14.225669"/>
      <trkpt lat="50.885445" lon="14.225493"/>
      <trkpt lat="50.885411" lon="14.225270"/>
      <trkpt lat="50.885384" lon="14.224951"/>
      <trkpt lat="50.885322" lon="14.224241"/>
      <trkpt lat="50.885236" lon="14.223342"/>
      <trkpt lat="50.885168" lon="14.222867"/>
      <trkpt lat="50.885115" lon="14.222613"/>
      <trkpt lat="50.885016" lon="14.222224"/>
      <trkpt lat="50.884876" lon="14.221570"/>
      <trkpt lat="50.884803" lon="14.221162"/>
      <trkpt lat="50.884741" lon="14.220823"/>
      <trkpt lat="50.884704" lon="14.220741"/>
      <trkpt lat="50.884661" lon="14.220714"/>
      <trkpt lat="50.884576" lon="14.220710"/>
      <trkpt lat="50.884421" lon="14.220712"/>
      <trkpt lat="50.884360" lon="14.220682"/>
      <trkpt lat="50.884303" lon="14.220623"/>
      <trkpt lat="50.884470" lon="14.219991"/>
      <trkpt lat="50.884556" lon="14.219649"/>
      <trkpt lat="50.884588" lon="14.219534"/>
      <trkpt lat="50.884619" lon="14.219405"/>
      <trkpt lat="50.884670" lon="14.218361"/>
      <trkpt lat="50.884676" lon="14.218132"/>
      <trkpt lat="50.884678" lon="14.218039"/>
      <trkpt lat="50.884670" lon="14.217479"/>
      <trkpt lat="50.884661" lon="14.217359"/>
      <trkpt lat="50.884651" lon="14.217234"/>
      <trkpt lat="50.884628" lon="14.217012"/>
      <trkpt lat="50.884505" lon="14.216219"/>
      <trkpt lat="50.884497" lon="14.216168"/>
      <trkpt lat="50.884493" lon="14.216124"/>
      <trkpt lat="50.884482" lon="14.215965"/>
      <trkpt lat="50.884475" lon="14.215713"/>
      <trkpt lat="50.884464" lon="14.215536"/>
      <trkpt lat="50.884464" lon="14.215378"/>
      <trkpt lat="50.884472" lon="14.215203"/>
      <trkpt lat="50.884513" lon="14.214968"/>
      <trkpt lat="50.884560" lon="14.214742"/>
      <trkpt lat="50.884618" lon="14.214550"/>
      <trkpt lat="50.884659" lon="14.214383"/>
      <trkpt lat="50.884700" lon="14.213986"/>
      <trkpt lat="50.884704" lon="14.213902"/>
      <trkpt lat="50.884700" lon="14.213771"/>
      <trkpt lat="50.884673" lon="14.213644"/>
      <trkpt lat="50.884570" lon="14.213461"/>
      <trkpt lat="50.884519" lon="14.213370"/>
      <trkpt lat="50.884481" lon="14.213386"/>
      <trkpt lat="50.884369" lon="14.213409"/>
      <trkpt lat="50.884228" lon="14.213450"/>
      <trkpt lat="50.884184" lon="14.213467"/>
      <trkpt lat="50.884136" lon="14.213487"/>
      <trkpt lat="50.884083" lon="14.213525"/>
      <trkpt lat="50.884025" lon="14.213598"/>
      <trkpt lat="50.883984" lon="14.213705"/>
      <trkpt lat="50.883967" lon="14.213805"/>
      <trkpt lat="50.883954" lon="14.214218"/>
      <trkpt lat="50.883885" lon="14.214313"/>
      <trkpt lat="50.883807" lon="14.214399"/>
      <trkpt lat="50.883719" lon="14.214451"/>
      <trkpt lat="50.883589" lon="14.214471"/>
      <trkpt lat="50.883415" lon="14.214487"/>
      <trkpt lat="50.883227" lon="14.214467"/>
      <trkpt lat="50.882894" lon="14.214359"/>
      <trkpt lat="50.882823" lon="14.214327"/>
      <trkpt lat="50.883048" lon="14.213865"/>
      <trkpt lat="50.883287" lon="14.213362"/>
      <trkpt lat="50.883312" lon="14.213318"/>
      <trkpt lat="50.883479" lon="14.213033"/>
      <trkpt lat="50.883499" lon="14.212999"/>
      <trkpt lat="50.883585" lon="14.212853"/>
      <trkpt lat="50.883619" lon="14.212787"/>
      <trkpt lat="50.883817" lon="14.212460"/>
      <trkpt lat="50.883908" lon="14.212294"/>
      <trkpt lat="50.884039" lon="14.211944"/>
      <trkpt lat="50.884120" lon="14.211764"/>
      <trkpt lat="50.884248" lon="14.211539"/>
      <trkpt lat="50.884374" lon="14.211363"/>
      <trkpt lat="50.884504" lon="14.211132"/>
      <trkpt lat="50.884552" lon="14.211034"/>
      <trkpt lat="50.884670" lon="14.210793"/>
      <trkpt lat="50.884752" lon="14.210668"/>
      <trkpt lat="50.884847" lon="14.210590"/>
      <trkpt lat="50.884949" lon="14.210529"/>
      <trkpt lat="50.885106" lon="14.210384"/>
      <trkpt lat="50.885326" lon="14.210058"/>
      <trkpt lat="50.885414" lon="14.209959"/>
      <trkpt lat="50.885539" lon="14.209780"/>
      <trkpt lat="50.885726" lon="14.209574"/>
      <trkpt lat="50.885833" lon="14.209455"/>
    </trkseg>
  </trk>
</gpx>
