<?xml version="1.0" encoding="UTF-8"?>
<gpx version="1.1" creator="hike-recap example data"
     xmlns="http://www.topografix.com/GPX/1/1">
  <metadata>
    <name>Stage 3</name>
    <desc>Derived from OpenStreetMap relation 114289, ODbL. Example data.</desc>
  </metadata>
  <trk>
    <name>Stage 3</name>
    <trkseg>
      <trkpt lat="50.984738" lon="14.088759"/>
      <trkpt lat="50.984788" lon="14.088864"/>
      <trkpt lat="50.984765" lon="14.089089"/>
      <trkpt lat="50.984703" lon="14.089728"/>
      <trkpt lat="50.984684" lon="14.089896"/>
      <trkpt lat="50.984649" lon="14.090066"/>
      <trkpt lat="50.984555" lon="14.090410"/>
      <trkpt lat="50.984494" lon="14.090549"/>
      <trkpt lat="50.984454" lon="14.090629"/>
      <trkpt lat="50.984407" lon="14.090701"/>
      <trkpt lat="50.984306" lon="14.090816"/>
      <trkpt lat="50.984258" lon="14.090993"/>
      <trkpt lat="50.984164" lon="14.090997"/>
      <trkpt lat="50.984006" lon="14.091062"/>
      <trkpt lat="50.983764" lon="14.091115"/>
      <trkpt lat="50.983550" lon="14.091156"/>
      <trkpt lat="50.983368" lon="14.091191"/>
      <trkpt lat="50.982965" lon="14.091242"/>
      <trkpt lat="50.982752" lon="14.091375"/>
      <trkpt lat="50.982727" lon="14.091320"/>
      <trkpt lat="50.982713" lon="14.091221"/>
      <trkpt lat="50.982683" lon="14.091250"/>
      <trkpt lat="50.982639" lon="14.091294"/>
      <trkpt lat="50.982529" lon="14.091450"/>
      <trkpt lat="50.982469" lon="14.091571"/>
      <trkpt lat="50.982424" lon="14.091684"/>
      <trkpt lat="50.982377" lon="14.091847"/>
      <trkpt lat="50.982355" lon="14.091976"/>
      <trkpt lat="50.982346" lon="14.092018"/>
      <trkpt lat="50.982338" lon="14.092153"/>
      <trkpt lat="50.982242" lon="14.092139"/>
      <trkpt lat="50.982184" lon="14.092239"/>
      <trkpt lat="50.981605" lon="14.093484"/>
      <trkpt lat="50.981344" lon="14.093819"/>
      <trkpt lat="50.981114" lon="14.094039"/>
      <trkpt lat="50.980845" lon="14.094319"/>
      <trkpt lat="50.980791" lon="14.094444"/>
      <trkpt lat="50.980737" lon="14.094715"/>
      <trkpt lat="50.980725" lon="14.094784"/>
      <trkpt lat="50.980716" lon="14.095443"/>
      <trkpt lat="50.980604" lon="14.095993"/>
      <trkpt lat="50.980555" lon="14.096315"/>
      <trkpt lat="50.980464" lon="14.096998"/>
      <trkpt lat="50.980453" lon="14.097513"/>
      <trkpt lat="50.980468" lon="14.097754"/>
      <trkpt lat="50.980482" lon="14.098082"/>
      <trkpt lat="50.980548" lon="14.098293"/>
      <trkpt lat="50.980565" lon="14.098434"/>
      <trkpt lat="50.980568" lon="14.098570"/>
      <trkpt lat="50.980557" lon="14.098664"/>
      <trkpt lat="50.980517" lon="14.098842"/>
      <trkpt lat="50.980519" lon="14.099053"/>
      <trkpt lat="50.980448" lon="14.099127"/>
      <trkpt lat="50.980408" lon="14.099197"/>
      <trkpt lat="50.980373" lon="14.099287"/>
      <trkpt lat="50.980370" lon="14.099374"/>
      <trkpt lat="50.980369" lon="14.099461"/>
      <trkpt lat="50.980386" lon="14.099701"/>
      <trkpt lat="50.980377" lon="14.099830"/>
      <trkpt lat="50.980340" lon="14.100048"/>
      <trkpt lat="50.980302" lon="14.100263"/>
      <trkpt lat="50.980274" lon="14.100469"/>
      <trkpt lat="50.980255" lon="14.100501"/>
      <trkpt lat="50.980241" lon="14.100516"/>
      <trkpt lat="50.980225" lon="14.100537"/>
      <trkpt lat="50.980100" lon="14.100724"/>
      <trkpt lat="50.980084" lon="14.100782"/>
      <trkpt lat="50.980078" lon="14.100791"/>
      <trkpt lat="50.980069" lon="14.100801"/>
      <trkpt lat="50.980002" lon="14.100880"/>
      <trkpt lat="50.980001" lon="14.100936"/>
      <trkpt lat="50.980008" lon="14.101078"/>
      <trkpt lat="50.980011" lon="14.101135"/>
      <trkpt lat="50.979999" lon="14.101332"/>
      <trkpt lat="50.980034" lon="14.101359"/>
      <trkpt lat="50.980056" lon="14.101331"/>
      <trkpt lat="50.980066" lon="14.101317"/>
      <trkpt lat="50.980120" lon="14.101182"/>
      <trkpt lat="50.980158" lon="14.101113"/>
      <trkpt lat="50.980126" lon="14.101092"/>
      <trkpt lat="50.980106" lon="14.101023"/>
      <trkpt lat="50.980083" lon="14.100909"/>
      <trkpt lat="50.980035" lon="14.100991"/>
      <trkpt lat="50.980035" lon="14.100993"/>
      <trkpt lat="50.980006" lon="14.100993"/>
      <trkpt lat="50.979971" lon="14.101014"/>
      <trkpt lat="50.979948" lon="14.101041"/>
      <trkpt lat="50.979939" lon="14.101074"/>
      <trkpt lat="50.979733" lon="14.101141"/>
      <trkpt lat="50.979729" lon="14.101254"/>
      <trkpt lat="50.979790" lon="14.101360"/>
      <trkpt lat="50.979837" lon="14.101420"/>
      <trkpt lat="50.979899" lon="14.101550"/>
      <trkpt lat="50.980008" lon="14.101722"/>
      <trkpt lat="50.980095" lon="14.101849"/>
      <trkpt lat="50.980145" lon="14.101919"/>
      <trkpt lat="50.980201" lon="14.101928"/>
      <trkpt lat="50.980244" lon="14.101854"/>
      <trkpt lat="50.980304" lon="14.101833"/>
      <trkpt lat="50.980341" lon="14.101738"/>
      <trkpt lat="50.980355" lon="14.101700"/>
      <trkpt lat="50.980371" lon="14.101657"/>
      <trkpt lat="50.980414" lon="14.101669"/>
      <trkpt lat="50.980448" lon="14.101680"/>
      <trkpt lat="50.980467" lon="14.101665"/>
      <trkpt lat="50.980465" lon="14.101604"/>
      <trkpt lat="50.980472" lon="14.101504"/>
      <trkpt lat="50.980470" lon="14.101447"/>
      <trkpt lat="50.980470" lon="14.101358"/>
      <trkpt lat="50.980485" lon="14.101181"/>
      <trkpt lat="50.980475" lon="14.101054"/>
      <trkpt lat="50.980485" lon="14.100983"/>
      <trkpt lat="50.980569" lon="14.100985"/>
      <trkpt lat="50.980715" lon="14.100874"/>
      <trkpt lat="50.980839" lon="14.100874"/>
      <trkpt lat="50.980934" lon="14.101001"/>
      <trkpt lat="50.981025" lon="14.101118"/>
      <trkpt lat="50.981102" lon="14.101188"/>
      <trkpt lat="50.981144" lon="14.101263"/>
      <trkpt lat="50.981178" lon="14.101385"/>
      <trkpt lat="50.981219" lon="14.101698"/>
      <trkpt lat="50.981257" lon="14.101822"/>
      <trkpt lat="50.981299" lon="14.101988"/>
      <trkpt lat="50.981316" lon="14.102026"/>
      <trkpt lat="50.981458" lon="14.102055"/>
      <trkpt lat="50.981535" lon="14.102091"/>
      <trkpt lat="50.981606" lon="14.102131"/>
      <trkpt lat="50.981656" lon="14.102128"/>
      <trkpt lat="50.981699" lon="14.102147"/>
      <trkpt lat="50.981733" lon="14.102183"/>
      <trkpt lat="50.981778" lon="14.102272"/>
      <trkpt lat="50.981792" lon="14.102373"/>
      <trkpt lat="50.981757" lon="14.102354"/>
      <trkpt lat="50.981624" lon="14.102299"/>
      <trkpt lat="50.981388" lon="14.102240"/>
      <trkpt lat="50.981246" lon="14.102217"/>
      <trkpt lat="50.981103" lon="14.102228"/>
      <trkpt lat="50.980943" lon="14.102289"/>
      <trkpt lat="50.980771" lon="14.102408"/>
      <trkpt lat="50.980645" lon="14.102476"/>
      <trkpt lat="50.980479" lon="14.102535"/>
      <trkpt lat="50.980406" lon="14.102579"/>
      <trkpt lat="50.980379" lon="14.102596"/>
      <trkpt lat="50.980165" lon="14.102862"/>
      <trkpt lat="50.980057" lon="14.103071"/>
      <trkpt lat="50.979998" lon="14.103239"/>
      <trkpt lat="50.979929" lon="14.103122"/>
      <trkpt lat="50.979827" lon="14.102949"/>
      <trkpt lat="50.979775" lon="14.103002"/>
      <trkpt lat="50.979719" lon="14.103033"/>
      <trkpt lat="50.979619" lon="14.103036"/>
      <trkpt lat="50.979507" lon="14.103005"/>
      <trkpt lat="50.979495" lon="14.103102"/>
      <trkpt lat="50.979493" lon="14.103312"/>
      <trkpt lat="50.979485" lon="14.103390"/>
      <trkpt lat="50.979461" lon="14.103459"/>
      <trkpt lat="50.979456" lon="14.103475"/>
      <trkpt lat="50.979426" lon="14.103578"/>
      <trkpt lat="50.979422" lon="14.103591"/>
      <trkpt lat="50.979374" lon="14.103675"/>
      <trkpt lat="50.979309" lon="14.103889"/>
      <trkpt lat="50.979226" lon="14.104125"/>
      <trkpt lat="50.979118" lon="14.104407"/>
      <trkpt lat="50.979072" lon="14.104527"/>
      <trkpt lat="50.979037" lon="14.104619"/>
      <trkpt lat="50.978938" lon="14.105014"/>
      <trkpt lat="50.978873" lon="14.105285"/>
      <trkpt lat="50.978845" lon="14.105509"/>
      <trkpt lat="50.978790" lon="14.105908"/>
      <trkpt lat="50.978666" lon="14.106300"/>
      <trkpt lat="50.978607" lon="14.106616"/>
      <trkpt lat="50.978594" lon="14.106779"/>
      <trkpt lat="50.978570" lon="14.106905"/>
      <trkpt lat="50.978485" lon="14.107192"/>
      <trkpt lat="50.978452" lon="14.107237"/>
      <trkpt lat="50.978437" lon="14.107307"/>
      <trkpt lat="50.978399" lon="14.107464"/>
      <trkpt lat="50.978403" lon="14.107646"/>
      <trkpt lat="50.978372" lon="14.107750"/>
      <trkpt lat="50.978370" lon="14.107815"/>
      <trkpt lat="50.978372" lon="14.107862"/>
      <trkpt lat="50.978359" lon="14.108016"/>
      <trkpt lat="50.978363" lon="14.108197"/>
      <trkpt lat="50.978368" lon="14.108344"/>
      <trkpt lat="50.978360" lon="14.108420"/>
      <trkpt lat="50.978327" lon="14.108444"/>
      <trkpt lat="50.978285" lon="14.108450"/>
      <trkpt lat="50.978150" lon="14.108438"/>
      <trkpt lat="50.978015" lon="14.108477"/>
      <trkpt lat="50.978005" lon="14.108505"/>
      <trkpt lat="50.978006" lon="14.108540"/>
      <trkpt lat="50.978001" lon="14.108564"/>
      <trkpt lat="50.977764" lon="14.108612"/>
      <trkpt lat="50.977764" lon="14.108667"/>
      <trkpt lat="50.977752" lon="14.108711"/>
      <trkpt lat="50.977612" lon="14.108805"/>
      <trkpt lat="50.977576" lon="14.108860"/>
      <trkpt lat="50.977530" lon="14.108876"/>
      <trkpt lat="50.977554" lon="14.108971"/>
      <trkpt lat="50.977598" lon="14.108983"/>
      <trkpt lat="50.977626" lon="14.109071"/>
      <trkpt lat="50.977764" lon="14.109189"/>
      <trkpt lat="50.977810" lon="14.109188"/>
      <trkpt lat="50.977934" lon="14.109092"/>
      <trkpt lat="50.977889" lon="14.109235"/>
      <trkpt lat="50.977850" lon="14.109300"/>
      <trkpt lat="50.977821" lon="14.109316"/>
      <trkpt lat="50.977794" lon="14.109320"/>
      <trkpt lat="50.977716" lon="14.109302"/>
      <trkpt lat="50.977524" lon="14.109221"/>
      <trkpt lat="50.977412" lon="14.109186"/>
      <trkpt lat="50.977216" lon="14.109208"/>
      <trkpt lat="50.977109" lon="14.109259"/>
      <trkpt lat="50.976985" lon="14.109312"/>
      <trkpt lat="50.976950" lon="14.109292"/>
      <trkpt lat="50.976899" lon="14.109235"/>
      <trkpt lat="50.976856" lon="14.109132"/>
      <trkpt lat="50.976878" lon="14.109044"/>
      <trkpt lat="50.976920" lon="14.108947"/>
      <trkpt lat="50.976979" lon="14.108792"/>
      <trkpt lat="50.977029" lon="14.108592"/>
      <trkpt lat="50.977151" lon="14.108481"/>
      <trkpt lat="50.977223" lon="14.108441"/>
      <trkpt lat="50.977292" lon="14.108323"/>
      <trkpt lat="50.977382" lon="14.108205"/>
      <trkpt lat="50.977483" lon="14.108193"/>
      <trkpt lat="50.977608" lon="14.108184"/>
      <trkpt lat="50.977714" lon="14.108067"/>
      <trkpt lat="50.977748" lon="14.107981"/>
      <trkpt lat="50.977760" lon="14.107817"/>
      <trkpt lat="50.977726" lon="14.107709"/>
      <trkpt lat="50.977710" lon="14.107586"/>
      <trkpt lat="50.977710" lon="14.107508"/>
      <trkpt lat="50.977733" lon="14.107316"/>
      <trkpt lat="50.977757" lon="14.107149"/>
      <trkpt lat="50.977747" lon="14.106978"/>
      <trkpt lat="50.977710" lon="14.106772"/>
      <trkpt lat="50.977729" lon="14.106494"/>
      <trkpt lat="50.977833" lon="14.106161"/>
      <trkpt lat="50.977903" lon="14.105968"/>
      <trkpt lat="50.977934" lon="14.105831"/>
      <trkpt lat="50.977963" lon="14.105707"/>
      <trkpt lat="50.978013" lon="14.105576"/>
      <trkpt lat="50.978024" lon="14.105412"/>
      <trkpt lat="50.977997" lon="14.104997"/>
      <trkpt lat="50.978001" lon="14.104804"/>
      <trkpt lat="50.978059" lon="14.104684"/>
      <trkpt lat="50.978089" lon="14.104581"/>
      <trkpt lat="50.978103" lon="14.104486"/>
      <trkpt lat="50.978063" lon="14.104355"/>
      <trkpt lat="50.978021" lon="14.104342"/>
      <trkpt lat="50.977914" lon="14.104473"/>
      <trkpt lat="50.977830" lon="14.104536"/>
      <trkpt lat="50.977665" lon="14.104752"/>
      <trkpt lat="50.977578" lon="14.104965"/>
      <trkpt lat="50.977521" lon="14.105097"/>
      <trkpt lat="50.977472" lon="14.105142"/>
      <trkpt lat="50.977360" lon="14.105225"/>
      <trkpt lat="50.977294" lon="14.105376"/>
      <trkpt lat="50.977252" lon="14.105417"/>
      <trkpt lat="50.977218" lon="14.105449"/>
      <trkpt lat="50.977109" lon="14.105463"/>
      <trkpt lat="50.976981" lon="14.105435"/>
      <trkpt lat="50.976922" lon="14.105360"/>
      <trkpt lat="50.976899" lon="14.105281"/>
      <trkpt lat="50.976910" lon="14.105121"/>
      <trkpt lat="50.977053" lon="14.104723"/>
      <trkpt lat="50.977104" lon="14.104622"/>
      <trkpt lat="50.977135" lon="14.104561"/>
      <trkpt lat="50.977152" lon="14.104430"/>
      <trkpt lat="50.977140" lon="14.104379"/>
      <trkpt lat="50.977070" lon="14.104189"/>
      <trkpt lat="50.976955" lon="14.104073"/>
      <trkpt lat="50.976801" lon="14.104047"/>
      <trkpt lat="50.976704" lon="14.104006"/>
      <trkpt lat="50.976585" lon="14.103926"/>
      <trkpt lat="50.976409" lon="14.103865"/>
      <trkpt lat="50.976339" lon="14.103809"/>
      <trkpt lat="50.976281" lon="14.103682"/>
      <trkpt lat="50.976206" lon="14.103382"/>
      <trkpt lat="50.976158" lon="14.103286"/>
      <trkpt lat="50.976089" lon="14.103201"/>
      <trkpt lat="50.975959" lon="14.103053"/>
      <trkpt lat="50.975814" lon="14.102920"/>
      <trkpt lat="50.975707" lon="14.102825"/>
      <trkpt lat="50.975635" lon="14.102807"/>
      <trkpt lat="50.975547" lon="14.102817"/>
      <trkpt lat="50.975423" lon="14.102846"/>
      <trkpt lat="50.975250" lon="14.102804"/>
      <trkpt lat="50.975125" lon="14.102761"/>
      <trkpt lat="50.975023" lon="14.102796"/>
      <trkpt lat="50.974974" lon="14.102848"/>
      <trkpt lat="50.974959" lon="14.102931"/>
      <trkpt lat="50.974946" lon="14.103191"/>
      <trkpt lat="50.974916" lon="14.103328"/>
      <trkpt lat="50.974864" lon="14.103402"/>
      <trkpt lat="50.974816" lon="14.103422"/>
      <trkpt lat="50.974787" lon="14.103416"/>
      <trkpt lat="50.974765" lon="14.103409"/>
      <trkpt lat="50.974715" lon="14.103370"/>
      <trkpt lat="50.974698" lon="14.103318"/>
      <trkpt lat="50.974702" lon="14.103237"/>
      <trkpt lat="50.974750" lon="14.103083"/>
      <trkpt lat="50.974756" lon="14.103001"/>
      <trkpt lat="50.974745" lon="14.102925"/>
      <trkpt lat="50.974726" lon="14.102882"/>
      <trkpt lat="50.974704" lon="14.102835"/>
      <trkpt lat="50.974652" lon="14.102822"/>
      <trkpt lat="50.974539" lon="14.102890"/>
      <trkpt lat="50.974429" lon="14.103006"/>
      <trkpt lat="50.974178" lon="14.103314"/>
      <trkpt lat="50.973999" lon="14.103451"/>
      <trkpt lat="50.973794" lon="14.103594"/>
      <trkpt lat="50.973634" lon="14.103736"/>
      <trkpt lat="50.973527" lon="14.103797"/>
      <trkpt lat="50.973492" lon="14.103783"/>
      <trkpt lat="50.973477" lon="14.103752"/>
      <trkpt lat="50.973445" lon="14.103640"/>
      <trkpt lat="50.973472" lon="14.103428"/>
      <trkpt lat="50.973512" lon="14.103212"/>
      <trkpt lat="50.973565" lon="14.103015"/>
      <trkpt lat="50.973633" lon="14.102840"/>
      <trkpt lat="50.973661" lon="14.102706"/>
      <trkpt lat="50.973639" lon="14.102640"/>
      <trkpt lat="50.973559" lon="14.102476"/>
      <trkpt lat="50.973525" lon="14.102308"/>
      <trkpt lat="50.973464" lon="14.102165"/>
      <trkpt lat="50.973388" lon="14.102150"/>
      <trkpt lat="50.973277" lon="14.102189"/>
      <trkpt lat="50.973168" lon="14.102282"/>
      <trkpt lat="50.973095" lon="14.102411"/>
      <trkpt lat="50.973010" lon="14.102631"/>
      <trkpt lat="50.972986" lon="14.102796"/>
      <trkpt lat="50.973002" lon="14.102908"/>
      <trkpt lat="50.973076" lon="14.103070"/>
      <trkpt lat="50.973086" lon="14.103197"/>
      <trkpt lat="50.973044" lon="14.103370"/>
      <trkpt lat="50.972995" lon="14.103433"/>
      <trkpt lat="50.972863" lon="14.103508"/>
      <trkpt lat="50.972714" lon="14.103580"/>
      <trkpt lat="50.972656" lon="14.103682"/>
      <trkpt lat="50.972544" lon="14.104047"/>
      <trkpt lat="50.972507" lon="14.104096"/>
      <trkpt lat="50.972443" lon="14.104137"/>
      <trkpt lat="50.972385" lon="14.104111"/>
      <trkpt lat="50.972338" lon="14.103973"/>
      <trkpt lat="50.972328" lon="14.103759"/>
      <trkpt lat="50.972274" lon="14.103667"/>
      <trkpt lat="50.972202" lon="14.103679"/>
      <trkpt lat="50.972150" lon="14.103756"/>
      <trkpt lat="50.972101" lon="14.103869"/>
      <trkpt lat="50.972028" lon="14.104105"/>
      <trkpt lat="50.971839" lon="14.104724"/>
      <trkpt lat="50.971724" lon="14.105329"/>
      <trkpt lat="50.971644" lon="14.105725"/>
      <trkpt lat="50.971604" lon="14.105957"/>
      <trkpt lat="50.971586" lon="14.106064"/>
      <trkpt lat="50.971443" lon="14.106357"/>
      <trkpt lat="50.971370" lon="14.106575"/>
      <trkpt lat="50.971293" lon="14.106712"/>
      <trkpt lat="50.971224" lon="14.106698"/>
      <trkpt lat="50.971087" lon="14.106589"/>
      <trkpt lat="50.971020" lon="14.106662"/>
      <trkpt lat="50.970907" lon="14.106863"/>
      <trkpt lat="50.970801" lon="14.107022"/>
      <trkpt lat="50.970721" lon="14.107165"/>
      <trkpt lat="50.970736" lon="14.107392"/>
      <trkpt lat="50.970675" lon="14.107735"/>
      <trkpt lat="50.970646" lon="14.107778"/>
      <trkpt lat="50.970575" lon="14.107742"/>
      <trkpt lat="50.970456" lon="14.107671"/>
      <trkpt lat="50.970304" lon="14.107711"/>
      <trkpt lat="50.970158" lon="14.107933"/>
      <trkpt lat="50.970023" lon="14.108167"/>
      <trkpt lat="50.969944" lon="14.108313"/>
      <trkpt lat="50.969826" lon="14.108340"/>
      <trkpt lat="50.969698" lon="14.108199"/>
      <trkpt lat="50.969624" lon="14.108023"/>
      <trkpt lat="50.969547" lon="14.107875"/>
      <trkpt lat="50.969499" lon="14.107809"/>
      <trkpt lat="50.969468" lon="14.107789"/>
      <trkpt lat="50.969441" lon="14.107813"/>
      <trkpt lat="50.969351" lon="14.107979"/>
      <trkpt lat="50.969251" lon="14.108350"/>
      <trkpt lat="50.969165" lon="14.108750"/>
      <trkpt lat="50.969134" lon="14.108962"/>
      <trkpt lat="50.969150" lon="14.109082"/>
      <trkpt lat="50.969228" lon="14.109265"/>
      <trkpt lat="50.969312" lon="14.109492"/>
      <trkpt lat="50.969352" lon="14.109720"/>
      <trkpt lat="50.969362" lon="14.109933"/>
      <trkpt lat="50.969340" lon="14.110436"/>
      <trkpt lat="50.969319" lon="14.110755"/>
      <trkpt lat="50.969298" lon="14.110995"/>
      <trkpt lat="50.969042" lon="14.111016"/>
      <trkpt lat="50.968833" lon="14.111026"/>
      <trkpt lat="50.968681" lon="14.111010"/>
      <trkpt lat="50.968568" lon="14.110928"/>
      <trkpt lat="50.968530" lon="14.110879"/>
      <trkpt lat="50.968507" lon="14.110514"/>
      <trkpt lat="50.968524" lon="14.109892"/>
      <trkpt lat="50.968446" lon="14.109425"/>
      <trkpt lat="50.968449" lon="14.108917"/>
      <trkpt lat="50.968439" lon="14.108377"/>
      <trkpt lat="50.968387" lon="14.108179"/>
      <trkpt lat="50.968310" lon="14.108026"/>
      <trkpt lat="50.968180" lon="14.107848"/>
      <trkpt lat="50.968036" lon="14.107702"/>
      <trkpt lat="50.967976" lon="14.107669"/>
      <trkpt lat="50.967864" lon="14.107680"/>
      <trkpt lat="50.967570" lon="14.107920"/>
      <trkpt lat="50.967410" lon="14.108086"/>
      <trkpt lat="50.967292" lon="14.108274"/>
      <trkpt lat="50.967195" lon="14.108520"/>
      <trkpt lat="50.967083" lon="14.109193"/>
      <trkpt lat="50.966993" lon="14.109831"/>
      <trkpt lat="50.966965" lon="14.110449"/>
      <trkpt lat="50.966961" lon="14.111177"/>
      <trkpt lat="50.966772" lon="14.112046"/>
      <trkpt lat="50.966713" lon="14.112436"/>
      <trkpt lat="50.966661" lon="14.113269"/>
      <trkpt lat="50.966671" lon="14.113451"/>
      <trkpt lat="50.966726" lon="14.113623"/>
      <trkpt lat="50.966822" lon="14.113754"/>
      <trkpt lat="50.967052" lon="14.114062"/>
      <trkpt lat="50.967223" lon="14.114142"/>
      <trkpt lat="50.967455" lon="14.114125"/>
      <trkpt lat="50.967610" lon="14.114180"/>
      <trkpt lat="50.967747" lon="14.114247"/>
      <trkpt lat="50.967837" lon="14.114333"/>
      <trkpt lat="50.968031" lon="14.114562"/>
      <trkpt lat="50.968204" lon="14.114899"/>
      <trkpt lat="50.968354" lon="14.115364"/>
      <trkpt lat="50.968452" lon="14.115506"/>
      <trkpt lat="50.968537" lon="14.115567"/>
      <trkpt lat="50.968567" lon="14.115561"/>
      <trkpt lat="50.968821" lon="14.115475"/>
      <trkpt lat="50.968729" lon="14.115892"/>
      <trkpt lat="50.968633" lon="14.116307"/>
      <trkpt lat="50.968514" lon="14.116760"/>
      <trkpt lat="50.968400" lon="14.117153"/>
      <trkpt lat="50.968367" lon="14.117235"/>
      <trkpt lat="50.968296" lon="14.117340"/>
      <trkpt lat="50.968233" lon="14.117370"/>
      <trkpt lat="50.968199" lon="14.117382"/>
      <trkpt lat="50.967677" lon="14.117528"/>
      <trkpt lat="50.967464" lon="14.117638"/>
      <trkpt lat="50.967312" lon="14.117771"/>
      <trkpt lat="50.967186" lon="14.117996"/>
      <trkpt lat="50.966907" lon="14.118676"/>
      <trkpt lat="50.966703" lon="14.118896"/>
      <trkpt lat="50.966493" lon="14.119029"/>
      <trkpt lat="50.966215" lon="14.119156"/>
      <trkpt lat="50.965825" lon="14.119624"/>
      <trkpt lat="50.965558" lon="14.119880"/>
      <trkpt lat="50.965213" lon="14.120346"/>
      <trkpt lat="50.965097" lon="14.120622"/>
      <trkpt lat="50.965015" lon="14.121103"/>
      <trkpt lat="50.965031" lon="14.121513"/>
      <trkpt lat="50.965048" lon="14.121982"/>
      <trkpt lat="50.965003" lon="14.122503"/>
      <trkpt lat="50.964892" lon="14.122815"/>
      <trkpt lat="50.964853" lon="14.122972"/>
      <trkpt lat="50.964838" lon="14.123050"/>
      <trkpt lat="50.964779" lon="14.123231"/>
      <trkpt lat="50.964681" lon="14.123449"/>
      <trkpt lat="50.964362" lon="14.123589"/>
      <trkpt lat="50.964127" lon="14.123827"/>
      <trkpt lat="50.963975" lon="14.124201"/>
      <trkpt lat="50.963496" lon="14.125091"/>
      <trkpt lat="50.963444" lon="14.125260"/>
      <trkpt lat="50.963197" lon="14.126497"/>
      <trkpt lat="50.963129" lon="14.126725"/>
      <trkpt lat="50.962995" lon="14.126916"/>
      <trkpt lat="50.962775" lon="14.127056"/>
      <trkpt lat="50.962618" lon="14.127096"/>
      <trkpt lat="50.961897" lon="14.127015"/>
      <trkpt lat="50.961611" lon="14.126910"/>
      <trkpt lat="50.961555" lon="14.126875"/>
      <trkpt lat="50.961132" lon="14.126539"/>
      <trkpt lat="50.960829" lon="14.126256"/>
      <trkpt lat="50.960723" lon="14.126199"/>
      <trkpt lat="50.960461" lon="14.126058"/>
      <trkpt lat="50.959934" lon="14.125886"/>
      <trkpt lat="50.959618" lon="14.125845"/>
      <trkpt lat="50.958596" lon="14.125704"/>
      <trkpt lat="50.958462" lon="14.125678"/>
      <trkpt lat="50.958371" lon="14.125676"/>
      <trkpt lat="50.958315" lon="14.125693"/>
      <trkpt lat="50.958098" lon="14.125776"/>
      <trkpt lat="50.957889" lon="14.125902"/>
      <trkpt lat="50.957360" lon="14.126278"/>
      <trkpt lat="50.957059" lon="14.126522"/>
      <trkpt lat="50.956897" lon="14.126700"/>
      <trkpt lat="50.956818" lon="14.126820"/>
      <trkpt lat="50.956759" lon="14.126920"/>
      <trkpt lat="50.956731" lon="14.126944"/>
      <trkpt lat="50.956668" lon="14.126976"/>
      <trkpt lat="50.956591" lon="14.127003"/>
      <trkpt lat="50.956542" lon="14.126989"/>
      <trkpt lat="50.956294" lon="14.126788"/>
      <trkpt lat="50.956275" lon="14.126900"/>
      <trkpt lat="50.956302" lon="14.127079"/>
      <trkpt lat="50.956358" lon="14.127460"/>
      <trkpt lat="50.956246" lon="14.127835"/>
      <trkpt lat="50.955935" lon="14.128408"/>
      <trkpt lat="50.955825" lon="14.128626"/>
      <trkpt lat="50.955697" lon="14.128736"/>
      <trkpt lat="50.955532" lon="14.128795"/>
      <trkpt lat="50.955487" lon="14.128656"/>
      <trkpt lat="50.955378" lon="14.128684"/>
      <trkpt lat="50.955329" lon="14.128840"/>
      <trkpt lat="50.955408" lon="14.129038"/>
      <trkpt lat="50.955363" lon="14.129109"/>
      <trkpt lat="50.955325" lon="14.129000"/>
      <trkpt lat="50.955275" lon="14.129057"/>
      <trkpt lat="50.955097" lon="14.129012"/>
      <trkpt lat="50.955007" lon="14.129053"/>
      <trkpt lat="50.954987" lon="14.128932"/>
      <trkpt lat="50.954925" lon="14.129035"/>
      <trkpt lat="50.954918" lon="14.128869"/>
      <trkpt lat="50.954862" lon="14.128985"/>
      <trkpt lat="50.954845" lon="14.128803"/>
      <trkpt lat="50.954773" lon="14.128894"/>
      <trkpt lat="50.954747" lon="14.128710"/>
      <trkpt lat="50.954688" lon="14.128859"/>
      <trkpt lat="50.954629" lon="14.128638"/>
      <trkpt lat="50.954639" lon="14.128858"/>
      <trkpt lat="50.954501" lon="14.128736"/>
      <trkpt lat="50.954469" lon="14.128861"/>
      <trkpt lat="50.954393" lon="14.128887"/>
      <trkpt lat="50.954352" lon="14.128809"/>
      <trkpt lat="50.954312" lon="14.128809"/>
      <trkpt lat="50.954275" lon="14.128937"/>
      <trkpt lat="50.954231" lon="14.129031"/>
      <trkpt lat="50.954126" lon="14.129009"/>
      <trkpt lat="50.954018" lon="14.129165"/>
      <trkpt lat="50.954004" lon="14.129406"/>
      <trkpt lat="50.953950" lon="14.129625"/>
      <trkpt lat="50.953909" lon="14.129837"/>
      <trkpt lat="50.954001" lon="14.130002"/>
      <trkpt lat="50.953969" lon="14.130167"/>
      <trkpt lat="50.953812" lon="14.130122"/>
      <trkpt lat="50.953668" lon="14.130191"/>
      <trkpt lat="50.953348" lon="14.130601"/>
      <trkpt lat="50.953252" lon="14.130794"/>
      <trkpt lat="50.953184" lon="14.130861"/>
      <trkpt lat="50.953207" lon="14.130964"/>
      <trkpt lat="50.953235" lon="14.131042"/>
      <trkpt lat="50.953237" lon="14.131252"/>
      <trkpt lat="50.953372" lon="14.131123"/>
      <trkpt lat="50.953460" lon="14.131053"/>
      <trkpt lat="50.953564" lon="14.131013"/>
      <trkpt lat="50.953615" lon="14.131002"/>
      <trkpt lat="50.953672" lon="14.130993"/>
      <trkpt lat="50.953766" lon="14.131039"/>
      <trkpt lat="50.954025" lon="14.131168"/>
      <trkpt lat="50.954215" lon="14.131295"/>
      <trkpt lat="50.954311" lon="14.131358"/>
      <trkpt lat="50.954419" lon="14.131414"/>
      <trkpt lat="50.954640" lon="14.131515"/>
      <trkpt lat="50.954873" lon="14.131694"/>
      <trkpt lat="50.955043" lon="14.131767"/>
      <trkpt lat="50.955292" lon="14.131816"/>
      <trkpt lat="50.955556" lon="14.131876"/>
      <trkpt lat="50.955670" lon="14.131893"/>
    </trkseg>
  </trk>
</gpx>
