<?xml version="1.0" encoding="UTF-8"?>
<gpx version="1.1" creator="hike-recap example data"
     xmlns="http://www.topografix.com/GPX/1/1">
  <metadata>
    <name>Stage 4</name>
    <desc>Derived from OpenStreetMap relation 114289, ODbL. Example data.</desc>
  </metadata>
  <trk>
    <name>Stage 4</name>
    <trkseg>
      <trkpt lat="50.955670" lon="14.131893"/>
      <trkpt lat="50.955753" lon="14.131881"/>
      <trkpt lat="50.955841" lon="14.131838"/>
      <trkpt lat="50.955995" lon="14.131755"/>
      <trkpt lat="50.956168" lon="14.131637"/>
      <trkpt lat="50.956301" lon="14.131572"/>
      <trkpt lat="50.956493" lon="14.131448"/>
      <trkpt lat="50.956286" lon="14.131758"/>
      <trkpt lat="50.956193" lon="14.131908"/>
      <trkpt lat="50.956110" lon="14.131996"/>
      <trkpt lat="50.956179" lon="14.132069"/>
      <trkpt lat="50.956256" lon="14.132125"/>
      <trkpt lat="50.956211" lon="14.132245"/>
      <trkpt lat="50.956186" lon="14.132263"/>
      <trkpt lat="50.956107" lon="14.132375"/>
      <trkpt lat="50.956024" lon="14.132490"/>
      <trkpt lat="50.956021" lon="14.132682"/>
      <trkpt lat="50.956055" lon="14.132945"/>
      <trkpt lat="50.956021" lon="14.133335"/>
      <trkpt lat="50.955937" lon="14.133647"/>
      <trkpt lat="50.955960" lon="14.133965"/>
      <trkpt lat="50.955897" lon="14.134155"/>
      <trkpt lat="50.955881" lon="14.134322"/>
      <trkpt lat="50.955915" lon="14.134742"/>
      <trkpt lat="50.956039" lon="14.135473"/>
      <trkpt lat="50.956125" lon="14.135976"/>
      <trkpt lat="50.956125" lon="14.136029"/>
      <trkpt lat="50.956111" lon="14.136119"/>
      <trkpt lat="50.956099" lon="14.136238"/>
      <trkpt lat="50.956100" lon="14.136306"/>
      <trkpt lat="50.956111" lon="14.136359"/>
      <trkpt lat="50.956119" lon="14.136384"/>
      <trkpt lat="50.956134" lon="14.136404"/>
      <trkpt lat="50.956168" lon="14.136433"/>
      <trkpt lat="50.956264" lon="14.136514"/>
      <trkpt lat="50.956288" lon="14.136794"/>
      <trkpt lat="50.956328" lon="14.136894"/>
      <trkpt lat="50.956436" lon="14.136980"/>
      <trkpt lat="50.956387" lon="14.137116"/>
      <trkpt lat="50.956333" lon="14.137379"/>
      <trkpt lat="50.956315" lon="14.137458"/>
      <trkpt lat="50.956300" lon="14.137501"/>
      <trkpt lat="50.956271" lon="14.137555"/>
      <trkpt lat="50.956237" lon="14.137593"/>
      <trkpt lat="50.956208" lon="14.137612"/>
      <trkpt lat="50.956164" lon="14.137645"/>
      <trkpt lat="50.956123" lon="14.137684"/>
      <trkpt lat="50.956080" lon="14.137738"/>
      <trkpt lat="50.956038" lon="14.137827"/>
      <trkpt lat="50.955889" lon="14.138316"/>
      <trkpt lat="50.955866" lon="14.138386"/>
      <trkpt lat="50.955787" lon="14.138607"/>
      <trkpt lat="50.955636" lon="14.138855"/>
      <trkpt lat="50.955534" lon="14.138949"/>
      <trkpt lat="50.955445" lon="14.139016"/>
      <trkpt lat="50.955427" lon="14.139032"/>
      <trkpt lat="50.955335" lon="14.139103"/>
      <trkpt lat="50.955300" lon="14.139149"/>
      <trkpt lat="50.955255" lon="14.139249"/>
      <trkpt lat="50.955227" lon="14.139317"/>
      <trkpt lat="50.955118" lon="14.139245"/>
      <trkpt lat="50.955094" lon="14.139065"/>
      <trkpt lat="50.955019" lon="14.138183"/>
      <trkpt lat="50.955006" lon="14.138080"/>
      <trkpt lat="50.954681" lon="14.136845"/>
      <trkpt lat="50.954464" lon="14.136209"/>
      <trkpt lat="50.954046" lon="14.135689"/>
      <trkpt lat="50.953932" lon="14.135673"/>
      <trkpt lat="50.953861" lon="14.135681"/>
      <trkpt lat="50.953756" lon="14.135792"/>
      <trkpt lat="50.953623" lon="14.136051"/>
      <trkpt lat="50.953570" lon="14.136244"/>
      <trkpt lat="50.953097" lon="14.136642"/>
      <trkpt lat="50.952791" lon="14.136772"/>
      <trkpt lat="50.952647" lon="14.136833"/>
      <trkpt lat="50.952518" lon="14.136938"/>
      <trkpt lat="50.952237" lon="14.137282"/>
      <trkpt lat="50.952089" lon="14.137497"/>
      <trkpt lat="50.951996" lon="14.137631"/>
      <trkpt lat="50.951889" lon="14.137790"/>
      <trkpt lat="50.951654" lon="14.138125"/>
      <trkpt lat="50.951549" lon="14.138220"/>
      <trkpt lat="50.951455" lon="14.138269"/>
      <trkpt lat="50.951231" lon="14.138450"/>
      <trkpt lat="50.951037" lon="14.138694"/>
      <trkpt lat="50.950941" lon="14.138831"/>
      <trkpt lat="50.950842" lon="14.139123"/>
      <trkpt lat="50.951021" lon="14.139917"/>
      <trkpt lat="50.951300" lon="14.140431"/>
      <trkpt lat="50.951378" lon="14.140509"/>
      <trkpt lat="50.951955" lon="14.141299"/>
      <trkpt lat="50.952083" lon="14.141461"/>
      <trkpt lat="50.952502" lon="14.141993"/>
      <trkpt lat="50.952529" lon="14.142069"/>
      <trkpt lat="50.952473" lon="14.142180"/>
      <trkpt lat="50.952147" lon="14.142977"/>
      <trkpt lat="50.951632" lon="14.144242"/>
      <trkpt lat="50.951396" lon="14.144882"/>
      <trkpt lat="50.951193" lon="14.145565"/>
      <trkpt lat="50.950993" lon="14.146899"/>
      <trkpt lat="50.950884" lon="14.147290"/>
      <trkpt lat="50.950695" lon="14.147934"/>
      <trkpt lat="50.950611" lon="14.148435"/>
      <trkpt lat="50.950581" lon="14.148952"/>
      <trkpt lat="50.950458" lon="14.149520"/>
      <trkpt lat="50.950420" lon="14.149727"/>
      <trkpt lat="50.950323" lon="14.150197"/>
      <trkpt lat="50.950107" lon="14.150841"/>
      <trkpt lat="50.949803" lon="14.151388"/>
      <trkpt lat="50.949722" lon="14.152043"/>
      <trkpt lat="50.949712" lon="14.152070"/>
      <trkpt lat="50.949512" lon="14.152656"/>
      <trkpt lat="50.949575" lon="14.153148"/>
      <trkpt lat="50.949499" lon="14.153759"/>
      <trkpt lat="50.949186" lon="14.154579"/>
      <trkpt lat="50.948924" lon="14.155380"/>
      <trkpt lat="50.948633" lon="14.156045"/>
      <trkpt lat="50.948507" lon="14.156613"/>
      <trkpt lat="50.948427" lon="14.156783"/>
      <trkpt lat="50.948346" lon="14.156953"/>
      <trkpt lat="50.948268" lon="14.157177"/>
      <trkpt lat="50.948307" lon="14.157314"/>
      <trkpt lat="50.948495" lon="14.157455"/>
      <trkpt lat="50.948766" lon="14.157447"/>
      <trkpt lat="50.948943" lon="14.157385"/>
      <trkpt lat="50.949127" lon="14.157203"/>
      <trkpt lat="50.949482" lon="14.156945"/>
      <trkpt lat="50.949769" lon="14.156592"/>
      <trkpt lat="50.951025" lon="14.156220"/>
      <trkpt lat="50.951141" lon="14.156209"/>
      <trkpt lat="50.951225" lon="14.156202"/>
      <trkpt lat="50.951255" lon="14.156199"/>
      <trkpt lat="50.951191" lon="14.156416"/>
      <trkpt lat="50.951144" lon="14.156360"/>
      <trkpt lat="50.950924" lon="14.156478"/>
      <trkpt lat="50.950833" lon="14.156450"/>
      <trkpt lat="50.950567" lon="14.156655"/>
      <trkpt lat="50.950384" lon="14.156817"/>
      <trkpt lat="50.950180" lon="14.157033"/>
      <trkpt lat="50.949980" lon="14.157295"/>
      <trkpt lat="50.949920" lon="14.157397"/>
      <trkpt lat="50.949778" lon="14.157624"/>
      <trkpt lat="50.949646" lon="14.157971"/>
      <trkpt lat="50.949573" lon="14.158227"/>
      <trkpt lat="50.949526" lon="14.158331"/>
      <trkpt lat="50.949416" lon="14.158545"/>
      <trkpt lat="50.949329" lon="14.158670"/>
      <trkpt lat="50.949173" lon="14.158727"/>
      <trkpt lat="50.948856" lon="14.158782"/>
      <trkpt lat="50.948762" lon="14.158772"/>
      <trkpt lat="50.948563" lon="14.158840"/>
      <trkpt lat="50.948394" lon="14.158899"/>
      <trkpt lat="50.948289" lon="14.159027"/>
      <trkpt lat="50.947881" lon="14.159367"/>
      <trkpt lat="50.947554" lon="14.159606"/>
      <trkpt lat="50.947451" lon="14.159682"/>
      <trkpt lat="50.946664" lon="14.160953"/>
      <trkpt lat="50.946552" lon="14.161030"/>
      <trkpt lat="50.946405" lon="14.161024"/>
      <trkpt lat="50.946221" lon="14.160879"/>
      <trkpt lat="50.946028" lon="14.160649"/>
      <trkpt lat="50.945870" lon="14.160561"/>
      <trkpt lat="50.945746" lon="14.160656"/>
      <trkpt lat="50.945641" lon="14.160643"/>
      <trkpt lat="50.945454" lon="14.160671"/>
      <trkpt lat="50.945242" lon="14.160759"/>
      <trkpt lat="50.944360" lon="14.161251"/>
      <trkpt lat="50.944133" lon="14.161439"/>
      <trkpt lat="50.943924" lon="14.161700"/>
      <trkpt lat="50.943754" lon="14.161984"/>
      <trkpt lat="50.943642" lon="14.162179"/>
      <trkpt lat="50.943540" lon="14.162358"/>
      <trkpt lat="50.942577" lon="14.163590"/>
      <trkpt lat="50.942422" lon="14.163732"/>
      <trkpt lat="50.942395" lon="14.163756"/>
      <trkpt lat="50.942321" lon="14.163833"/>
      <trkpt lat="50.942177" lon="14.163962"/>
      <trkpt lat="50.941998" lon="14.164291"/>
      <trkpt lat="50.941864" lon="14.164570"/>
      <trkpt lat="50.941814" lon="14.164626"/>
      <trkpt lat="50.941706" lon="14.164657"/>
      <trkpt lat="50.941623" lon="14.164677"/>
      <trkpt lat="50.941576" lon="14.164735"/>
      <trkpt lat="50.941523" lon="14.164839"/>
      <trkpt lat="50.941514" lon="14.164991"/>
      <trkpt lat="50.941497" lon="14.165270"/>
      <trkpt lat="50.941469" lon="14.165754"/>
      <trkpt lat="50.941451" lon="14.166004"/>
      <trkpt lat="50.941218" lon="14.165814"/>
      <trkpt lat="50.941111" lon="14.165751"/>
      <trkpt lat="50.941071" lon="14.165733"/>
      <trkpt lat="50.941064" lon="14.165805"/>
      <trkpt lat="50.941058" lon="14.166052"/>
      <trkpt lat="50.941044" lon="14.166588"/>
      <trkpt lat="50.941076" lon="14.167254"/>
      <trkpt lat="50.941128" lon="14.167783"/>
      <trkpt lat="50.941103" lon="14.167997"/>
      <trkpt lat="50.941358" lon="14.168982"/>
      <trkpt lat="50.941617" lon="14.170021"/>
      <trkpt lat="50.941811" lon="14.170747"/>
      <trkpt lat="50.941890" lon="14.171183"/>
      <trkpt lat="50.941879" lon="14.171337"/>
      <trkpt lat="50.941896" lon="14.171391"/>
      <trkpt lat="50.942027" lon="14.171455"/>
      <trkpt lat="50.942056" lon="14.171602"/>
      <trkpt lat="50.942298" lon="14.172517"/>
      <trkpt lat="50.942394" lon="14.172985"/>
      <trkpt lat="50.942483" lon="14.173469"/>
      <trkpt lat="50.942683" lon="14.174194"/>
      <trkpt lat="50.942713" lon="14.174371"/>
      <trkpt lat="50.942884" lon="14.174914"/>
      <trkpt lat="50.943060" lon="14.175296"/>
      <trkpt lat="50.943210" lon="14.175629"/>
      <trkpt lat="50.943315" lon="14.175791"/>
      <trkpt lat="50.943367" lon="14.175902"/>
      <trkpt lat="50.943401" lon="14.175997"/>
      <trkpt lat="50.943518" lon="14.176106"/>
      <trkpt lat="50.943720" lon="14.176345"/>
      <trkpt lat="50.944067" lon="14.176750"/>
      <trkpt lat="50.944214" lon="14.176911"/>
      <trkpt lat="50.944492" lon="14.177215"/>
      <trkpt lat="50.944584" lon="14.177278"/>
      <trkpt lat="50.944649" lon="14.177359"/>
      <trkpt lat="50.944975" lon="14.177733"/>
      <trkpt lat="50.945119" lon="14.177932"/>
      <trkpt lat="50.945240" lon="14.178135"/>
      <trkpt lat="50.945400" lon="14.178441"/>
      <trkpt lat="50.945524" lon="14.178730"/>
      <trkpt lat="50.945589" lon="14.178943"/>
      <trkpt lat="50.945620" lon="14.179052"/>
      <trkpt lat="50.945634" lon="14.179164"/>
      <trkpt lat="50.945766" lon="14.179700"/>
      <trkpt lat="50.945801" lon="14.179780"/>
      <trkpt lat="50.945869" lon="14.179849"/>
      <trkpt lat="50.945951" lon="14.179923"/>
      <trkpt lat="50.946046" lon="14.179959"/>
      <trkpt lat="50.946178" lon="14.179933"/>
      <trkpt lat="50.946371" lon="14.179979"/>
      <trkpt lat="50.946470" lon="14.180084"/>
      <trkpt lat="50.946491" lon="14.180199"/>
      <trkpt lat="50.946486" lon="14.180359"/>
      <trkpt lat="50.946436" lon="14.180555"/>
      <trkpt lat="50.946405" lon="14.180676"/>
      <trkpt lat="50.946511" lon="14.181008"/>
      <trkpt lat="50.946522" lon="14.181112"/>
      <trkpt lat="50.946504" lon="14.181202"/>
      <trkpt lat="50.946263" lon="14.181390"/>
      <trkpt lat="50.946035" lon="14.181578"/>
      <trkpt lat="50.945758" lon="14.181723"/>
      <trkpt lat="50.945627" lon="14.181768"/>
      <trkpt lat="50.945371" lon="14.181969"/>
      <trkpt lat="50.945220" lon="14.182116"/>
      <trkpt lat="50.944980" lon="14.182399"/>
      <trkpt lat="50.944485" lon="14.183317"/>
      <trkpt lat="50.944373" lon="14.183636"/>
      <trkpt lat="50.944280" lon="14.184219"/>
      <trkpt lat="50.944227" lon="14.184376"/>
      <trkpt lat="50.944138" lon="14.184422"/>
      <trkpt lat="50.943715" lon="14.184405"/>
      <trkpt lat="50.943309" lon="14.184502"/>
      <trkpt lat="50.943231" lon="14.184484"/>
      <trkpt lat="50.943032" lon="14.184449"/>
      <trkpt lat="50.942897" lon="14.184446"/>
      <trkpt lat="50.942841" lon="14.184411"/>
      <trkpt lat="50.942827" lon="14.184304"/>
      <trkpt lat="50.942858" lon="14.184199"/>
      <trkpt lat="50.942921" lon="14.184163"/>
      <trkpt lat="50.943056" lon="14.184113"/>
      <trkpt lat="50.943139" lon="14.183996"/>
      <trkpt lat="50.943213" lon="14.183818"/>
      <trkpt lat="50.943211" lon="14.183730"/>
      <trkpt lat="50.943129" lon="14.183491"/>
      <trkpt lat="50.943057" lon="14.183264"/>
      <trkpt lat="50.942995" lon="14.183110"/>
      <trkpt lat="50.942899" lon="14.183005"/>
      <trkpt lat="50.942725" lon="14.182869"/>
      <trkpt lat="50.942612" lon="14.182830"/>
      <trkpt lat="50.942527" lon="14.182826"/>
      <trkpt lat="50.942203" lon="14.182952"/>
      <trkpt lat="50.941800" lon="14.182679"/>
      <trkpt lat="50.941729" lon="14.182600"/>
      <trkpt lat="50.941556" lon="14.182492"/>
      <trkpt lat="50.941459" lon="14.182431"/>
      <trkpt lat="50.941360" lon="14.182377"/>
      <trkpt lat="50.941240" lon="14.182333"/>
      <trkpt lat="50.940984" lon="14.182319"/>
      <trkpt lat="50.940652" lon="14.182259"/>
      <trkpt lat="50.940171" lon="14.182166"/>
      <trkpt lat="50.940046" lon="14.182098"/>
      <trkpt lat="50.939685" lon="14.181852"/>
      <trkpt lat="50.939572" lon="14.181813"/>
      <trkpt lat="50.939304" lon="14.181769"/>
      <trkpt lat="50.939038" lon="14.181735"/>
      <trkpt lat="50.938889" lon="14.181728"/>
      <trkpt lat="50.938669" lon="14.181751"/>
      <trkpt lat="50.938587" lon="14.181775"/>
      <trkpt lat="50.938491" lon="14.181803"/>
      <trkpt lat="50.938354" lon="14.181888"/>
      <trkpt lat="50.938162" lon="14.182055"/>
      <trkpt lat="50.937926" lon="14.182331"/>
      <trkpt lat="50.937725" lon="14.182529"/>
      <trkpt lat="50.937672" lon="14.182557"/>
      <trkpt lat="50.937613" lon="14.182577"/>
      <trkpt lat="50.937551" lon="14.182585"/>
      <trkpt lat="50.937183" lon="14.182573"/>
      <trkpt lat="50.937047" lon="14.182619"/>
      <trkpt lat="50.936973" lon="14.182646"/>
      <trkpt lat="50.936708" lon="14.182848"/>
      <trkpt lat="50.936103" lon="14.183335"/>
      <trkpt lat="50.936061" lon="14.183345"/>
      <trkpt lat="50.936029" lon="14.183347"/>
      <trkpt lat="50.935813" lon="14.183383"/>
      <trkpt lat="50.935800" lon="14.183334"/>
      <trkpt lat="50.935423" lon="14.183372"/>
      <trkpt lat="50.934992" lon="14.183798"/>
      <trkpt lat="50.934780" lon="14.184004"/>
      <trkpt lat="50.934744" lon="14.184047"/>
      <trkpt lat="50.934497" lon="14.184359"/>
      <trkpt lat="50.934195" lon="14.184739"/>
      <trkpt lat="50.934095" lon="14.184835"/>
      <trkpt lat="50.933673" lon="14.185055"/>
      <trkpt lat="50.933501" lon="14.185246"/>
      <trkpt lat="50.933421" lon="14.185334"/>
      <trkpt lat="50.933345" lon="14.185417"/>
      <trkpt lat="50.933271" lon="14.185497"/>
      <trkpt lat="50.932721" lon="14.186067"/>
      <trkpt lat="50.932395" lon="14.186470"/>
      <trkpt lat="50.932341" lon="14.186552"/>
      <trkpt lat="50.932359" lon="14.186635"/>
      <trkpt lat="50.932358" lon="14.186723"/>
      <trkpt lat="50.932345" lon="14.186773"/>
      <trkpt lat="50.932312" lon="14.186822"/>
      <trkpt lat="50.932124" lon="14.187050"/>
      <trkpt lat="50.932026" lon="14.187156"/>
      <trkpt lat="50.931914" lon="14.187275"/>
      <trkpt lat="50.931693" lon="14.187445"/>
      <trkpt lat="50.931529" lon="14.187558"/>
      <trkpt lat="50.931499" lon="14.187579"/>
      <trkpt lat="50.931471" lon="14.187577"/>
      <trkpt lat="50.931442" lon="14.187559"/>
      <trkpt lat="50.931398" lon="14.187428"/>
      <trkpt lat="50.931342" lon="14.187193"/>
      <trkpt lat="50.931265" lon="14.186945"/>
      <trkpt lat="50.931163" lon="14.186741"/>
      <trkpt lat="50.931040" lon="14.186572"/>
      <trkpt lat="50.930960" lon="14.186439"/>
      <trkpt lat="50.930915" lon="14.186395"/>
      <trkpt lat="50.930855" lon="14.186358"/>
      <trkpt lat="50.930617" lon="14.186270"/>
      <trkpt lat="50.930374" lon="14.186124"/>
      <trkpt lat="50.930271" lon="14.186099"/>
      <trkpt lat="50.930156" lon="14.186148"/>
      <trkpt lat="50.930097" lon="14.186174"/>
      <trkpt lat="50.929992" lon="14.186205"/>
      <trkpt lat="50.929879" lon="14.186212"/>
      <trkpt lat="50.929784" lon="14.186153"/>
      <trkpt lat="50.929669" lon="14.186048"/>
      <trkpt lat="50.929622" lon="14.186025"/>
      <trkpt lat="50.929553" lon="14.186010"/>
      <trkpt lat="50.929471" lon="14.186013"/>
      <trkpt lat="50.929265" lon="14.186053"/>
      <trkpt lat="50.929215" lon="14.186056"/>
      <trkpt lat="50.929182" lon="14.186049"/>
      <trkpt lat="50.929150" lon="14.186036"/>
      <trkpt lat="50.929085" lon="14.185987"/>
      <trkpt lat="50.929023" lon="14.185952"/>
      <trkpt lat="50.928952" lon="14.185915"/>
      <trkpt lat="50.928911" lon="14.185894"/>
      <trkpt lat="50.928873" lon="14.185892"/>
      <trkpt lat="50.928849" lon="14.185899"/>
      <trkpt lat="50.928797" lon="14.185933"/>
      <trkpt lat="50.928749" lon="14.185946"/>
      <trkpt lat="50.928730" lon="14.185922"/>
      <trkpt lat="50.928722" lon="14.185873"/>
      <trkpt lat="50.928728" lon="14.185847"/>
      <trkpt lat="50.928755" lon="14.185794"/>
      <trkpt lat="50.928794" lon="14.185755"/>
      <trkpt lat="50.928978" lon="14.185638"/>
      <trkpt lat="50.929097" lon="14.185578"/>
      <trkpt lat="50.929406" lon="14.185463"/>
      <trkpt lat="50.929827" lon="14.185337"/>
      <trkpt lat="50.930080" lon="14.185165"/>
      <trkpt lat="50.929764" lon="14.185216"/>
      <trkpt lat="50.929135" lon="14.185184"/>
      <trkpt lat="50.928980" lon="14.185077"/>
      <trkpt lat="50.928736" lon="14.184916"/>
      <trkpt lat="50.928247" lon="14.184861"/>
      <trkpt lat="50.927899" lon="14.185007"/>
      <trkpt lat="50.927727" lon="14.185112"/>
      <trkpt lat="50.927386" lon="14.185199"/>
      <trkpt lat="50.927339" lon="14.185059"/>
      <trkpt lat="50.927183" lon="14.184983"/>
      <trkpt lat="50.927022" lon="14.184987"/>
      <trkpt lat="50.926825" lon="14.185057"/>
      <trkpt lat="50.926621" lon="14.185012"/>
      <trkpt lat="50.926569" lon="14.185208"/>
      <trkpt lat="50.926548" lon="14.185256"/>
      <trkpt lat="50.926503" lon="14.185259"/>
      <trkpt lat="50.926482" lon="14.185373"/>
      <trkpt lat="50.926458" lon="14.185367"/>
      <trkpt lat="50.926443" lon="14.185314"/>
      <trkpt lat="50.926450" lon="14.185224"/>
      <trkpt lat="50.926419" lon="14.185221"/>
      <trkpt lat="50.926383" lon="14.185302"/>
      <trkpt lat="50.926348" lon="14.185351"/>
      <trkpt lat="50.926302" lon="14.185420"/>
      <trkpt lat="50.926255" lon="14.185427"/>
      <trkpt lat="50.926248" lon="14.185365"/>
      <trkpt lat="50.926199" lon="14.185357"/>
      <trkpt lat="50.926147" lon="14.185328"/>
      <trkpt lat="50.926129" lon="14.185361"/>
      <trkpt lat="50.926135" lon="14.185466"/>
      <trkpt lat="50.926151" lon="14.185570"/>
      <trkpt lat="50.926195" lon="14.185702"/>
      <trkpt lat="50.926225" lon="14.185829"/>
      <trkpt lat="50.926258" lon="14.186041"/>
      <trkpt lat="50.926327" lon="14.186262"/>
      <trkpt lat="50.926431" lon="14.186428"/>
      <trkpt lat="50.926696" lon="14.186906"/>
      <trkpt lat="50.926870" lon="14.187182"/>
      <trkpt lat="50.927011" lon="14.187238"/>
      <trkpt lat="50.927268" lon="14.187323"/>
      <trkpt lat="50.927841" lon="14.187628"/>
      <trkpt lat="50.928528" lon="14.188144"/>
      <trkpt lat="50.928731" lon="14.188362"/>
      <trkpt lat="50.929038" lon="14.188784"/>
      <trkpt lat="50.929325" lon="14.189182"/>
      <trkpt lat="50.929479" lon="14.189455"/>
      <trkpt lat="50.929499" lon="14.189510"/>
      <trkpt lat="50.929494" lon="14.189566"/>
      <trkpt lat="50.929507" lon="14.189637"/>
      <trkpt lat="50.929503" lon="14.189652"/>
      <trkpt lat="50.929473" lon="14.189755"/>
      <trkpt lat="50.929472" lon="14.189758"/>
      <trkpt lat="50.929439" lon="14.189874"/>
      <trkpt lat="50.929436" lon="14.189894"/>
      <trkpt lat="50.929431" lon="14.190034"/>
      <trkpt lat="50.929480" lon="14.190338"/>
      <trkpt lat="50.929500" lon="14.190544"/>
      <trkpt lat="50.929481" lon="14.190703"/>
      <trkpt lat="50.929466" lon="14.190768"/>
      <trkpt lat="50.929352" lon="14.191128"/>
      <trkpt lat="50.929296" lon="14.191307"/>
      <trkpt lat="50.929225" lon="14.191443"/>
      <trkpt lat="50.929172" lon="14.191517"/>
      <trkpt lat="50.929182" lon="14.190964"/>
      <trkpt lat="50.929183" lon="14.190902"/>
      <trkpt lat="50.929180" lon="14.190545"/>
      <trkpt lat="50.929171" lon="14.190312"/>
      <trkpt lat="50.929151" lon="14.190221"/>
      <trkpt lat="50.929121" lon="14.190214"/>
      <trkpt lat="50.929058" lon="14.190241"/>
      <trkpt lat="50.928950" lon="14.190382"/>
      <trkpt lat="50.928892" lon="14.190532"/>
      <trkpt lat="50.928851" lon="14.190795"/>
      <trkpt lat="50.928773" lon="14.190988"/>
      <trkpt lat="50.928403" lon="14.191327"/>
      <trkpt lat="50.927972" lon="14.191490"/>
      <trkpt lat="50.927809" lon="14.191653"/>
      <trkpt lat="50.927653" lon="14.191847"/>
      <trkpt lat="50.927314" lon="14.192754"/>
      <trkpt lat="50.927235" lon="14.192834"/>
      <trkpt lat="50.927177" lon="14.192885"/>
      <trkpt lat="50.927012" lon="14.192823"/>
      <trkpt lat="50.926205" lon="14.192211"/>
      <trkpt lat="50.925904" lon="14.191959"/>
      <trkpt lat="50.925652" lon="14.191933"/>
      <trkpt lat="50.925105" lon="14.192061"/>
      <trkpt lat="50.924711" lon="14.192414"/>
      <trkpt lat="50.924676" lon="14.192456"/>
      <trkpt lat="50.924628" lon="14.192475"/>
      <trkpt lat="50.924619" lon="14.192735"/>
      <trkpt lat="50.924514" lon="14.193031"/>
      <trkpt lat="50.924499" lon="14.193073"/>
      <trkpt lat="50.924487" lon="14.193108"/>
      <trkpt lat="50.924408" lon="14.193288"/>
      <trkpt lat="50.924362" lon="14.193368"/>
      <trkpt lat="50.924278" lon="14.193444"/>
      <trkpt lat="50.924256" lon="14.193452"/>
      <trkpt lat="50.924109" lon="14.193494"/>
      <trkpt lat="50.923996" lon="14.193560"/>
      <trkpt lat="50.923869" lon="14.193648"/>
      <trkpt lat="50.923743" lon="14.193715"/>
      <trkpt lat="50.923666" lon="14.193721"/>
      <trkpt lat="50.923384" lon="14.193645"/>
      <trkpt lat="50.923230" lon="14.193799"/>
      <trkpt lat="50.922835" lon="14.194072"/>
      <trkpt lat="50.922407" lon="14.194647"/>
      <trkpt lat="50.922137" lon="14.194766"/>
      <trkpt lat="50.921906" lon="14.194969"/>
      <trkpt lat="50.921615" lon="14.195473"/>
      <trkpt lat="50.921360" lon="14.196100"/>
      <trkpt lat="50.921227" lon="14.196991"/>
      <trkpt lat="50.921193" lon="14.197460"/>
      <trkpt lat="50.921293" lon="14.198042"/>
      <trkpt lat="50.921240" lon="14.198428"/>
      <trkpt lat="50.921012" lon="14.199154"/>
      <trkpt lat="50.920946" lon="14.199668"/>
      <trkpt lat="50.920840" lon="14.200010"/>
      <trkpt lat="50.920720" lon="14.200354"/>
      <trkpt lat="50.920745" lon="14.200643"/>
      <trkpt lat="50.920747" lon="14.200738"/>
      <trkpt lat="50.920737" lon="14.200912"/>
      <trkpt lat="50.920551" lon="14.200839"/>
      <trkpt lat="50.920417" lon="14.200847"/>
      <trkpt lat="50.920178" lon="14.201202"/>
      <trkpt lat="50.919813" lon="14.202048"/>
      <trkpt lat="50.919547" lon="14.202538"/>
      <trkpt lat="50.918696" lon="14.203297"/>
      <trkpt lat="50.918591" lon="14.203370"/>
      <trkpt lat="50.918509" lon="14.203339"/>
      <trkpt lat="50.918338" lon="14.203224"/>
      <trkpt lat="50.918027" lon="14.202963"/>
      <trkpt lat="50.917522" lon="14.202554"/>
      <trkpt lat="50.916800" lon="14.201916"/>
      <trkpt lat="50.916647" lon="14.201782"/>
      <trkpt lat="50.915942" lon="14.201216"/>
      <trkpt lat="50.915704" lon="14.201020"/>
      <trkpt lat="50.915640" lon="14.200883"/>
      <trkpt lat="50.915610" lon="14.200733"/>
      <trkpt lat="50.915589" lon="14.200554"/>
      <trkpt lat="50.915572" lon="14.200286"/>
      <trkpt lat="50.915554" lon="14.200133"/>
      <trkpt lat="50.915537" lon="14.200090"/>
      <trkpt lat="50.915289" lon="14.200103"/>
      <trkpt lat="50.915142" lon="14.200093"/>
      <trkpt lat="50.914908" lon="14.200091"/>
      <trkpt lat="50.914838" lon="14.199897"/>
      <trkpt lat="50.914734" lon="14.199559"/>
      <trkpt lat="50.914673" lon="14.199460"/>
      <trkpt lat="50.914552" lon="14.199398"/>
      <trkpt lat="50.914398" lon="14.199379"/>
      <trkpt lat="50.914166" lon="14.199434"/>
      <trkpt lat="50.914096" lon="14.199412"/>
      <trkpt lat="50.913989" lon="14.199269"/>
      <trkpt lat="50.913827" lon="14.199298"/>
      <trkpt lat="50.913440" lon="14.199381"/>
      <trkpt lat="50.913373" lon="14.199400"/>
      <trkpt lat="50.913310" lon="14.199396"/>
      <trkpt lat="50.913254" lon="14.199372"/>
      <trkpt lat="50.913106" lon="14.199210"/>
      <trkpt lat="50.913057" lon="14.199183"/>
      <trkpt lat="50.912372" lon="14.199121"/>
      <trkpt lat="50.911871" lon="14.199189"/>
      <trkpt lat="50.910731" lon="14.199343"/>
      <trkpt lat="50.910728" lon="14.199437"/>
      <trkpt lat="50.910773" lon="14.199575"/>
      <trkpt lat="50.910838" lon="14.199684"/>
      <trkpt lat="50.910901" lon="14.199780"/>
      <trkpt lat="50.910961" lon="14.199836"/>
      <trkpt lat="50.911031" lon="14.199864"/>
      <trkpt lat="50.911078" lon="14.199896"/>
      <trkpt lat="50.911152" lon="14.199912"/>
      <trkpt lat="50.911196" lon="14.199953"/>
      <trkpt lat="50.911191" lon="14.200024"/>
      <trkpt lat="50.911134" lon="14.200117"/>
      <trkpt lat="50.911105" lon="14.200199"/>
      <trkpt lat="50.911028" lon="14.200329"/>
      <trkpt lat="50.910998" lon="14.200382"/>
      <trkpt lat="50.910990" lon="14.200441"/>
      <trkpt lat="50.911001" lon="14.200497"/>
      <trkpt lat="50.911026" lon="14.200546"/>
      <trkpt lat="50.911059" lon="14.200583"/>
      <trkpt lat="50.911070" lon="14.200609"/>
      <trkpt lat="50.911063" lon="14.200639"/>
      <trkpt lat="50.911017" lon="14.200676"/>
      <trkpt lat="50.910992" lon="14.200717"/>
      <trkpt lat="50.910991" lon="14.200786"/>
      <trkpt lat="50.911017" lon="14.200829"/>
      <trkpt lat="50.911164" lon="14.200911"/>
      <trkpt lat="50.911243" lon="14.200950"/>
      <trkpt lat="50.911300" lon="14.201017"/>
      <trkpt lat="50.911395" lon="14.201092"/>
      <trkpt lat="50.911494" lon="14.201234"/>
      <trkpt lat="50.911648" lon="14.201400"/>
      <trkpt lat="50.911669" lon="14.201435"/>
      <trkpt lat="50.911662" lon="14.201499"/>
      <trkpt lat="50.911623" lon="14.201641"/>
      <trkpt lat="50.911526" lon="14.201761"/>
      <trkpt lat="50.911504" lon="14.201776"/>
      <trkpt lat="50.911385" lon="14.201864"/>
      <trkpt lat="50.911210" lon="14.201985"/>
      <trkpt lat="50.911153" lon="14.202104"/>
      <trkpt lat="50.911067" lon="14.202265"/>
      <trkpt lat="50.911050" lon="14.202414"/>
      <trkpt lat="50.911078" lon="14.202571"/>
      <trkpt lat="50.911159" lon="14.202729"/>
      <trkpt lat="50.911274" lon="14.202903"/>
      <trkpt lat="50.911408" lon="14.203086"/>
      <trkpt lat="50.911484" lon="14.203251"/>
      <trkpt lat="50.911585" lon="14.203492"/>
      <trkpt lat="50.911645" lon="14.203748"/>
      <trkpt lat="50.911643" lon="14.203933"/>
      <trkpt lat="50.911596" lon="14.204259"/>
      <trkpt lat="50.911584" lon="14.204444"/>
      <trkpt lat="50.911551" lon="14.204608"/>
      <trkpt lat="50.911517" lon="14.204694"/>
      <trkpt lat="50.911315" lon="14.204902"/>
      <trkpt lat="50.911089" lon="14.205120"/>
      <trkpt lat="50.911033" lon="14.205246"/>
      <trkpt lat="50.910972" lon="14.205445"/>
      <trkpt lat="50.910950" lon="14.205609"/>
      <trkpt lat="50.910980" lon="14.205753"/>
      <trkpt lat="50.910976" lon="14.205935"/>
      <trkpt lat="50.910914" lon="14.206147"/>
      <trkpt lat="50.910828" lon="14.206250"/>
      <trkpt lat="50.910741" lon="14.206298"/>
      <trkpt lat="50.910721" lon="14.206353"/>
      <trkpt lat="50.910731" lon="14.206483"/>
      <trkpt lat="50.910753" lon="14.206576"/>
      <trkpt lat="50.910734" lon="14.206659"/>
      <trkpt lat="50.910745" lon="14.206804"/>
      <trkpt lat="50.910787" lon="14.206953"/>
      <trkpt lat="50.910887" lon="14.207119"/>
      <trkpt lat="50.910963" lon="14.207231"/>
      <trkpt lat="50.911003" lon="14.207277"/>
      <trkpt lat="50.911020" lon="14.207383"/>
      <trkpt lat="50.910990" lon="14.207556"/>
      <trkpt lat="50.910971" lon="14.207682"/>
    </trkseg>
  </trk>
</gpx>
