<?xml version="1.0" encoding="UTF-8"?>
<gpx version="1.1" creator="hike-recap example data"
     xmlns="http://www.topografix.com/GPX/1/1">
  <metadata>
    <name>Stage 5</name>
    <desc>Derived from OpenStreetMap relation 114289, ODbL. Example data.</desc>
  </metadata>
  <trk>
    <name>Stage 5</name>
    <trkseg>
      <trkpt lat="50.910971" lon="14.207682"/>
      <trkpt lat="50.910927" lon="14.207851"/>
      <trkpt lat="50.910890" lon="14.207981"/>
      <trkpt lat="50.910836" lon="14.208175"/>
      <trkpt lat="50.911033" lon="14.208152"/>
      <trkpt lat="50.910878" lon="14.208422"/>
      <trkpt lat="50.910931" lon="14.208450"/>
      <trkpt lat="50.910892" lon="14.208574"/>
      <trkpt lat="50.910927" lon="14.208599"/>
      <trkpt lat="50.910951" lon="14.208676"/>
      <trkpt lat="50.910966" lon="14.208746"/>
      <trkpt lat="50.910960" lon="14.208753"/>
      <trkpt lat="50.911000" lon="14.208877"/>
      <trkpt lat="50.910933" lon="14.208893"/>
      <trkpt lat="50.910896" lon="14.208881"/>
      <trkpt lat="50.910842" lon="14.208894"/>
      <trkpt lat="50.910806" lon="14.208945"/>
      <trkpt lat="50.910757" lon="14.208983"/>
      <trkpt lat="50.910720" lon="14.209026"/>
      <trkpt lat="50.910601" lon="14.209235"/>
      <trkpt lat="50.910542" lon="14.209384"/>
      <trkpt lat="50.910427" lon="14.209596"/>
      <trkpt lat="50.910422" lon="14.209867"/>
      <trkpt lat="50.910351" lon="14.210141"/>
      <trkpt lat="50.910320" lon="14.210341"/>
      <trkpt lat="50.910212" lon="14.210687"/>
      <trkpt lat="50.910159" lon="14.210974"/>
      <trkpt lat="50.910084" lon="14.211319"/>
      <trkpt lat="50.910055" lon="14.211514"/>
      <trkpt lat="50.910024" lon="14.211756"/>
      <trkpt lat="50.910017" lon="14.212082"/>
      <trkpt lat="50.909976" lon="14.212385"/>
      <trkpt lat="50.909864" lon="14.212775"/>
      <trkpt lat="50.909735" lon="14.213046"/>
      <trkpt lat="50.909627" lon="14.213306"/>
      <trkpt lat="50.909520" lon="14.213453"/>
      <trkpt lat="50.909415" lon="14.213513"/>
      <trkpt lat="50.909228" lon="14.213526"/>
      <trkpt lat="50.909154" lon="14.213594"/>
      <trkpt lat="50.909093" lon="14.213626"/>
      <trkpt lat="50.909051" lon="14.213662"/>
      <trkpt lat="50.908900" lon="14.213660"/>
      <trkpt lat="50.908811" lon="14.213741"/>
      <trkpt lat="50.908785" lon="14.213795"/>
      <trkpt lat="50.908757" lon="14.213855"/>
      <trkpt lat="50.908608" lon="14.214141"/>
      <trkpt lat="50.908561" lon="14.214350"/>
      <trkpt lat="50.908459" lon="14.215165"/>
      <trkpt lat="50.908321" lon="14.215675"/>
      <trkpt lat="50.908200" lon="14.216077"/>
      <trkpt lat="50.908109" lon="14.216326"/>
      <trkpt lat="50.908068" lon="14.216612"/>
      <trkpt lat="50.908101" lon="14.217036"/>
      <trkpt lat="50.908087" lon="14.217121"/>
      <trkpt lat="50.908017" lon="14.217303"/>
      <trkpt lat="50.907920" lon="14.217712"/>
      <trkpt lat="50.907941" lon="14.218016"/>
      <trkpt lat="50.907916" lon="14.218096"/>
      <trkpt lat="50.907796" lon="14.218242"/>
      <trkpt lat="50.907704" lon="14.218391"/>
      <trkpt lat="50.907672" lon="14.218466"/>
      <trkpt lat="50.907600" lon="14.218633"/>
      <trkpt lat="50.907491" lon="14.218868"/>
      <trkpt lat="50.907439" lon="14.218920"/>
      <trkpt lat="50.907346" lon="14.218960"/>
      <trkpt lat="50.907241" lon="14.218782"/>
      <trkpt lat="50.907213" lon="14.218698"/>
      <trkpt lat="50.907170" lon="14.218645"/>
      <trkpt lat="50.907106" lon="14.218660"/>
      <trkpt lat="50.907079" lon="14.218739"/>
      <trkpt lat="50.907099" lon="14.218867"/>
      <trkpt lat="50.907126" lon="14.218969"/>
      <trkpt lat="50.907119" lon="14.219114"/>
      <trkpt lat="50.907053" lon="14.219315"/>
      <trkpt lat="50.906958" lon="14.219696"/>
      <trkpt lat="50.906922" lon="14.220067"/>
      <trkpt lat="50.906896" lon="14.220182"/>
      <trkpt lat="50.906816" lon="14.220382"/>
      <trkpt lat="50.906677" lon="14.220570"/>
      <trkpt lat="50.906634" lon="14.220677"/>
      <trkpt lat="50.906598" lon="14.220948"/>
      <trkpt lat="50.906591" lon="14.221275"/>
      <trkpt lat="50.906569" lon="14.221521"/>
      <trkpt lat="50.906572" lon="14.221715"/>
      <trkpt lat="50.906557" lon="14.221857"/>
      <trkpt lat="50.906600" lon="14.221991"/>
      <trkpt lat="50.906674" lon="14.222048"/>
      <trkpt lat="50.906799" lon="14.222114"/>
      <trkpt lat="50.906945" lon="14.222201"/>
      <trkpt lat="50.907115" lon="14.222440"/>
      <trkpt lat="50.907285" lon="14.222679"/>
      <trkpt lat="50.907400" lon="14.222839"/>
      <trkpt lat="50.907458" lon="14.222925"/>
      <trkpt lat="50.907687" lon="14.222987"/>
      <trkpt lat="50.907817" lon="14.222974"/>
      <trkpt lat="50.907896" lon="14.222993"/>
      <trkpt lat="50.907987" lon="14.223082"/>
      <trkpt lat="50.908029" lon="14.223175"/>
      <trkpt lat="50.908056" lon="14.223295"/>
      <trkpt lat="50.908016" lon="14.223433"/>
      <trkpt lat="50.907951" lon="14.223561"/>
      <trkpt lat="50.907886" lon="14.223651"/>
      <trkpt lat="50.907855" lon="14.223718"/>
      <trkpt lat="50.907811" lon="14.223896"/>
      <trkpt lat="50.907775" lon="14.224348"/>
      <trkpt lat="50.907652" lon="14.224930"/>
      <trkpt lat="50.907534" lon="14.225386"/>
      <trkpt lat="50.907526" lon="14.225547"/>
      <trkpt lat="50.907539" lon="14.225810"/>
      <trkpt lat="50.907582" lon="14.226059"/>
      <trkpt lat="50.907677" lon="14.226192"/>
      <trkpt lat="50.907795" lon="14.226255"/>
      <trkpt lat="50.907840" lon="14.226335"/>
      <trkpt lat="50.907858" lon="14.226411"/>
      <trkpt lat="50.907859" lon="14.226558"/>
      <trkpt lat="50.907836" lon="14.226823"/>
      <trkpt lat="50.907775" lon="14.227074"/>
      <trkpt lat="50.907712" lon="14.227400"/>
      <trkpt lat="50.907659" lon="14.228122"/>
      <trkpt lat="50.907656" lon="14.228748"/>
      <trkpt lat="50.907697" lon="14.228918"/>
      <trkpt lat="50.907654" lon="14.229370"/>
      <trkpt lat="50.907593" lon="14.229674"/>
      <trkpt lat="50.907517" lon="14.230111"/>
      <trkpt lat="50.907512" lon="14.230289"/>
      <trkpt lat="50.907551" lon="14.230557"/>
      <trkpt lat="50.907569" lon="14.230689"/>
      <trkpt lat="50.907584" lon="14.230801"/>
      <trkpt lat="50.907586" lon="14.230931"/>
      <trkpt lat="50.907556" lon="14.231143"/>
      <trkpt lat="50.907503" lon="14.231297"/>
      <trkpt lat="50.907428" lon="14.231424"/>
      <trkpt lat="50.907317" lon="14.231523"/>
      <trkpt lat="50.907217" lon="14.231590"/>
      <trkpt lat="50.907084" lon="14.231664"/>
      <trkpt lat="50.906953" lon="14.231608"/>
      <trkpt lat="50.906799" lon="14.231591"/>
      <trkpt lat="50.906693" lon="14.231628"/>
      <trkpt lat="50.906656" lon="14.231697"/>
      <trkpt lat="50.906650" lon="14.231830"/>
      <trkpt lat="50.906642" lon="14.231988"/>
      <trkpt lat="50.906665" lon="14.232197"/>
      <trkpt lat="50.906703" lon="14.232299"/>
      <trkpt lat="50.906796" lon="14.232430"/>
      <trkpt lat="50.906850" lon="14.232506"/>
      <trkpt lat="50.906908" lon="14.232662"/>
      <trkpt lat="50.906928" lon="14.232833"/>
      <trkpt lat="50.906940" lon="14.233038"/>
      <trkpt lat="50.906984" lon="14.233108"/>
      <trkpt lat="50.907024" lon="14.233138"/>
      <trkpt lat="50.907094" lon="14.233120"/>
      <trkpt lat="50.907243" lon="14.232939"/>
      <trkpt lat="50.907418" lon="14.232712"/>
      <trkpt lat="50.907502" lon="14.232583"/>
      <trkpt lat="50.907577" lon="14.232520"/>
      <trkpt lat="50.907617" lon="14.232532"/>
      <trkpt lat="50.907654" lon="14.232557"/>
      <trkpt lat="50.907685" lon="14.232650"/>
      <trkpt lat="50.907761" lon="14.233282"/>
      <trkpt lat="50.907759" lon="14.233334"/>
      <trkpt lat="50.907737" lon="14.233426"/>
      <trkpt lat="50.907610" lon="14.233832"/>
      <trkpt lat="50.907572" lon="14.234122"/>
      <trkpt lat="50.907594" lon="14.234239"/>
      <trkpt lat="50.907634" lon="14.234294"/>
      <trkpt lat="50.907686" lon="14.234320"/>
      <trkpt lat="50.907725" lon="14.234292"/>
      <trkpt lat="50.907834" lon="14.234206"/>
      <trkpt lat="50.907886" lon="14.234165"/>
      <trkpt lat="50.907930" lon="14.234169"/>
      <trkpt lat="50.908008" lon="14.234154"/>
      <trkpt lat="50.908060" lon="14.234145"/>
      <trkpt lat="50.908111" lon="14.234167"/>
      <trkpt lat="50.908169" lon="14.234238"/>
      <trkpt lat="50.908276" lon="14.234346"/>
      <trkpt lat="50.908341" lon="14.234350"/>
      <trkpt lat="50.908353" lon="14.234370"/>
      <trkpt lat="50.908403" lon="14.234447"/>
      <trkpt lat="50.908440" lon="14.234469"/>
      <trkpt lat="50.908505" lon="14.234479"/>
      <trkpt lat="50.908541" lon="14.234494"/>
      <trkpt lat="50.908562" lon="14.234510"/>
      <trkpt lat="50.908581" lon="14.234540"/>
      <trkpt lat="50.908615" lon="14.234637"/>
      <trkpt lat="50.908609" lon="14.234665"/>
      <trkpt lat="50.908604" lon="14.234694"/>
      <trkpt lat="50.908606" lon="14.234719"/>
      <trkpt lat="50.908609" lon="14.234766"/>
      <trkpt lat="50.908638" lon="14.234786"/>
      <trkpt lat="50.908666" lon="14.234787"/>
      <trkpt lat="50.908677" lon="14.234801"/>
      <trkpt lat="50.908684" lon="14.234834"/>
      <trkpt lat="50.908699" lon="14.234879"/>
      <trkpt lat="50.908715" lon="14.234916"/>
      <trkpt lat="50.908726" lon="14.234917"/>
      <trkpt lat="50.908745" lon="14.234873"/>
      <trkpt lat="50.908762" lon="14.234883"/>
      <trkpt lat="50.908774" lon="14.234803"/>
      <trkpt lat="50.908767" lon="14.234762"/>
      <trkpt lat="50.908774" lon="14.234722"/>
      <trkpt lat="50.908752" lon="14.234597"/>
      <trkpt lat="50.908755" lon="14.234569"/>
      <trkpt lat="50.908762" lon="14.234537"/>
      <trkpt lat="50.908765" lon="14.234514"/>
      <trkpt lat="50.908771" lon="14.234485"/>
      <trkpt lat="50.908793" lon="14.234479"/>
      <trkpt lat="50.908943" lon="14.234625"/>
      <trkpt lat="50.909025" lon="14.234643"/>
      <trkpt lat="50.909067" lon="14.234682"/>
      <trkpt lat="50.909102" lon="14.234740"/>
      <trkpt lat="50.909220" lon="14.234897"/>
      <trkpt lat="50.909287" lon="14.234948"/>
      <trkpt lat="50.909347" lon="14.234964"/>
      <trkpt lat="50.909360" lon="14.234968"/>
      <trkpt lat="50.909426" lon="14.234990"/>
      <trkpt lat="50.909473" lon="14.235038"/>
      <trkpt lat="50.909561" lon="14.235175"/>
      <trkpt lat="50.909582" lon="14.235236"/>
      <trkpt lat="50.909607" lon="14.235273"/>
      <trkpt lat="50.909608" lon="14.235293"/>
      <trkpt lat="50.909593" lon="14.235310"/>
      <trkpt lat="50.909587" lon="14.235339"/>
      <trkpt lat="50.909608" lon="14.235405"/>
      <trkpt lat="50.909628" lon="14.235492"/>
      <trkpt lat="50.909648" lon="14.235655"/>
      <trkpt lat="50.909653" lon="14.235799"/>
      <trkpt lat="50.909674" lon="14.235949"/>
      <trkpt lat="50.909775" lon="14.236349"/>
      <trkpt lat="50.909827" lon="14.236469"/>
      <trkpt lat="50.909907" lon="14.236703"/>
      <trkpt lat="50.909959" lon="14.236762"/>
      <trkpt lat="50.909983" lon="14.236790"/>
      <trkpt lat="50.910000" lon="14.236810"/>
      <trkpt lat="50.910012" lon="14.236829"/>
      <trkpt lat="50.910017" lon="14.236848"/>
      <trkpt lat="50.910013" lon="14.236870"/>
      <trkpt lat="50.910005" lon="14.236884"/>
      <trkpt lat="50.910005" lon="14.236901"/>
      <trkpt lat="50.910074" lon="14.236983"/>
      <trkpt lat="50.910122" lon="14.237058"/>
      <trkpt lat="50.910176" lon="14.237147"/>
      <trkpt lat="50.910278" lon="14.237267"/>
      <trkpt lat="50.910380" lon="14.237390"/>
      <trkpt lat="50.910452" lon="14.237500"/>
      <trkpt lat="50.910447" lon="14.237305"/>
      <trkpt lat="50.910437" lon="14.237126"/>
      <trkpt lat="50.910379" lon="14.236846"/>
      <trkpt lat="50.910388" lon="14.236535"/>
      <trkpt lat="50.910488" lon="14.236011"/>
      <trkpt lat="50.910566" lon="14.235659"/>
      <trkpt lat="50.910693" lon="14.235444"/>
      <trkpt lat="50.910831" lon="14.235332"/>
      <trkpt lat="50.910935" lon="14.235155"/>
      <trkpt lat="50.911040" lon="14.234871"/>
      <trkpt lat="50.911143" lon="14.234698"/>
      <trkpt lat="50.911194" lon="14.234495"/>
      <trkpt lat="50.911265" lon="14.234434"/>
      <trkpt lat="50.911326" lon="14.234312"/>
      <trkpt lat="50.911397" lon="14.234021"/>
      <trkpt lat="50.911426" lon="14.233717"/>
      <trkpt lat="50.911529" lon="14.233625"/>
      <trkpt lat="50.911687" lon="14.233220"/>
      <trkpt lat="50.911893" lon="14.232643"/>
      <trkpt lat="50.912010" lon="14.232384"/>
      <trkpt lat="50.912046" lon="14.232234"/>
      <trkpt lat="50.912055" lon="14.232079"/>
      <trkpt lat="50.912019" lon="14.231958"/>
      <trkpt lat="50.911936" lon="14.231849"/>
      <trkpt lat="50.911848" lon="14.231757"/>
      <trkpt lat="50.911768" lon="14.231648"/>
      <trkpt lat="50.911691" lon="14.231597"/>
      <trkpt lat="50.911595" lon="14.231583"/>
      <trkpt lat="50.911496" lon="14.231662"/>
      <trkpt lat="50.911458" lon="14.231792"/>
      <trkpt lat="50.911453" lon="14.231903"/>
      <trkpt lat="50.911379" lon="14.231969"/>
      <trkpt lat="50.911301" lon="14.232165"/>
      <trkpt lat="50.911271" lon="14.232283"/>
      <trkpt lat="50.911226" lon="14.232342"/>
      <trkpt lat="50.911121" lon="14.232409"/>
      <trkpt lat="50.911016" lon="14.232569"/>
      <trkpt lat="50.910972" lon="14.232802"/>
      <trkpt lat="50.910922" lon="14.232931"/>
      <trkpt lat="50.910861" lon="14.232981"/>
      <trkpt lat="50.910746" lon="14.233008"/>
      <trkpt lat="50.910637" lon="14.232992"/>
      <trkpt lat="50.910567" lon="14.232901"/>
      <trkpt lat="50.910527" lon="14.232743"/>
      <trkpt lat="50.910499" lon="14.232557"/>
      <trkpt lat="50.910548" lon="14.232323"/>
      <trkpt lat="50.910537" lon="14.232080"/>
      <trkpt lat="50.910551" lon="14.231909"/>
      <trkpt lat="50.910567" lon="14.231676"/>
      <trkpt lat="50.910550" lon="14.231432"/>
      <trkpt lat="50.910493" lon="14.231195"/>
      <trkpt lat="50.910387" lon="14.231049"/>
      <trkpt lat="50.910291" lon="14.230852"/>
      <trkpt lat="50.910266" lon="14.230652"/>
      <trkpt lat="50.910262" lon="14.230417"/>
      <trkpt lat="50.910276" lon="14.230329"/>
      <trkpt lat="50.910322" lon="14.230280"/>
      <trkpt lat="50.910382" lon="14.230118"/>
      <trkpt lat="50.910506" lon="14.229836"/>
      <trkpt lat="50.910589" lon="14.229659"/>
      <trkpt lat="50.910643" lon="14.229490"/>
      <trkpt lat="50.910659" lon="14.229368"/>
      <trkpt lat="50.910640" lon="14.229216"/>
      <trkpt lat="50.910575" lon="14.229015"/>
      <trkpt lat="50.910499" lon="14.228876"/>
      <trkpt lat="50.910500" lon="14.228693"/>
      <trkpt lat="50.910444" lon="14.228526"/>
      <trkpt lat="50.910431" lon="14.228393"/>
      <trkpt lat="50.910489" lon="14.228270"/>
      <trkpt lat="50.910637" lon="14.228160"/>
      <trkpt lat="50.910727" lon="14.228069"/>
      <trkpt lat="50.910800" lon="14.227930"/>
      <trkpt lat="50.910864" lon="14.227848"/>
      <trkpt lat="50.910850" lon="14.228067"/>
      <trkpt lat="50.910817" lon="14.228211"/>
      <trkpt lat="50.910807" lon="14.228321"/>
      <trkpt lat="50.910838" lon="14.228350"/>
      <trkpt lat="50.910920" lon="14.228299"/>
      <trkpt lat="50.911009" lon="14.228299"/>
      <trkpt lat="50.911099" lon="14.228333"/>
      <trkpt lat="50.911195" lon="14.228420"/>
      <trkpt lat="50.911250" lon="14.228514"/>
      <trkpt lat="50.911315" lon="14.228696"/>
      <trkpt lat="50.911437" lon="14.228891"/>
      <trkpt lat="50.911428" lon="14.228962"/>
      <trkpt lat="50.911420" lon="14.229123"/>
      <trkpt lat="50.911362" lon="14.229369"/>
      <trkpt lat="50.911375" lon="14.229473"/>
      <trkpt lat="50.911403" lon="14.229555"/>
      <trkpt lat="50.911449" lon="14.229713"/>
      <trkpt lat="50.911541" lon="14.229859"/>
      <trkpt lat="50.911606" lon="14.229917"/>
      <trkpt lat="50.911656" lon="14.229837"/>
      <trkpt lat="50.911683" lon="14.229734"/>
      <trkpt lat="50.911710" lon="14.229429"/>
      <trkpt lat="50.911776" lon="14.229238"/>
      <trkpt lat="50.911874" lon="14.229071"/>
      <trkpt lat="50.912006" lon="14.228871"/>
      <trkpt lat="50.912128" lon="14.228533"/>
      <trkpt lat="50.912176" lon="14.228278"/>
      <trkpt lat="50.912246" lon="14.228002"/>
      <trkpt lat="50.912268" lon="14.227835"/>
      <trkpt lat="50.912316" lon="14.227671"/>
      <trkpt lat="50.912405" lon="14.227332"/>
      <trkpt lat="50.912312" lon="14.226874"/>
      <trkpt lat="50.912329" lon="14.226555"/>
      <trkpt lat="50.912298" lon="14.226265"/>
      <trkpt lat="50.912177" lon="14.225901"/>
      <trkpt lat="50.912097" lon="14.225478"/>
      <trkpt lat="50.912102" lon="14.225206"/>
      <trkpt lat="50.912139" lon="14.224870"/>
      <trkpt lat="50.911984" lon="14.223937"/>
      <trkpt lat="50.911885" lon="14.223452"/>
      <trkpt lat="50.911817" lon="14.223213"/>
      <trkpt lat="50.911807" lon="14.222978"/>
      <trkpt lat="50.911862" lon="14.222729"/>
      <trkpt lat="50.911944" lon="14.222694"/>
      <trkpt lat="50.912033" lon="14.222556"/>
      <trkpt lat="50.912111" lon="14.222397"/>
      <trkpt lat="50.912188" lon="14.222217"/>
      <trkpt lat="50.912517" lon="14.221623"/>
      <trkpt lat="50.912868" lon="14.221184"/>
      <trkpt lat="50.913065" lon="14.221023"/>
      <trkpt lat="50.913169" lon="14.220967"/>
      <trkpt lat="50.913306" lon="14.220941"/>
      <trkpt lat="50.913433" lon="14.220919"/>
      <trkpt lat="50.913650" lon="14.220810"/>
      <trkpt lat="50.913759" lon="14.220796"/>
      <trkpt lat="50.913853" lon="14.220799"/>
      <trkpt lat="50.913997" lon="14.220841"/>
      <trkpt lat="50.914184" lon="14.220956"/>
      <trkpt lat="50.914342" lon="14.221015"/>
      <trkpt lat="50.914477" lon="14.221131"/>
      <trkpt lat="50.914648" lon="14.221415"/>
      <trkpt lat="50.914714" lon="14.221654"/>
      <trkpt lat="50.914749" lon="14.221906"/>
      <trkpt lat="50.914806" lon="14.222285"/>
      <trkpt lat="50.914818" lon="14.222539"/>
      <trkpt lat="50.914791" lon="14.222758"/>
      <trkpt lat="50.914690" lon="14.223004"/>
      <trkpt lat="50.914594" lon="14.223233"/>
      <trkpt lat="50.914562" lon="14.223355"/>
      <trkpt lat="50.914549" lon="14.223491"/>
      <trkpt lat="50.914565" lon="14.223596"/>
      <trkpt lat="50.914597" lon="14.223700"/>
      <trkpt lat="50.914718" lon="14.223823"/>
      <trkpt lat="50.914897" lon="14.223948"/>
      <trkpt lat="50.915079" lon="14.224006"/>
      <trkpt lat="50.915170" lon="14.224054"/>
      <trkpt lat="50.915335" lon="14.224207"/>
      <trkpt lat="50.915606" lon="14.224428"/>
      <trkpt lat="50.915810" lon="14.224684"/>
      <trkpt lat="50.916062" lon="14.225188"/>
      <trkpt lat="50.916132" lon="14.225238"/>
      <trkpt lat="50.916199" lon="14.225245"/>
      <trkpt lat="50.916270" lon="14.225226"/>
      <trkpt lat="50.916382" lon="14.225160"/>
      <trkpt lat="50.916483" lon="14.225108"/>
      <trkpt lat="50.916594" lon="14.225062"/>
      <trkpt lat="50.916737" lon="14.225077"/>
      <trkpt lat="50.916905" lon="14.225175"/>
      <trkpt lat="50.917191" lon="14.225387"/>
      <trkpt lat="50.917400" lon="14.225679"/>
      <trkpt lat="50.917525" lon="14.226001"/>
      <trkpt lat="50.917502" lon="14.226576"/>
      <trkpt lat="50.917510" lon="14.226928"/>
      <trkpt lat="50.917535" lon="14.227585"/>
      <trkpt lat="50.917578" lon="14.227942"/>
      <trkpt lat="50.917591" lon="14.228025"/>
      <trkpt lat="50.917630" lon="14.228071"/>
      <trkpt lat="50.917689" lon="14.228051"/>
      <trkpt lat="50.917741" lon="14.227997"/>
      <trkpt lat="50.917812" lon="14.227860"/>
      <trkpt lat="50.917969" lon="14.227513"/>
      <trkpt lat="50.918053" lon="14.227375"/>
      <trkpt lat="50.918126" lon="14.227311"/>
      <trkpt lat="50.918194" lon="14.227296"/>
      <trkpt lat="50.918260" lon="14.227295"/>
      <trkpt lat="50.918336" lon="14.227334"/>
      <trkpt lat="50.918396" lon="14.227391"/>
      <trkpt lat="50.918453" lon="14.227457"/>
      <trkpt lat="50.918513" lon="14.227546"/>
      <trkpt lat="50.918565" lon="14.227730"/>
      <trkpt lat="50.918595" lon="14.227932"/>
      <trkpt lat="50.918720" lon="14.228594"/>
      <trkpt lat="50.918750" lon="14.228911"/>
      <trkpt lat="50.918766" lon="14.229241"/>
      <trkpt lat="50.918773" lon="14.229765"/>
      <trkpt lat="50.918733" lon="14.230103"/>
      <trkpt lat="50.918680" lon="14.230429"/>
      <trkpt lat="50.918615" lon="14.230724"/>
      <trkpt lat="50.918612" lon="14.230932"/>
      <trkpt lat="50.918651" lon="14.231134"/>
      <trkpt lat="50.918735" lon="14.231298"/>
      <trkpt lat="50.918826" lon="14.231364"/>
      <trkpt lat="50.919081" lon="14.231452"/>
      <trkpt lat="50.919326" lon="14.231623"/>
      <trkpt lat="50.919524" lon="14.231737"/>
      <trkpt lat="50.919684" lon="14.231862"/>
      <trkpt lat="50.919856" lon="14.232033"/>
      <trkpt lat="50.919891" lon="14.232094"/>
      <trkpt lat="50.919956" lon="14.232181"/>
      <trkpt lat="50.919984" lon="14.232250"/>
      <trkpt lat="50.920004" lon="14.232324"/>
      <trkpt lat="50.920013" lon="14.232403"/>
      <trkpt lat="50.920014" lon="14.232500"/>
      <trkpt lat="50.919998" lon="14.232612"/>
      <trkpt lat="50.919874" lon="14.233069"/>
      <trkpt lat="50.919828" lon="14.233369"/>
      <trkpt lat="50.919816" lon="14.233668"/>
      <trkpt lat="50.919799" lon="14.234092"/>
      <trkpt lat="50.919822" lon="14.234217"/>
      <trkpt lat="50.919887" lon="14.234370"/>
      <trkpt lat="50.919984" lon="14.234480"/>
      <trkpt lat="50.920099" lon="14.234565"/>
      <trkpt lat="50.920246" lon="14.234602"/>
      <trkpt lat="50.920534" lon="14.234641"/>
      <trkpt lat="50.920632" lon="14.234699"/>
      <trkpt lat="50.920712" lon="14.234810"/>
      <trkpt lat="50.920802" lon="14.235048"/>
      <trkpt lat="50.920855" lon="14.235532"/>
      <trkpt lat="50.920917" lon="14.235634"/>
      <trkpt lat="50.921076" lon="14.236289"/>
      <trkpt lat="50.921093" lon="14.236469"/>
      <trkpt lat="50.921093" lon="14.236567"/>
      <trkpt lat="50.921068" lon="14.236647"/>
      <trkpt lat="50.920993" lon="14.236782"/>
      <trkpt lat="50.920817" lon="14.236996"/>
      <trkpt lat="50.920757" lon="14.237081"/>
      <trkpt lat="50.920707" lon="14.237201"/>
      <trkpt lat="50.920612" lon="14.237514"/>
      <trkpt lat="50.920539" lon="14.237680"/>
      <trkpt lat="50.920421" lon="14.237915"/>
    </trkseg>
  </trk>
</gpx>
