<?xml version="1.0" encoding="UTF-8"?>
<gpx version="1.1" creator="hike-recap example data"
     xmlns="http://www.topografix.com/GPX/1/1">
  <metadata>
    <name>Stage 2</name>
    <desc>Derived from OpenStreetMap relation 114289, ODbL. Example data.</desc>
  </metadata>
  <trk>
    <name>Stage 2</name>
    <trkseg>
      <trkpt lat="50.978074" lon="14.039112"/>
      <trkpt lat="50.978056" lon="14.039119"/>
      <trkpt lat="50.978032" lon="14.039122"/>
      <trkpt lat="50.977933" lon="14.039128"/>
      <trkpt lat="50.977883" lon="14.039124"/>
      <trkpt lat="50.977737" lon="14.039095"/>
      <trkpt lat="50.977503" lon="14.039072"/>
      <trkpt lat="50.977430" lon="14.039082"/>
      <trkpt lat="50.977420" lon="14.039085"/>
      <trkpt lat="50.977413" lon="14.039089"/>
      <trkpt lat="50.977339" lon="14.039143"/>
      <trkpt lat="50.977278" lon="14.039181"/>
      <trkpt lat="50.977254" lon="14.039193"/>
      <trkpt lat="50.977239" lon="14.039195"/>
      <trkpt lat="50.977228" lon="14.039192"/>
      <trkpt lat="50.977210" lon="14.039185"/>
      <trkpt lat="50.977105" lon="14.039096"/>
      <trkpt lat="50.976988" lon="14.038988"/>
      <trkpt lat="50.976976" lon="14.038976"/>
      <trkpt lat="50.976968" lon="14.038964"/>
      <trkpt lat="50.976906" lon="14.038852"/>
      <trkpt lat="50.976892" lon="14.038821"/>
      <trkpt lat="50.976853" lon="14.038718"/>
      <trkpt lat="50.976845" lon="14.038689"/>
      <trkpt lat="50.976842" lon="14.038672"/>
      <trkpt lat="50.976839" lon="14.038643"/>
      <trkpt lat="50.976838" lon="14.038030"/>
      <trkpt lat="50.976836" lon="14.038007"/>
      <trkpt lat="50.976832" lon="14.037985"/>
      <trkpt lat="50.976787" lon="14.037848"/>
      <trkpt lat="50.976781" lon="14.037834"/>
      <trkpt lat="50.976664" lon="14.037609"/>
      <trkpt lat="50.976513" lon="14.037295"/>
      <trkpt lat="50.976509" lon="14.037282"/>
      <trkpt lat="50.976506" lon="14.037267"/>
      <trkpt lat="50.976480" lon="14.037060"/>
      <trkpt lat="50.976475" lon="14.037037"/>
      <trkpt lat="50.976470" lon="14.037019"/>
      <trkpt lat="50.976376" lon="14.036780"/>
      <trkpt lat="50.976361" lon="14.036748"/>
      <trkpt lat="50.976328" lon="14.036697"/>
      <trkpt lat="50.976270" lon="14.036628"/>
      <trkpt lat="50.976267" lon="14.036627"/>
      <trkpt lat="50.976265" lon="14.036626"/>
      <trkpt lat="50.976243" lon="14.036628"/>
      <trkpt lat="50.976222" lon="14.036632"/>
      <trkpt lat="50.976213" lon="14.036637"/>
      <trkpt lat="50.976200" lon="14.036648"/>
      <trkpt lat="50.976080" lon="14.036781"/>
      <trkpt lat="50.976060" lon="14.036800"/>
      <trkpt lat="50.975859" lon="14.036932"/>
      <trkpt lat="50.975769" lon="14.036983"/>
      <trkpt lat="50.975760" lon="14.036991"/>
      <trkpt lat="50.975751" lon="14.037006"/>
      <trkpt lat="50.975746" lon="14.037017"/>
      <trkpt lat="50.975743" lon="14.037029"/>
      <trkpt lat="50.975736" lon="14.037112"/>
      <trkpt lat="50.975735" lon="14.037123"/>
      <trkpt lat="50.975734" lon="14.037130"/>
      <trkpt lat="50.975732" lon="14.037135"/>
      <trkpt lat="50.975729" lon="14.037141"/>
      <trkpt lat="50.975591" lon="14.037360"/>
      <trkpt lat="50.975578" lon="14.037378"/>
      <trkpt lat="50.975571" lon="14.037387"/>
      <trkpt lat="50.975414" lon="14.037512"/>
      <trkpt lat="50.975403" lon="14.037518"/>
      <trkpt lat="50.975395" lon="14.037520"/>
      <trkpt lat="50.975317" lon="14.037524"/>
      <trkpt lat="50.975310" lon="14.037523"/>
      <trkpt lat="50.975305" lon="14.037522"/>
      <trkpt lat="50.975301" lon="14.037517"/>
      <trkpt lat="50.975274" lon="14.037466"/>
      <trkpt lat="50.975151" lon="14.037308"/>
      <trkpt lat="50.975135" lon="14.037291"/>
      <trkpt lat="50.975112" lon="14.037276"/>
      <trkpt lat="50.975032" lon="14.037247"/>
      <trkpt lat="50.974883" lon="14.037194"/>
      <trkpt lat="50.974871" lon="14.037185"/>
      <trkpt lat="50.974860" lon="14.037174"/>
      <trkpt lat="50.974785" lon="14.037075"/>
      <trkpt lat="50.974722" lon="14.036983"/>
      <trkpt lat="50.974699" lon="14.036942"/>
      <trkpt lat="50.974688" lon="14.036918"/>
      <trkpt lat="50.974578" lon="14.036620"/>
      <trkpt lat="50.974570" lon="14.036600"/>
      <trkpt lat="50.974564" lon="14.036587"/>
      <trkpt lat="50.974536" lon="14.036535"/>
      <trkpt lat="50.974496" lon="14.036425"/>
      <trkpt lat="50.974492" lon="14.036411"/>
      <trkpt lat="50.974469" lon="14.036307"/>
      <trkpt lat="50.974456" lon="14.036239"/>
      <trkpt lat="50.974454" lon="14.036220"/>
      <trkpt lat="50.974453" lon="14.036204"/>
      <trkpt lat="50.974452" lon="14.036070"/>
      <trkpt lat="50.974452" lon="14.036032"/>
      <trkpt lat="50.974453" lon="14.036009"/>
      <trkpt lat="50.974455" lon="14.035988"/>
      <trkpt lat="50.974463" lon="14.035915"/>
      <trkpt lat="50.974465" lon="14.035905"/>
      <trkpt lat="50.974467" lon="14.035897"/>
      <trkpt lat="50.974520" lon="14.035836"/>
      <trkpt lat="50.974527" lon="14.035822"/>
      <trkpt lat="50.974533" lon="14.035801"/>
      <trkpt lat="50.974542" lon="14.035764"/>
      <trkpt lat="50.974548" lon="14.035736"/>
      <trkpt lat="50.974580" lon="14.035554"/>
      <trkpt lat="50.974583" lon="14.035526"/>
      <trkpt lat="50.974584" lon="14.035501"/>
      <trkpt lat="50.974583" lon="14.035478"/>
      <trkpt lat="50.974574" lon="14.035349"/>
      <trkpt lat="50.974571" lon="14.035324"/>
      <trkpt lat="50.974561" lon="14.035272"/>
      <trkpt lat="50.974555" lon="14.035251"/>
      <trkpt lat="50.974479" lon="14.035051"/>
      <trkpt lat="50.974472" lon="14.035036"/>
      <trkpt lat="50.974315" lon="14.034807"/>
      <trkpt lat="50.974177" lon="14.034588"/>
      <trkpt lat="50.974118" lon="14.034593"/>
      <trkpt lat="50.974048" lon="14.034585"/>
      <trkpt lat="50.974040" lon="14.034585"/>
      <trkpt lat="50.974031" lon="14.034586"/>
      <trkpt lat="50.973888" lon="14.034621"/>
      <trkpt lat="50.973883" lon="14.034623"/>
      <trkpt lat="50.973881" lon="14.034625"/>
      <trkpt lat="50.973878" lon="14.034630"/>
      <trkpt lat="50.973849" lon="14.034714"/>
      <trkpt lat="50.973845" lon="14.034721"/>
      <trkpt lat="50.973837" lon="14.034727"/>
      <trkpt lat="50.973786" lon="14.034753"/>
      <trkpt lat="50.973780" lon="14.034755"/>
      <trkpt lat="50.973775" lon="14.034757"/>
      <trkpt lat="50.973733" lon="14.034742"/>
      <trkpt lat="50.973728" lon="14.034741"/>
      <trkpt lat="50.973723" lon="14.034742"/>
      <trkpt lat="50.973718" lon="14.034744"/>
      <trkpt lat="50.973704" lon="14.034751"/>
      <trkpt lat="50.973632" lon="14.034788"/>
      <trkpt lat="50.973508" lon="14.034833"/>
      <trkpt lat="50.973405" lon="14.034857"/>
      <trkpt lat="50.973393" lon="14.034859"/>
      <trkpt lat="50.973386" lon="14.034858"/>
      <trkpt lat="50.973379" lon="14.034856"/>
      <trkpt lat="50.973316" lon="14.034814"/>
      <trkpt lat="50.973169" lon="14.034699"/>
      <trkpt lat="50.973160" lon="14.034689"/>
      <trkpt lat="50.973041" lon="14.034549"/>
      <trkpt lat="50.973035" lon="14.034541"/>
      <trkpt lat="50.973031" lon="14.034533"/>
      <trkpt lat="50.972996" lon="14.034407"/>
      <trkpt lat="50.972991" lon="14.034393"/>
      <trkpt lat="50.972987" lon="14.034385"/>
      <trkpt lat="50.972981" lon="14.034377"/>
      <trkpt lat="50.972872" lon="14.034278"/>
      <trkpt lat="50.972858" lon="14.034265"/>
      <trkpt lat="50.972851" lon="14.034251"/>
      <trkpt lat="50.972844" lon="14.034227"/>
      <trkpt lat="50.972808" lon="14.034072"/>
      <trkpt lat="50.972678" lon="14.033570"/>
      <trkpt lat="50.972618" lon="14.033423"/>
      <trkpt lat="50.972606" lon="14.033401"/>
      <trkpt lat="50.972597" lon="14.033386"/>
      <trkpt lat="50.972578" lon="14.033362"/>
      <trkpt lat="50.972555" lon="14.033338"/>
      <trkpt lat="50.972543" lon="14.033328"/>
      <trkpt lat="50.972533" lon="14.033324"/>
      <trkpt lat="50.972487" lon="14.033325"/>
      <trkpt lat="50.972481" lon="14.033323"/>
      <trkpt lat="50.972474" lon="14.033316"/>
      <trkpt lat="50.972469" lon="14.033308"/>
      <trkpt lat="50.972458" lon="14.033285"/>
      <trkpt lat="50.972359" lon="14.033062"/>
      <trkpt lat="50.972298" lon="14.032948"/>
      <trkpt lat="50.972282" lon="14.032929"/>
      <trkpt lat="50.972268" lon="14.032917"/>
      <trkpt lat="50.972252" lon="14.032908"/>
      <trkpt lat="50.972103" lon="14.032863"/>
      <trkpt lat="50.972078" lon="14.032857"/>
      <trkpt lat="50.972060" lon="14.032855"/>
      <trkpt lat="50.971908" lon="14.032866"/>
      <trkpt lat="50.971767" lon="14.032886"/>
      <trkpt lat="50.971743" lon="14.032892"/>
      <trkpt lat="50.971726" lon="14.032901"/>
      <trkpt lat="50.971543" lon="14.033025"/>
      <trkpt lat="50.971526" lon="14.033039"/>
      <trkpt lat="50.971513" lon="14.033054"/>
      <trkpt lat="50.971360" lon="14.033244"/>
      <trkpt lat="50.971333" lon="14.033275"/>
      <trkpt lat="50.971315" lon="14.033290"/>
      <trkpt lat="50.971090" lon="14.033443"/>
      <trkpt lat="50.970978" lon="14.033503"/>
      <trkpt lat="50.970966" lon="14.033509"/>
      <trkpt lat="50.970958" lon="14.033517"/>
      <trkpt lat="50.970951" lon="14.033524"/>
      <trkpt lat="50.970870" lon="14.033647"/>
      <trkpt lat="50.970856" lon="14.033666"/>
      <trkpt lat="50.970846" lon="14.033674"/>
      <trkpt lat="50.970837" lon="14.033676"/>
      <trkpt lat="50.970828" lon="14.033675"/>
      <trkpt lat="50.970665" lon="14.033642"/>
      <trkpt lat="50.970651" lon="14.033641"/>
      <trkpt lat="50.970638" lon="14.033642"/>
      <trkpt lat="50.970473" lon="14.033689"/>
      <trkpt lat="50.970293" lon="14.033775"/>
      <trkpt lat="50.970277" lon="14.033784"/>
      <trkpt lat="50.970263" lon="14.033794"/>
      <trkpt lat="50.970207" lon="14.033851"/>
      <trkpt lat="50.970167" lon="14.033898"/>
      <trkpt lat="50.970147" lon="14.033924"/>
      <trkpt lat="50.969767" lon="14.034491"/>
      <trkpt lat="50.969749" lon="14.034515"/>
      <trkpt lat="50.969576" lon="14.034695"/>
      <trkpt lat="50.969555" lon="14.034712"/>
      <trkpt lat="50.969538" lon="14.034725"/>
      <trkpt lat="50.969472" lon="14.034754"/>
      <trkpt lat="50.969372" lon="14.034805"/>
      <trkpt lat="50.969203" lon="14.034878"/>
      <trkpt lat="50.969036" lon="14.034933"/>
      <trkpt lat="50.969024" lon="14.034933"/>
      <trkpt lat="50.969012" lon="14.034930"/>
      <trkpt lat="50.968921" lon="14.034875"/>
      <trkpt lat="50.968808" lon="14.034792"/>
      <trkpt lat="50.968800" lon="14.034781"/>
      <trkpt lat="50.968793" lon="14.034767"/>
      <trkpt lat="50.968757" lon="14.034670"/>
      <trkpt lat="50.968747" lon="14.034650"/>
      <trkpt lat="50.968736" lon="14.034634"/>
      <trkpt lat="50.968611" lon="14.034499"/>
      <trkpt lat="50.968598" lon="14.034487"/>
      <trkpt lat="50.968590" lon="14.034481"/>
      <trkpt lat="50.968474" lon="14.034412"/>
      <trkpt lat="50.968463" lon="14.034406"/>
      <trkpt lat="50.968453" lon="14.034404"/>
      <trkpt lat="50.968317" lon="14.034393"/>
      <trkpt lat="50.968286" lon="14.034392"/>
      <trkpt lat="50.968272" lon="14.034394"/>
      <trkpt lat="50.968257" lon="14.034400"/>
      <trkpt lat="50.968066" lon="14.034500"/>
      <trkpt lat="50.968055" lon="14.034509"/>
      <trkpt lat="50.968045" lon="14.034522"/>
      <trkpt lat="50.967965" lon="14.034649"/>
      <trkpt lat="50.967925" lon="14.034716"/>
      <trkpt lat="50.967911" lon="14.034734"/>
      <trkpt lat="50.967897" lon="14.034743"/>
      <trkpt lat="50.967878" lon="14.034750"/>
      <trkpt lat="50.967797" lon="14.034772"/>
      <trkpt lat="50.967755" lon="14.034790"/>
      <trkpt lat="50.967451" lon="14.034989"/>
      <trkpt lat="50.967415" lon="14.034881"/>
      <trkpt lat="50.967384" lon="14.034805"/>
      <trkpt lat="50.967361" lon="14.034761"/>
      <trkpt lat="50.967326" lon="14.034714"/>
      <trkpt lat="50.967185" lon="14.034585"/>
      <trkpt lat="50.966822" lon="14.034190"/>
      <trkpt lat="50.966792" lon="14.034164"/>
      <trkpt lat="50.966758" lon="14.034148"/>
      <trkpt lat="50.966717" lon="14.034137"/>
      <trkpt lat="50.966682" lon="14.034133"/>
      <trkpt lat="50.966580" lon="14.034132"/>
      <trkpt lat="50.965825" lon="14.034165"/>
      <trkpt lat="50.965781" lon="14.034164"/>
      <trkpt lat="50.965723" lon="14.034152"/>
      <trkpt lat="50.965672" lon="14.034138"/>
      <trkpt lat="50.965635" lon="14.034117"/>
      <trkpt lat="50.965597" lon="14.034069"/>
      <trkpt lat="50.965567" lon="14.034012"/>
      <trkpt lat="50.965537" lon="14.033945"/>
      <trkpt lat="50.965486" lon="14.033837"/>
      <trkpt lat="50.965375" lon="14.033645"/>
      <trkpt lat="50.965204" lon="14.033406"/>
      <trkpt lat="50.965141" lon="14.033326"/>
      <trkpt lat="50.965088" lon="14.033276"/>
      <trkpt lat="50.965035" lon="14.033248"/>
      <trkpt lat="50.964959" lon="14.033217"/>
      <trkpt lat="50.964919" lon="14.033277"/>
      <trkpt lat="50.964802" lon="14.033372"/>
      <trkpt lat="50.964481" lon="14.033700"/>
      <trkpt lat="50.964399" lon="14.033775"/>
      <trkpt lat="50.964240" lon="14.033902"/>
      <trkpt lat="50.964068" lon="14.034032"/>
      <trkpt lat="50.964014" lon="14.034063"/>
      <trkpt lat="50.963945" lon="14.034095"/>
      <trkpt lat="50.963868" lon="14.034126"/>
      <trkpt lat="50.963784" lon="14.034137"/>
      <trkpt lat="50.963457" lon="14.034123"/>
      <trkpt lat="50.963338" lon="14.034125"/>
      <trkpt lat="50.963114" lon="14.034148"/>
      <trkpt lat="50.963054" lon="14.034149"/>
      <trkpt lat="50.963018" lon="14.034143"/>
      <trkpt lat="50.962872" lon="14.034088"/>
      <trkpt lat="50.962614" lon="14.033990"/>
      <trkpt lat="50.962575" lon="14.033978"/>
      <trkpt lat="50.962525" lon="14.033971"/>
      <trkpt lat="50.962472" lon="14.033978"/>
      <trkpt lat="50.962256" lon="14.034031"/>
      <trkpt lat="50.962203" lon="14.034048"/>
      <trkpt lat="50.962149" lon="14.034074"/>
      <trkpt lat="50.962076" lon="14.034135"/>
      <trkpt lat="50.961877" lon="14.034327"/>
      <trkpt lat="50.961693" lon="14.034500"/>
      <trkpt lat="50.961627" lon="14.034566"/>
      <trkpt lat="50.961517" lon="14.034687"/>
      <trkpt lat="50.961425" lon="14.034813"/>
      <trkpt lat="50.961365" lon="14.034917"/>
      <trkpt lat="50.961249" lon="14.035176"/>
      <trkpt lat="50.961077" lon="14.035568"/>
      <trkpt lat="50.960985" lon="14.035857"/>
      <trkpt lat="50.960941" lon="14.036012"/>
      <trkpt lat="50.960898" lon="14.036205"/>
      <trkpt lat="50.960870" lon="14.036346"/>
      <trkpt lat="50.960803" lon="14.036794"/>
      <trkpt lat="50.960727" lon="14.036846"/>
      <trkpt lat="50.960688" lon="14.036888"/>
      <trkpt lat="50.960377" lon="14.037283"/>
      <trkpt lat="50.960328" lon="14.037340"/>
      <trkpt lat="50.960254" lon="14.037404"/>
      <trkpt lat="50.960185" lon="14.037467"/>
      <trkpt lat="50.960143" lon="14.037488"/>
      <trkpt lat="50.960077" lon="14.037504"/>
      <trkpt lat="50.959898" lon="14.037536"/>
      <trkpt lat="50.959789" lon="14.037573"/>
      <trkpt lat="50.959265" lon="14.037815"/>
      <trkpt lat="50.959226" lon="14.037831"/>
      <trkpt lat="50.959206" lon="14.037835"/>
      <trkpt lat="50.959192" lon="14.037834"/>
      <trkpt lat="50.959088" lon="14.037817"/>
      <trkpt lat="50.959071" lon="14.037812"/>
      <trkpt lat="50.959058" lon="14.037805"/>
      <trkpt lat="50.958982" lon="14.037740"/>
      <trkpt lat="50.958969" lon="14.037728"/>
      <trkpt lat="50.958958" lon="14.037711"/>
      <trkpt lat="50.958938" lon="14.037676"/>
      <trkpt lat="50.958861" lon="14.037535"/>
      <trkpt lat="50.958846" lon="14.037502"/>
      <trkpt lat="50.958835" lon="14.037475"/>
      <trkpt lat="50.958768" lon="14.037259"/>
      <trkpt lat="50.958756" lon="14.037217"/>
      <trkpt lat="50.958748" lon="14.037184"/>
      <trkpt lat="50.958680" lon="14.036865"/>
      <trkpt lat="50.958672" lon="14.036820"/>
      <trkpt lat="50.958620" lon="14.036445"/>
      <trkpt lat="50.958612" lon="14.036377"/>
      <trkpt lat="50.958601" lon="14.036242"/>
      <trkpt lat="50.958575" lon="14.036038"/>
      <trkpt lat="50.958567" lon="14.036002"/>
      <trkpt lat="50.958560" lon="14.035975"/>
      <trkpt lat="50.958405" lon="14.035541"/>
      <trkpt lat="50.958398" lon="14.035515"/>
      <trkpt lat="50.958394" lon="14.035488"/>
      <trkpt lat="50.958392" lon="14.035450"/>
      <trkpt lat="50.958392" lon="14.035427"/>
      <trkpt lat="50.958344" lon="14.035409"/>
      <trkpt lat="50.958326" lon="14.035400"/>
      <trkpt lat="50.958318" lon="14.035394"/>
      <trkpt lat="50.958311" lon="14.035386"/>
      <trkpt lat="50.958304" lon="14.035377"/>
      <trkpt lat="50.958163" lon="14.035139"/>
      <trkpt lat="50.958121" lon="14.034921"/>
      <trkpt lat="50.958101" lon="14.034681"/>
      <trkpt lat="50.958094" lon="14.034596"/>
      <trkpt lat="50.958092" lon="14.034559"/>
      <trkpt lat="50.958086" lon="14.034463"/>
      <trkpt lat="50.958067" lon="14.034462"/>
      <trkpt lat="50.958052" lon="14.034461"/>
      <trkpt lat="50.958011" lon="14.034458"/>
      <trkpt lat="50.957954" lon="14.034453"/>
      <trkpt lat="50.957948" lon="14.034331"/>
      <trkpt lat="50.957911" lon="14.034332"/>
      <trkpt lat="50.957904" lon="14.034467"/>
      <trkpt lat="50.957850" lon="14.034464"/>
      <trkpt lat="50.957812" lon="14.034155"/>
      <trkpt lat="50.957786" lon="14.033937"/>
      <trkpt lat="50.957777" lon="14.033923"/>
      <trkpt lat="50.957769" lon="14.033907"/>
      <trkpt lat="50.957762" lon="14.033881"/>
      <trkpt lat="50.957752" lon="14.033843"/>
      <trkpt lat="50.957741" lon="14.033795"/>
      <trkpt lat="50.957732" lon="14.033854"/>
      <trkpt lat="50.957717" lon="14.033857"/>
      <trkpt lat="50.957682" lon="14.033747"/>
      <trkpt lat="50.957665" lon="14.033751"/>
      <trkpt lat="50.957651" lon="14.033912"/>
      <trkpt lat="50.957622" lon="14.033918"/>
      <trkpt lat="50.957600" lon="14.033832"/>
      <trkpt lat="50.957586" lon="14.033838"/>
      <trkpt lat="50.957575" lon="14.033796"/>
      <trkpt lat="50.957553" lon="14.033805"/>
      <trkpt lat="50.957538" lon="14.033718"/>
      <trkpt lat="50.957517" lon="14.033722"/>
      <trkpt lat="50.957505" lon="14.033649"/>
      <trkpt lat="50.957491" lon="14.033653"/>
      <trkpt lat="50.957501" lon="14.033772"/>
      <trkpt lat="50.957497" lon="14.033906"/>
      <trkpt lat="50.957497" lon="14.033977"/>
      <trkpt lat="50.957482" lon="14.034046"/>
      <trkpt lat="50.957459" lon="14.034135"/>
      <trkpt lat="50.957429" lon="14.034198"/>
      <trkpt lat="50.957391" lon="14.034255"/>
      <trkpt lat="50.957336" lon="14.034313"/>
      <trkpt lat="50.957368" lon="14.034679"/>
      <trkpt lat="50.957371" lon="14.034821"/>
      <trkpt lat="50.957355" lon="14.034921"/>
      <trkpt lat="50.957242" lon="14.035111"/>
      <trkpt lat="50.957230" lon="14.035155"/>
      <trkpt lat="50.957236" lon="14.035188"/>
      <trkpt lat="50.957260" lon="14.035342"/>
      <trkpt lat="50.957284" lon="14.035516"/>
      <trkpt lat="50.957347" lon="14.035982"/>
      <trkpt lat="50.957394" lon="14.036321"/>
      <trkpt lat="50.957409" lon="14.036425"/>
      <trkpt lat="50.957414" lon="14.036451"/>
      <trkpt lat="50.957552" lon="14.036758"/>
      <trkpt lat="50.957562" lon="14.036782"/>
      <trkpt lat="50.957637" lon="14.036941"/>
      <trkpt lat="50.957706" lon="14.037135"/>
      <trkpt lat="50.957760" lon="14.037312"/>
      <trkpt lat="50.957802" lon="14.037452"/>
      <trkpt lat="50.957897" lon="14.037850"/>
      <trkpt lat="50.957919" lon="14.037945"/>
      <trkpt lat="50.957938" lon="14.038028"/>
      <trkpt lat="50.957965" lon="14.038117"/>
      <trkpt lat="50.958063" lon="14.038380"/>
      <trkpt lat="50.958217" lon="14.038938"/>
      <trkpt lat="50.958373" lon="14.039381"/>
      <trkpt lat="50.958392" lon="14.039435"/>
      <trkpt lat="50.958422" lon="14.039562"/>
      <trkpt lat="50.958470" lon="14.039978"/>
      <trkpt lat="50.958487" lon="14.040076"/>
      <trkpt lat="50.958513" lon="14.040173"/>
      <trkpt lat="50.958576" lon="14.040363"/>
      <trkpt lat="50.958614" lon="14.040511"/>
      <trkpt lat="50.958654" lon="14.040530"/>
      <trkpt lat="50.958689" lon="14.040553"/>
      <trkpt lat="50.958720" lon="14.040596"/>
      <trkpt lat="50.958875" lon="14.040896"/>
      <trkpt lat="50.959109" lon="14.041391"/>
      <trkpt lat="50.959355" lon="14.041814"/>
      <trkpt lat="50.959615" lon="14.042357"/>
      <trkpt lat="50.959907" lon="14.042885"/>
      <trkpt lat="50.960328" lon="14.043243"/>
      <trkpt lat="50.960285" lon="14.043390"/>
      <trkpt lat="50.960212" lon="14.043455"/>
      <trkpt lat="50.960159" lon="14.043550"/>
      <trkpt lat="50.960270" lon="14.043633"/>
      <trkpt lat="50.960304" lon="14.043714"/>
      <trkpt lat="50.960351" lon="14.043638"/>
      <trkpt lat="50.960371" lon="14.043733"/>
      <trkpt lat="50.960405" lon="14.043918"/>
      <trkpt lat="50.960491" lon="14.044064"/>
      <trkpt lat="50.960590" lon="14.044237"/>
      <trkpt lat="50.960623" lon="14.044276"/>
      <trkpt lat="50.960654" lon="14.044572"/>
      <trkpt lat="50.960694" lon="14.044649"/>
      <trkpt lat="50.960691" lon="14.044724"/>
      <trkpt lat="50.960746" lon="14.045076"/>
      <trkpt lat="50.960785" lon="14.045324"/>
      <trkpt lat="50.960792" lon="14.045522"/>
      <trkpt lat="50.960738" lon="14.045727"/>
      <trkpt lat="50.960789" lon="14.045825"/>
      <trkpt lat="50.960915" lon="14.045865"/>
      <trkpt lat="50.961014" lon="14.045939"/>
      <trkpt lat="50.961105" lon="14.046071"/>
      <trkpt lat="50.961177" lon="14.046216"/>
      <trkpt lat="50.961281" lon="14.046411"/>
      <trkpt lat="50.961324" lon="14.046594"/>
      <trkpt lat="50.961380" lon="14.046947"/>
      <trkpt lat="50.961548" lon="14.047331"/>
      <trkpt lat="50.961624" lon="14.047593"/>
      <trkpt lat="50.961638" lon="14.047769"/>
      <trkpt lat="50.961649" lon="14.047942"/>
      <trkpt lat="50.961672" lon="14.048152"/>
      <trkpt lat="50.961764" lon="14.048336"/>
      <trkpt lat="50.961853" lon="14.048401"/>
      <trkpt lat="50.961937" lon="14.048439"/>
      <trkpt lat="50.962462" lon="14.048595"/>
      <trkpt lat="50.962630" lon="14.048722"/>
      <trkpt lat="50.962820" lon="14.048940"/>
      <trkpt lat="50.962902" lon="14.049033"/>
      <trkpt lat="50.962952" lon="14.049109"/>
      <trkpt lat="50.963122" lon="14.049366"/>
      <trkpt lat="50.963246" lon="14.049632"/>
      <trkpt lat="50.963378" lon="14.049840"/>
      <trkpt lat="50.963451" lon="14.049892"/>
      <trkpt lat="50.963529" lon="14.049893"/>
      <trkpt lat="50.963740" lon="14.049830"/>
      <trkpt lat="50.963976" lon="14.049823"/>
      <trkpt lat="50.964007" lon="14.049833"/>
      <trkpt lat="50.964020" lon="14.049868"/>
      <trkpt lat="50.964304" lon="14.050216"/>
      <trkpt lat="50.964546" lon="14.050492"/>
      <trkpt lat="50.964734" lon="14.050699"/>
      <trkpt lat="50.965132" lon="14.051020"/>
      <trkpt lat="50.965276" lon="14.051395"/>
      <trkpt lat="50.965420" lon="14.051704"/>
      <trkpt lat="50.965499" lon="14.052048"/>
      <trkpt lat="50.965487" lon="14.052511"/>
      <trkpt lat="50.965446" lon="14.052854"/>
      <trkpt lat="50.965346" lon="14.053676"/>
      <trkpt lat="50.965351" lon="14.053867"/>
      <trkpt lat="50.965383" lon="14.054011"/>
      <trkpt lat="50.965415" lon="14.054077"/>
      <trkpt lat="50.965530" lon="14.054131"/>
      <trkpt lat="50.965707" lon="14.054076"/>
      <trkpt lat="50.965840" lon="14.054125"/>
      <trkpt lat="50.966049" lon="14.054367"/>
      <trkpt lat="50.966069" lon="14.054397"/>
      <trkpt lat="50.966227" lon="14.054630"/>
      <trkpt lat="50.966286" lon="14.054717"/>
      <trkpt lat="50.966428" lon="14.055098"/>
      <trkpt lat="50.966507" lon="14.055517"/>
      <trkpt lat="50.966549" lon="14.055604"/>
      <trkpt lat="50.966764" lon="14.055831"/>
      <trkpt lat="50.966821" lon="14.055938"/>
      <trkpt lat="50.966951" lon="14.056463"/>
      <trkpt lat="50.967031" lon="14.056669"/>
      <trkpt lat="50.967166" lon="14.056979"/>
      <trkpt lat="50.967336" lon="14.057545"/>
      <trkpt lat="50.967249" lon="14.057650"/>
      <trkpt lat="50.967093" lon="14.057704"/>
      <trkpt lat="50.966934" lon="14.057947"/>
      <trkpt lat="50.966451" lon="14.058837"/>
      <trkpt lat="50.966114" lon="14.060077"/>
      <trkpt lat="50.965866" lon="14.061090"/>
      <trkpt lat="50.965823" lon="14.061179"/>
      <trkpt lat="50.965404" lon="14.062059"/>
      <trkpt lat="50.965370" lon="14.062152"/>
      <trkpt lat="50.965333" lon="14.062300"/>
      <trkpt lat="50.965292" lon="14.062549"/>
      <trkpt lat="50.965265" lon="14.062782"/>
      <trkpt lat="50.965250" lon="14.062941"/>
      <trkpt lat="50.965273" lon="14.063176"/>
      <trkpt lat="50.965262" lon="14.063777"/>
      <trkpt lat="50.965288" lon="14.064071"/>
      <trkpt lat="50.965333" lon="14.064373"/>
      <trkpt lat="50.965401" lon="14.064606"/>
      <trkpt lat="50.965431" lon="14.064815"/>
      <trkpt lat="50.965434" lon="14.064954"/>
      <trkpt lat="50.965365" lon="14.065115"/>
      <trkpt lat="50.965184" lon="14.065351"/>
      <trkpt lat="50.965058" lon="14.065492"/>
      <trkpt lat="50.964917" lon="14.065773"/>
      <trkpt lat="50.964706" lon="14.066105"/>
      <trkpt lat="50.964533" lon="14.066397"/>
      <trkpt lat="50.964518" lon="14.066443"/>
      <trkpt lat="50.964391" lon="14.066791"/>
      <trkpt lat="50.964334" lon="14.067012"/>
      <trkpt lat="50.964256" lon="14.067397"/>
      <trkpt lat="50.964220" lon="14.067601"/>
      <trkpt lat="50.964213" lon="14.067692"/>
      <trkpt lat="50.964243" lon="14.067739"/>
      <trkpt lat="50.963356" lon="14.069358"/>
      <trkpt lat="50.963214" lon="14.069617"/>
      <trkpt lat="50.963145" lon="14.069743"/>
      <trkpt lat="50.963131" lon="14.069768"/>
      <trkpt lat="50.963094" lon="14.069836"/>
      <trkpt lat="50.962911" lon="14.070131"/>
      <trkpt lat="50.962775" lon="14.070500"/>
      <trkpt lat="50.962726" lon="14.070624"/>
      <trkpt lat="50.962716" lon="14.070647"/>
      <trkpt lat="50.962684" lon="14.070729"/>
      <trkpt lat="50.962586" lon="14.071022"/>
      <trkpt lat="50.962565" lon="14.071094"/>
      <trkpt lat="50.962544" lon="14.071163"/>
      <trkpt lat="50.962533" lon="14.071202"/>
      <trkpt lat="50.962525" lon="14.071230"/>
      <trkpt lat="50.962497" lon="14.071319"/>
      <trkpt lat="50.962442" lon="14.071482"/>
      <trkpt lat="50.962394" lon="14.071629"/>
      <trkpt lat="50.962325" lon="14.071806"/>
      <trkpt lat="50.962310" lon="14.071835"/>
      <trkpt lat="50.962250" lon="14.071904"/>
      <trkpt lat="50.962162" lon="14.072153"/>
      <trkpt lat="50.962116" lon="14.072210"/>
      <trkpt lat="50.962018" lon="14.072318"/>
      <trkpt lat="50.961978" lon="14.072351"/>
      <trkpt lat="50.961941" lon="14.072411"/>
      <trkpt lat="50.961920" lon="14.072452"/>
      <trkpt lat="50.961890" lon="14.072490"/>
      <trkpt lat="50.961736" lon="14.073020"/>
      <trkpt lat="50.961597" lon="14.073516"/>
      <trkpt lat="50.961592" lon="14.073534"/>
      <trkpt lat="50.961561" lon="14.073614"/>
      <trkpt lat="50.961550" lon="14.073643"/>
      <trkpt lat="50.961547" lon="14.073660"/>
      <trkpt lat="50.961546" lon="14.073681"/>
      <trkpt lat="50.961549" lon="14.073707"/>
      <trkpt lat="50.961554" lon="14.073738"/>
      <trkpt lat="50.961565" lon="14.073778"/>
      <trkpt lat="50.961575" lon="14.073813"/>
      <trkpt lat="50.961589" lon="14.073863"/>
      <trkpt lat="50.961609" lon="14.073932"/>
      <trkpt lat="50.961616" lon="14.073956"/>
      <trkpt lat="50.961640" lon="14.074038"/>
      <trkpt lat="50.961650" lon="14.074074"/>
      <trkpt lat="50.961668" lon="14.074135"/>
      <trkpt lat="50.961672" lon="14.074155"/>
      <trkpt lat="50.961675" lon="14.074178"/>
      <trkpt lat="50.961677" lon="14.074210"/>
      <trkpt lat="50.961677" lon="14.074232"/>
      <trkpt lat="50.961675" lon="14.074257"/>
      <trkpt lat="50.961673" lon="14.074278"/>
      <trkpt lat="50.961668" lon="14.074302"/>
      <trkpt lat="50.961663" lon="14.074328"/>
      <trkpt lat="50.961653" lon="14.074367"/>
      <trkpt lat="50.961634" lon="14.074434"/>
      <trkpt lat="50.961625" lon="14.074468"/>
      <trkpt lat="50.961619" lon="14.074488"/>
      <trkpt lat="50.961615" lon="14.074500"/>
      <trkpt lat="50.961612" lon="14.074504"/>
      <trkpt lat="50.961608" lon="14.074507"/>
      <trkpt lat="50.961600" lon="14.074509"/>
      <trkpt lat="50.961582" lon="14.074510"/>
      <trkpt lat="50.961560" lon="14.074517"/>
      <trkpt lat="50.961512" lon="14.074526"/>
      <trkpt lat="50.961498" lon="14.074533"/>
      <trkpt lat="50.961478" lon="14.074553"/>
      <trkpt lat="50.961458" lon="14.074582"/>
      <trkpt lat="50.961438" lon="14.074621"/>
      <trkpt lat="50.961416" lon="14.074672"/>
      <trkpt lat="50.961398" lon="14.074705"/>
      <trkpt lat="50.961374" lon="14.074739"/>
      <trkpt lat="50.961354" lon="14.074782"/>
      <trkpt lat="50.961344" lon="14.074827"/>
      <trkpt lat="50.961339" lon="14.074868"/>
      <trkpt lat="50.961338" lon="14.074892"/>
      <trkpt lat="50.961342" lon="14.074912"/>
      <trkpt lat="50.961359" lon="14.074982"/>
      <trkpt lat="50.961366" lon="14.075003"/>
      <trkpt lat="50.961374" lon="14.075022"/>
      <trkpt lat="50.961394" lon="14.075060"/>
      <trkpt lat="50.961413" lon="14.075088"/>
      <trkpt lat="50.961431" lon="14.075120"/>
      <trkpt lat="50.961438" lon="14.075137"/>
      <trkpt lat="50.961448" lon="14.075166"/>
      <trkpt lat="50.961454" lon="14.075194"/>
      <trkpt lat="50.961456" lon="14.075226"/>
      <trkpt lat="50.961455" lon="14.075250"/>
      <trkpt lat="50.961453" lon="14.075261"/>
      <trkpt lat="50.961448" lon="14.075273"/>
      <trkpt lat="50.961442" lon="14.075280"/>
      <trkpt lat="50.961435" lon="14.075280"/>
      <trkpt lat="50.961426" lon="14.075273"/>
      <trkpt lat="50.961396" lon="14.075232"/>
      <trkpt lat="50.961337" lon="14.075135"/>
      <trkpt lat="50.961321" lon="14.075113"/>
      <trkpt lat="50.961315" lon="14.075109"/>
      <trkpt lat="50.961306" lon="14.075110"/>
      <trkpt lat="50.961301" lon="14.075116"/>
      <trkpt lat="50.961296" lon="14.075126"/>
      <trkpt lat="50.961295" lon="14.075139"/>
      <trkpt lat="50.961296" lon="14.075155"/>
      <trkpt lat="50.961301" lon="14.075168"/>
      <trkpt lat="50.961349" lon="14.075246"/>
      <trkpt lat="50.961353" lon="14.075256"/>
      <trkpt lat="50.961354" lon="14.075265"/>
      <trkpt lat="50.961354" lon="14.075277"/>
      <trkpt lat="50.961352" lon="14.075286"/>
      <trkpt lat="50.961348" lon="14.075297"/>
      <trkpt lat="50.961342" lon="14.075303"/>
      <trkpt lat="50.961334" lon="14.075304"/>
      <trkpt lat="50.961327" lon="14.075298"/>
      <trkpt lat="50.961320" lon="14.075290"/>
      <trkpt lat="50.961299" lon="14.075252"/>
      <trkpt lat="50.961260" lon="14.075183"/>
      <trkpt lat="50.961251" lon="14.075170"/>
      <trkpt lat="50.961241" lon="14.075166"/>
      <trkpt lat="50.961233" lon="14.075166"/>
      <trkpt lat="50.961225" lon="14.075168"/>
      <trkpt lat="50.961218" lon="14.075177"/>
      <trkpt lat="50.961209" lon="14.075193"/>
      <trkpt lat="50.961196" lon="14.075233"/>
      <trkpt lat="50.961186" lon="14.075265"/>
      <trkpt lat="50.961140" lon="14.075370"/>
      <trkpt lat="50.961121" lon="14.075425"/>
      <trkpt lat="50.961118" lon="14.075440"/>
      <trkpt lat="50.961117" lon="14.075460"/>
      <trkpt lat="50.961120" lon="14.075483"/>
      <trkpt lat="50.961132" lon="14.075534"/>
      <trkpt lat="50.961137" lon="14.075552"/>
      <trkpt lat="50.961138" lon="14.075561"/>
      <trkpt lat="50.961135" lon="14.075582"/>
      <trkpt lat="50.961132" lon="14.075605"/>
      <trkpt lat="50.961106" lon="14.075830"/>
      <trkpt lat="50.961064" lon="14.076035"/>
      <trkpt lat="50.960974" lon="14.076479"/>
      <trkpt lat="50.960944" lon="14.076761"/>
      <trkpt lat="50.960929" lon="14.076913"/>
      <trkpt lat="50.960871" lon="14.077191"/>
      <trkpt lat="50.960844" lon="14.077421"/>
      <trkpt lat="50.960822" lon="14.077473"/>
      <trkpt lat="50.960766" lon="14.077525"/>
      <trkpt lat="50.960716" lon="14.077625"/>
      <trkpt lat="50.960712" lon="14.077713"/>
      <trkpt lat="50.960752" lon="14.077907"/>
      <trkpt lat="50.960783" lon="14.077959"/>
      <trkpt lat="50.960817" lon="14.077989"/>
      <trkpt lat="50.960850" lon="14.077988"/>
      <trkpt lat="50.961071" lon="14.077894"/>
      <trkpt lat="50.961149" lon="14.077910"/>
      <trkpt lat="50.961258" lon="14.078019"/>
      <trkpt lat="50.961347" lon="14.078157"/>
      <trkpt lat="50.961353" lon="14.078188"/>
      <trkpt lat="50.961338" lon="14.078210"/>
      <trkpt lat="50.961088" lon="14.078392"/>
      <trkpt lat="50.960999" lon="14.078584"/>
      <trkpt lat="50.960902" lon="14.078888"/>
      <trkpt lat="50.960879" lon="14.079130"/>
      <trkpt lat="50.960886" lon="14.079197"/>
      <trkpt lat="50.960905" lon="14.079261"/>
      <trkpt lat="50.960924" lon="14.079282"/>
      <trkpt lat="50.960948" lon="14.079294"/>
      <trkpt lat="50.961195" lon="14.079314"/>
      <trkpt lat="50.961332" lon="14.079344"/>
      <trkpt lat="50.961447" lon="14.079392"/>
      <trkpt lat="50.961603" lon="14.079565"/>
      <trkpt lat="50.961773" lon="14.079735"/>
      <trkpt lat="50.961810" lon="14.079793"/>
      <trkpt lat="50.961818" lon="14.079783"/>
      <trkpt lat="50.961822" lon="14.079762"/>
      <trkpt lat="50.961813" lon="14.079618"/>
      <trkpt lat="50.961817" lon="14.079594"/>
      <trkpt lat="50.961826" lon="14.079586"/>
      <trkpt lat="50.961854" lon="14.079607"/>
      <trkpt lat="50.961879" lon="14.079673"/>
      <trkpt lat="50.961968" lon="14.080060"/>
      <trkpt lat="50.961975" lon="14.080138"/>
      <trkpt lat="50.961984" lon="14.080171"/>
      <trkpt lat="50.962001" lon="14.080167"/>
      <trkpt lat="50.962017" lon="14.080125"/>
      <trkpt lat="50.962057" lon="14.079989"/>
      <trkpt lat="50.962102" lon="14.079956"/>
      <trkpt lat="50.962144" lon="14.079985"/>
      <trkpt lat="50.962156" lon="14.080042"/>
      <trkpt lat="50.962178" lon="14.080151"/>
      <trkpt lat="50.962190" lon="14.080194"/>
      <trkpt lat="50.962212" lon="14.080203"/>
      <trkpt lat="50.962258" lon="14.080132"/>
      <trkpt lat="50.962280" lon="14.080157"/>
      <trkpt lat="50.962287" lon="14.080263"/>
      <trkpt lat="50.962452" lon="14.080127"/>
      <trkpt lat="50.962583" lon="14.080022"/>
      <trkpt lat="50.963102" lon="14.079650"/>
      <trkpt lat="50.963712" lon="14.079318"/>
      <trkpt lat="50.963774" lon="14.079293"/>
      <trkpt lat="50.963912" lon="14.079264"/>
      <trkpt lat="50.963968" lon="14.079283"/>
      <trkpt lat="50.964031" lon="14.079317"/>
      <trkpt lat="50.964048" lon="14.079332"/>
      <trkpt lat="50.964101" lon="14.079387"/>
      <trkpt lat="50.964129" lon="14.079418"/>
      <trkpt lat="50.964149" lon="14.079440"/>
      <trkpt lat="50.964222" lon="14.079575"/>
      <trkpt lat="50.964337" lon="14.079775"/>
      <trkpt lat="50.964736" lon="14.080595"/>
      <trkpt lat="50.964954" lon="14.081175"/>
      <trkpt lat="50.965017" lon="14.081326"/>
      <trkpt lat="50.965058" lon="14.081377"/>
      <trkpt lat="50.965097" lon="14.081421"/>
      <trkpt lat="50.965155" lon="14.081448"/>
      <trkpt lat="50.965213" lon="14.081475"/>
      <trkpt lat="50.965284" lon="14.081473"/>
      <trkpt lat="50.965357" lon="14.081471"/>
      <trkpt lat="50.965472" lon="14.081413"/>
      <trkpt lat="50.965687" lon="14.081266"/>
      <trkpt lat="50.965947" lon="14.081095"/>
      <trkpt lat="50.966350" lon="14.080826"/>
      <trkpt lat="50.966979" lon="14.080566"/>
      <trkpt lat="50.967161" lon="14.080441"/>
      <trkpt lat="50.967240" lon="14.080364"/>
      <trkpt lat="50.967331" lon="14.080322"/>
      <trkpt lat="50.967448" lon="14.080272"/>
      <trkpt lat="50.967579" lon="14.080246"/>
      <trkpt lat="50.967709" lon="14.080216"/>
      <trkpt lat="50.967938" lon="14.080169"/>
      <trkpt lat="50.968224" lon="14.080045"/>
      <trkpt lat="50.968434" lon="14.079897"/>
      <trkpt lat="50.968652" lon="14.079688"/>
      <trkpt lat="50.968840" lon="14.079453"/>
      <trkpt lat="50.969159" lon="14.079276"/>
      <trkpt lat="50.969274" lon="14.079135"/>
      <trkpt lat="50.969371" lon="14.079036"/>
      <trkpt lat="50.969449" lon="14.079024"/>
      <trkpt lat="50.969580" lon="14.078648"/>
      <trkpt lat="50.969687" lon="14.078414"/>
      <trkpt lat="50.969779" lon="14.078141"/>
      <trkpt lat="50.969845" lon="14.077829"/>
      <trkpt lat="50.969962" lon="14.077421"/>
      <trkpt lat="50.970065" lon="14.077091"/>
      <trkpt lat="50.970231" lon="14.076709"/>
      <trkpt lat="50.970247" lon="14.076696"/>
      <trkpt lat="50.970265" lon="14.076677"/>
      <trkpt lat="50.970277" lon="14.076659"/>
      <trkpt lat="50.970291" lon="14.076633"/>
      <trkpt lat="50.970366" lon="14.076491"/>
      <trkpt lat="50.970545" lon="14.076151"/>
      <trkpt lat="50.970601" lon="14.076051"/>
      <trkpt lat="50.970627" lon="14.076007"/>
      <trkpt lat="50.970694" lon="14.075908"/>
      <trkpt lat="50.970734" lon="14.075853"/>
      <trkpt lat="50.970768" lon="14.075809"/>
      <trkpt lat="50.970776" lon="14.075791"/>
      <trkpt lat="50.970792" lon="14.075746"/>
      <trkpt lat="50.970811" lon="14.075684"/>
      <trkpt lat="50.970832" lon="14.075617"/>
      <trkpt lat="50.970857" lon="14.075555"/>
      <trkpt lat="50.971061" lon="14.075071"/>
      <trkpt lat="50.971142" lon="14.074887"/>
      <trkpt lat="50.971161" lon="14.074851"/>
      <trkpt lat="50.971188" lon="14.074808"/>
      <trkpt lat="50.971281" lon="14.074685"/>
      <trkpt lat="50.971300" lon="14.074663"/>
      <trkpt lat="50.971440" lon="14.074522"/>
      <trkpt lat="50.971678" lon="14.074303"/>
      <trkpt lat="50.971692" lon="14.074291"/>
      <trkpt lat="50.971708" lon="14.074282"/>
      <trkpt lat="50.971862" lon="14.074209"/>
      <trkpt lat="50.971897" lon="14.074190"/>
      <trkpt lat="50.971922" lon="14.074174"/>
      <trkpt lat="50.971950" lon="14.074152"/>
      <trkpt lat="50.971992" lon="14.074114"/>
      <trkpt lat="50.971969" lon="14.074040"/>
      <trkpt lat="50.972041" lon="14.073980"/>
      <trkpt lat="50.972023" lon="14.073932"/>
      <trkpt lat="50.971988" lon="14.073829"/>
      <trkpt lat="50.971981" lon="14.073804"/>
      <trkpt lat="50.972166" lon="14.073741"/>
      <trkpt lat="50.972267" lon="14.073719"/>
      <trkpt lat="50.972293" lon="14.073711"/>
      <trkpt lat="50.972304" lon="14.073704"/>
      <trkpt lat="50.972314" lon="14.073694"/>
      <trkpt lat="50.972389" lon="14.073597"/>
      <trkpt lat="50.972411" lon="14.073575"/>
      <trkpt lat="50.972425" lon="14.073564"/>
      <trkpt lat="50.972586" lon="14.073475"/>
      <trkpt lat="50.972704" lon="14.073436"/>
      <trkpt lat="50.972731" lon="14.073431"/>
      <trkpt lat="50.972748" lon="14.073431"/>
      <trkpt lat="50.972785" lon="14.073443"/>
      <trkpt lat="50.972895" lon="14.073481"/>
      <trkpt lat="50.973019" lon="14.073525"/>
      <trkpt lat="50.973033" lon="14.073510"/>
      <trkpt lat="50.973071" lon="14.073512"/>
      <trkpt lat="50.973238" lon="14.073416"/>
      <trkpt lat="50.973338" lon="14.073362"/>
      <trkpt lat="50.973376" lon="14.073344"/>
      <trkpt lat="50.973407" lon="14.073336"/>
      <trkpt lat="50.973616" lon="14.073302"/>
      <trkpt lat="50.973636" lon="14.073296"/>
      <trkpt lat="50.973670" lon="14.073279"/>
      <trkpt lat="50.973774" lon="14.073220"/>
      <trkpt lat="50.973816" lon="14.073203"/>
      <trkpt lat="50.973878" lon="14.073190"/>
      <trkpt lat="50.973985" lon="14.073175"/>
      <trkpt lat="50.974068" lon="14.073175"/>
      <trkpt lat="50.974097" lon="14.073182"/>
      <trkpt lat="50.974138" lon="14.073197"/>
      <trkpt lat="50.974174" lon="14.073226"/>
      <trkpt lat="50.974308" lon="14.073374"/>
      <trkpt lat="50.974417" lon="14.073517"/>
      <trkpt lat="50.974540" lon="14.073655"/>
      <trkpt lat="50.974571" lon="14.073679"/>
      <trkpt lat="50.974632" lon="14.073712"/>
      <trkpt lat="50.974696" lon="14.073741"/>
      <trkpt lat="50.974757" lon="14.073771"/>
      <trkpt lat="50.974820" lon="14.073798"/>
      <trkpt lat="50.974873" lon="14.073812"/>
      <trkpt lat="50.974924" lon="14.073824"/>
      <trkpt lat="50.974986" lon="14.073829"/>
      <trkpt lat="50.975064" lon="14.073832"/>
      <trkpt lat="50.975143" lon="14.073825"/>
      <trkpt lat="50.975229" lon="14.073808"/>
      <trkpt lat="50.975277" lon="14.073787"/>
      <trkpt lat="50.975354" lon="14.073743"/>
      <trkpt lat="50.975417" lon="14.073701"/>
      <trkpt lat="50.975519" lon="14.073619"/>
      <trkpt lat="50.975552" lon="14.073586"/>
      <trkpt lat="50.975568" lon="14.073561"/>
      <trkpt lat="50.975861" lon="14.073010"/>
      <trkpt lat="50.975900" lon="14.072923"/>
      <trkpt lat="50.975913" lon="14.072899"/>
      <trkpt lat="50.975927" lon="14.072881"/>
      <trkpt lat="50.975993" lon="14.072825"/>
      <trkpt lat="50.976011" lon="14.072808"/>
      <trkpt lat="50.976026" lon="14.072789"/>
      <trkpt lat="50.976042" lon="14.072759"/>
      <trkpt lat="50.976078" lon="14.072677"/>
      <trkpt lat="50.976328" lon="14.072513"/>
      <trkpt lat="50.976357" lon="14.072491"/>
      <trkpt lat="50.976369" lon="14.072478"/>
      <trkpt lat="50.976380" lon="14.072461"/>
      <trkpt lat="50.976388" lon="14.072448"/>
      <trkpt lat="50.976396" lon="14.072433"/>
      <trkpt lat="50.976465" lon="14.072323"/>
      <trkpt lat="50.976488" lon="14.072291"/>
      <trkpt lat="50.976565" lon="14.072229"/>
      <trkpt lat="50.976585" lon="14.072213"/>
      <trkpt lat="50.976608" lon="14.072191"/>
      <trkpt lat="50.976633" lon="14.072163"/>
      <trkpt lat="50.976878" lon="14.071820"/>
      <trkpt lat="50.977001" lon="14.071649"/>
      <trkpt lat="50.977121" lon="14.071492"/>
      <trkpt lat="50.977305" lon="14.071236"/>
      <trkpt lat="50.977519" lon="14.070911"/>
      <trkpt lat="50.977544" lon="14.070882"/>
      <trkpt lat="50.977576" lon="14.070855"/>
      <trkpt lat="50.977614" lon="14.070836"/>
      <trkpt lat="50.977655" lon="14.070821"/>
      <trkpt lat="50.977777" lon="14.070797"/>
      <trkpt lat="50.977964" lon="14.070773"/>
      <trkpt lat="50.978009" lon="14.070773"/>
      <trkpt lat="50.978049" lon="14.070776"/>
      <trkpt lat="50.978151" lon="14.070793"/>
      <trkpt lat="50.978188" lon="14.070802"/>
      <trkpt lat="50.978220" lon="14.070815"/>
      <trkpt lat="50.978252" lon="14.070829"/>
      <trkpt lat="50.978284" lon="14.070844"/>
      <trkpt lat="50.978633" lon="14.071037"/>
      <trkpt lat="50.978803" lon="14.071185"/>
      <trkpt lat="50.979122" lon="14.071516"/>
      <trkpt lat="50.979191" lon="14.071601"/>
      <trkpt lat="50.979244" lon="14.071681"/>
      <trkpt lat="50.979284" lon="14.071761"/>
      <trkpt lat="50.979312" lon="14.071852"/>
      <trkpt lat="50.979386" lon="14.071922"/>
      <trkpt lat="50.979539" lon="14.071991"/>
      <trkpt lat="50.979646" lon="14.072035"/>
      <trkpt lat="50.979672" lon="14.072039"/>
      <trkpt lat="50.979712" lon="14.072035"/>
      <trkpt lat="50.979749" lon="14.072037"/>
      <trkpt lat="50.979785" lon="14.072048"/>
      <trkpt lat="50.979834" lon="14.072079"/>
      <trkpt lat="50.979931" lon="14.072157"/>
      <trkpt lat="50.980020" lon="14.072207"/>
      <trkpt lat="50.980131" lon="14.072261"/>
      <trkpt lat="50.980412" lon="14.072490"/>
      <trkpt lat="50.980621" lon="14.072641"/>
      <trkpt lat="50.980880" lon="14.072800"/>
      <trkpt lat="50.980983" lon="14.072888"/>
      <trkpt lat="50.981018" lon="14.072973"/>
      <trkpt lat="50.981234" lon="14.073410"/>
      <trkpt lat="50.981313" lon="14.073566"/>
      <trkpt lat="50.981363" lon="14.073648"/>
      <trkpt lat="50.981696" lon="14.073972"/>
      <trkpt lat="50.981810" lon="14.074083"/>
      <trkpt lat="50.982091" lon="14.074356"/>
      <trkpt lat="50.982212" lon="14.074493"/>
      <trkpt lat="50.982264" lon="14.074519"/>
      <trkpt lat="50.982400" lon="14.074701"/>
      <trkpt lat="50.982488" lon="14.074827"/>
      <trkpt lat="50.982434" lon="14.074886"/>
      <trkpt lat="50.982144" lon="14.075225"/>
      <trkpt lat="50.982101" lon="14.075275"/>
      <trkpt lat="50.981877" lon="14.075624"/>
      <trkpt lat="50.981797" lon="14.075747"/>
      <trkpt lat="50.981582" lon="14.076058"/>
      <trkpt lat="50.981420" lon="14.076221"/>
      <trkpt lat="50.981440" lon="14.076318"/>
      <trkpt lat="50.981525" lon="14.076463"/>
      <trkpt lat="50.981675" lon="14.076692"/>
      <trkpt lat="50.981882" lon="14.076987"/>
      <trkpt lat="50.981971" lon="14.077082"/>
      <trkpt lat="50.982060" lon="14.077156"/>
      <trkpt lat="50.982133" lon="14.077199"/>
      <trkpt lat="50.982239" lon="14.077247"/>
      <trkpt lat="50.982315" lon="14.077298"/>
      <trkpt lat="50.982376" lon="14.077362"/>
      <trkpt lat="50.982425" lon="14.077407"/>
      <trkpt lat="50.982506" lon="14.077486"/>
      <trkpt lat="50.982603" lon="14.077538"/>
      <trkpt lat="50.982736" lon="14.077604"/>
      <trkpt lat="50.982983" lon="14.077737"/>
      <trkpt lat="50.983178" lon="14.077836"/>
      <trkpt lat="50.983320" lon="14.077919"/>
      <trkpt lat="50.983503" lon="14.078083"/>
      <trkpt lat="50.983585" lon="14.078188"/>
      <trkpt lat="50.983658" lon="14.078315"/>
      <trkpt lat="50.983710" lon="14.078435"/>
      <trkpt lat="50.983778" lon="14.078665"/>
      <trkpt lat="50.983899" lon="14.079272"/>
      <trkpt lat="50.983958" lon="14.079489"/>
      <trkpt lat="50.984032" lon="14.079704"/>
      <trkpt lat="50.984140" lon="14.080018"/>
      <trkpt lat="50.984221" lon="14.080199"/>
      <trkpt lat="50.984260" lon="14.080262"/>
      <trkpt lat="50.984316" lon="14.080354"/>
      <trkpt lat="50.984471" lon="14.080510"/>
      <trkpt lat="50.984683" lon="14.080675"/>
      <trkpt lat="50.984827" lon="14.080771"/>
      <trkpt lat="50.985009" lon="14.080890"/>
      <trkpt lat="50.985417" lon="14.081114"/>
      <trkpt lat="50.985607" lon="14.081211"/>
      <trkpt lat="50.985529" lon="14.081574"/>
      <trkpt lat="50.985494" lon="14.081789"/>
      <trkpt lat="50.985492" lon="14.082052"/>
      <trkpt lat="50.985520" lon="14.082309"/>
      <trkpt lat="50.985533" lon="14.082508"/>
      <trkpt lat="50.985535" lon="14.082703"/>
      <trkpt lat="50.985516" lon="14.082835"/>
      <trkpt lat="50.985481" lon="14.082994"/>
      <trkpt lat="50.985385" lon="14.083336"/>
      <trkpt lat="50.985308" lon="14.083681"/>
      <trkpt lat="50.985285" lon="14.083880"/>
      <trkpt lat="50.984738" lon="14.088759"/>
    </trkseg>
  </trk>
</gpx>
