<?xml version="1.0" encoding="UTF-8"?>
<gpx version="1.1" creator="hike-recap example data"
     xmlns="http://www.topografix.com/GPX/1/1">
  <metadata>
    <name>Stage 1</name>
    <desc>Derived from OpenStreetMap relation 114289, ODbL. Example data.</desc>
  </metadata>
  <trk>
    <name>Stage 1</name>
    <trkseg>
      <trkpt lat="50.996497" lon="13.958292"/>
      <trkpt lat="50.996551" lon="13.958333"/>
      <trkpt lat="50.996586" lon="13.958393"/>
      <trkpt lat="50.996665" lon="13.958648"/>
      <trkpt lat="50.996677" lon="13.959034"/>
      <trkpt lat="50.996655" lon="13.959298"/>
      <trkpt lat="50.996557" lon="13.959993"/>
      <trkpt lat="50.996494" lon="13.960438"/>
      <trkpt lat="50.996460" lon="13.960709"/>
      <trkpt lat="50.996440" lon="13.960949"/>
      <trkpt lat="50.996433" lon="13.961102"/>
      <trkpt lat="50.996483" lon="13.961627"/>
      <trkpt lat="50.996615" lon="13.962129"/>
      <trkpt lat="50.996698" lon="13.962446"/>
      <trkpt lat="50.996783" lon="13.962833"/>
      <trkpt lat="50.996855" lon="13.963245"/>
      <trkpt lat="50.996891" lon="13.963605"/>
      <trkpt lat="50.996845" lon="13.963982"/>
      <trkpt lat="50.996764" lon="13.964318"/>
      <trkpt lat="50.996633" lon="13.964776"/>
      <trkpt lat="50.996585" lon="13.965072"/>
      <trkpt lat="50.996573" lon="13.965316"/>
      <trkpt lat="50.996597" lon="13.965553"/>
      <trkpt lat="50.996643" lon="13.966082"/>
      <trkpt lat="50.996651" lon="13.966185"/>
      <trkpt lat="50.996683" lon="13.967127"/>
      <trkpt lat="50.996635" lon="13.967574"/>
      <trkpt lat="50.996551" lon="13.968024"/>
      <trkpt lat="50.996456" lon="13.968434"/>
      <trkpt lat="50.996339" lon="13.969174"/>
      <trkpt lat="50.996297" lon="13.969577"/>
      <trkpt lat="50.996190" lon="13.969957"/>
      <trkpt lat="50.996083" lon="13.970451"/>
      <trkpt lat="50.995820" lon="13.971169"/>
      <trkpt lat="50.995479" lon="13.971879"/>
      <trkpt lat="50.995377" lon="13.972121"/>
      <trkpt lat="50.995346" lon="13.972247"/>
      <trkpt lat="50.995333" lon="13.972382"/>
      <trkpt lat="50.995331" lon="13.972395"/>
      <trkpt lat="50.995287" lon="13.972526"/>
      <trkpt lat="50.995202" lon="13.972871"/>
      <trkpt lat="50.995178" lon="13.972922"/>
      <trkpt lat="50.995108" lon="13.973263"/>
      <trkpt lat="50.995050" lon="13.973525"/>
      <trkpt lat="50.995016" lon="13.973802"/>
      <trkpt lat="50.995044" lon="13.974336"/>
      <trkpt lat="50.995087" lon="13.974887"/>
      <trkpt lat="50.995121" lon="13.975793"/>
      <trkpt lat="50.995146" lon="13.976005"/>
      <trkpt lat="50.995168" lon="13.976245"/>
      <trkpt lat="50.995145" lon="13.976695"/>
      <trkpt lat="50.995118" lon="13.976980"/>
      <trkpt lat="50.995116" lon="13.976994"/>
      <trkpt lat="50.995085" lon="13.977128"/>
      <trkpt lat="50.995084" lon="13.977143"/>
      <trkpt lat="50.995060" lon="13.977221"/>
      <trkpt lat="50.995045" lon="13.977460"/>
      <trkpt lat="50.995025" lon="13.977510"/>
      <trkpt lat="50.994988" lon="13.977559"/>
      <trkpt lat="50.994886" lon="13.977635"/>
      <trkpt lat="50.994748" lon="13.977604"/>
      <trkpt lat="50.994732" lon="13.977659"/>
      <trkpt lat="50.994720" lon="13.977718"/>
      <trkpt lat="50.994673" lon="13.977883"/>
      <trkpt lat="50.994603" lon="13.978081"/>
      <trkpt lat="50.994329" lon="13.978613"/>
      <trkpt lat="50.994227" lon="13.978761"/>
      <trkpt lat="50.994150" lon="13.978972"/>
      <trkpt lat="50.994104" lon="13.979130"/>
      <trkpt lat="50.994035" lon="13.979566"/>
      <trkpt lat="50.993967" lon="13.979708"/>
      <trkpt lat="50.993939" lon="13.979805"/>
      <trkpt lat="50.993908" lon="13.980198"/>
      <trkpt lat="50.993996" lon="13.980286"/>
      <trkpt lat="50.994010" lon="13.980299"/>
      <trkpt lat="50.994199" lon="13.980380"/>
      <trkpt lat="50.994211" lon="13.980397"/>
      <trkpt lat="50.994237" lon="13.980519"/>
      <trkpt lat="50.994208" lon="13.980914"/>
      <trkpt lat="50.994258" lon="13.981336"/>
      <trkpt lat="50.994368" lon="13.981469"/>
      <trkpt lat="50.994536" lon="13.981537"/>
      <trkpt lat="50.994539" lon="13.981748"/>
      <trkpt lat="50.994540" lon="13.981830"/>
      <trkpt lat="50.994535" lon="13.982013"/>
      <trkpt lat="50.994534" lon="13.982048"/>
      <trkpt lat="50.994527" lon="13.982300"/>
      <trkpt lat="50.994524" lon="13.982361"/>
      <trkpt lat="50.994515" lon="13.982548"/>
      <trkpt lat="50.994504" lon="13.982754"/>
      <trkpt lat="50.994503" lon="13.982775"/>
      <trkpt lat="50.994499" lon="13.983169"/>
      <trkpt lat="50.994498" lon="13.983199"/>
      <trkpt lat="50.994498" lon="13.983277"/>
      <trkpt lat="50.994515" lon="13.983444"/>
      <trkpt lat="50.994550" lon="13.983615"/>
      <trkpt lat="50.994643" lon="13.984106"/>
      <trkpt lat="50.994675" lon="13.984292"/>
      <trkpt lat="50.994679" lon="13.984320"/>
      <trkpt lat="50.994739" lon="13.984670"/>
      <trkpt lat="50.994762" lon="13.984806"/>
      <trkpt lat="50.994816" lon="13.985124"/>
      <trkpt lat="50.994846" lon="13.985243"/>
      <trkpt lat="50.994883" lon="13.985358"/>
      <trkpt lat="50.994898" lon="13.985390"/>
      <trkpt lat="50.994983" lon="13.985573"/>
      <trkpt lat="50.995019" lon="13.985649"/>
      <trkpt lat="50.995116" lon="13.985858"/>
      <trkpt lat="50.995130" lon="13.985889"/>
      <trkpt lat="50.995159" lon="13.985968"/>
      <trkpt lat="50.995178" lon="13.986040"/>
      <trkpt lat="50.995181" lon="13.986062"/>
      <trkpt lat="50.995190" lon="13.986121"/>
      <trkpt lat="50.995190" lon="13.986187"/>
      <trkpt lat="50.995171" lon="13.986481"/>
      <trkpt lat="50.995169" lon="13.986515"/>
      <trkpt lat="50.995167" lon="13.986774"/>
      <trkpt lat="50.995165" lon="13.986957"/>
      <trkpt lat="50.995159" lon="13.987092"/>
      <trkpt lat="50.995151" lon="13.987258"/>
      <trkpt lat="50.995110" lon="13.987515"/>
      <trkpt lat="50.995051" lon="13.987687"/>
      <trkpt lat="50.995011" lon="13.987811"/>
      <trkpt lat="50.994974" lon="13.987965"/>
      <trkpt lat="50.994956" lon="13.988054"/>
      <trkpt lat="50.994955" lon="13.988132"/>
      <trkpt lat="50.994951" lon="13.988506"/>
      <trkpt lat="50.994936" lon="13.988611"/>
      <trkpt lat="50.994904" lon="13.988743"/>
      <trkpt lat="50.994802" lon="13.989017"/>
      <trkpt lat="50.994767" lon="13.989100"/>
      <trkpt lat="50.994759" lon="13.989119"/>
      <trkpt lat="50.994675" lon="13.989257"/>
      <trkpt lat="50.994650" lon="13.989298"/>
      <trkpt lat="50.994650" lon="13.989354"/>
      <trkpt lat="50.994648" lon="13.989915"/>
      <trkpt lat="50.994648" lon="13.990004"/>
      <trkpt lat="50.994699" lon="13.990418"/>
      <trkpt lat="50.994736" lon="13.990856"/>
      <trkpt lat="50.994729" lon="13.991626"/>
      <trkpt lat="50.994709" lon="13.992010"/>
      <trkpt lat="50.994602" lon="13.992840"/>
      <trkpt lat="50.994518" lon="13.993772"/>
      <trkpt lat="50.994501" lon="13.993950"/>
      <trkpt lat="50.994672" lon="13.993970"/>
      <trkpt lat="50.995751" lon="13.993944"/>
      <trkpt lat="50.996293" lon="13.993834"/>
      <trkpt lat="50.997079" lon="13.993836"/>
      <trkpt lat="50.997380" lon="13.993806"/>
      <trkpt lat="50.997776" lon="13.993824"/>
      <trkpt lat="50.997946" lon="13.993798"/>
      <trkpt lat="50.999483" lon="13.993494"/>
      <trkpt lat="50.999598" lon="13.993455"/>
      <trkpt lat="50.999591" lon="13.993668"/>
      <trkpt lat="50.999557" lon="13.993980"/>
      <trkpt lat="50.999503" lon="13.994365"/>
      <trkpt lat="50.999441" lon="13.994715"/>
      <trkpt lat="50.999368" lon="13.995339"/>
      <trkpt lat="50.999357" lon="13.995446"/>
      <trkpt lat="50.999265" lon="13.996345"/>
      <trkpt lat="50.999248" lon="13.996707"/>
      <trkpt lat="50.999241" lon="13.997407"/>
      <trkpt lat="50.999242" lon="13.998186"/>
      <trkpt lat="50.999282" lon="13.998776"/>
      <trkpt lat="50.999659" lon="13.998754"/>
      <trkpt lat="50.999997" lon="14.000063"/>
      <trkpt lat="51.000167" lon="14.001086"/>
      <trkpt lat="51.000145" lon="14.001662"/>
      <trkpt lat="50.999980" lon="14.002059"/>
      <trkpt lat="50.999980" lon="14.002888"/>
      <trkpt lat="51.000016" lon="14.003346"/>
      <trkpt lat="50.999821" lon="14.004317"/>
      <trkpt lat="50.999676" lon="14.005000"/>
      <trkpt lat="50.999682" lon="14.005358"/>
      <trkpt lat="50.999687" lon="14.005658"/>
      <trkpt lat="50.999527" lon="14.005850"/>
      <trkpt lat="50.999514" lon="14.005991"/>
      <trkpt lat="50.999606" lon="14.005954"/>
      <trkpt lat="50.999615" lon="14.006129"/>
      <trkpt lat="50.999397" lon="14.006323"/>
      <trkpt lat="50.999375" lon="14.006558"/>
      <trkpt lat="50.999313" lon="14.006740"/>
      <trkpt lat="50.999189" lon="14.006805"/>
      <trkpt lat="50.998854" lon="14.006863"/>
      <trkpt lat="50.998614" lon="14.006729"/>
      <trkpt lat="50.998473" lon="14.006756"/>
      <trkpt lat="50.998368" lon="14.006902"/>
      <trkpt lat="50.998240" lon="14.006952"/>
      <trkpt lat="50.998195" lon="14.007538"/>
      <trkpt lat="50.998219" lon="14.007685"/>
      <trkpt lat="50.998231" lon="14.007983"/>
      <trkpt lat="50.998467" lon="14.008415"/>
      <trkpt lat="50.998504" lon="14.008527"/>
      <trkpt lat="50.998502" lon="14.008658"/>
      <trkpt lat="50.998479" lon="14.008749"/>
      <trkpt lat="50.998420" lon="14.008896"/>
      <trkpt lat="50.998444" lon="14.008994"/>
      <trkpt lat="50.998516" lon="14.009082"/>
      <trkpt lat="50.998747" lon="14.009179"/>
      <trkpt lat="50.999151" lon="14.009263"/>
      <trkpt lat="50.999532" lon="14.009132"/>
      <trkpt lat="50.999719" lon="14.009092"/>
      <trkpt lat="50.999872" lon="14.009126"/>
      <trkpt lat="50.999985" lon="14.009213"/>
      <trkpt lat="51.000106" lon="14.009363"/>
      <trkpt lat="50.999804" lon="14.009792"/>
      <trkpt lat="50.999516" lon="14.010303"/>
      <trkpt lat="50.999258" lon="14.011138"/>
      <trkpt lat="50.998965" lon="14.012006"/>
      <trkpt lat="50.998789" lon="14.012315"/>
      <trkpt lat="50.998514" lon="14.012663"/>
      <trkpt lat="50.998415" lon="14.012738"/>
      <trkpt lat="50.998192" lon="14.012833"/>
      <trkpt lat="50.998017" lon="14.012940"/>
      <trkpt lat="50.997549" lon="14.013284"/>
      <trkpt lat="50.997171" lon="14.013533"/>
      <trkpt lat="50.996998" lon="14.013645"/>
      <trkpt lat="50.996744" lon="14.013718"/>
      <trkpt lat="50.996412" lon="14.013673"/>
      <trkpt lat="50.996307" lon="14.013632"/>
      <trkpt lat="50.996223" lon="14.013645"/>
      <trkpt lat="50.995848" lon="14.013580"/>
      <trkpt lat="50.995692" lon="14.013565"/>
      <trkpt lat="50.995572" lon="14.013572"/>
      <trkpt lat="50.995309" lon="14.013673"/>
      <trkpt lat="50.994682" lon="14.013980"/>
      <trkpt lat="50.994545" lon="14.014057"/>
      <trkpt lat="50.994438" lon="14.014107"/>
      <trkpt lat="50.993866" lon="14.014401"/>
      <trkpt lat="50.993357" lon="14.014666"/>
      <trkpt lat="50.992701" lon="14.015049"/>
      <trkpt lat="50.992067" lon="14.015443"/>
      <trkpt lat="50.991684" lon="14.015623"/>
      <trkpt lat="50.991245" lon="14.015802"/>
      <trkpt lat="50.991062" lon="14.015889"/>
      <trkpt lat="50.990781" lon="14.016049"/>
      <trkpt lat="50.990154" lon="14.016377"/>
      <trkpt lat="50.989832" lon="14.016555"/>
      <trkpt lat="50.989450" lon="14.016758"/>
      <trkpt lat="50.989134" lon="14.016936"/>
      <trkpt lat="50.988969" lon="14.017033"/>
      <trkpt lat="50.988882" lon="14.017108"/>
      <trkpt lat="50.988824" lon="14.017069"/>
      <trkpt lat="50.988738" lon="14.017055"/>
      <trkpt lat="50.988519" lon="14.017059"/>
      <trkpt lat="50.988353" lon="14.017038"/>
      <trkpt lat="50.988266" lon="14.017016"/>
      <trkpt lat="50.988166" lon="14.017009"/>
      <trkpt lat="50.987955" lon="14.017028"/>
      <trkpt lat="50.987939" lon="14.017117"/>
      <trkpt lat="50.987910" lon="14.017220"/>
      <trkpt lat="50.987898" lon="14.017314"/>
      <trkpt lat="50.987474" lon="14.017229"/>
      <trkpt lat="50.987450" lon="14.017226"/>
      <trkpt lat="50.987388" lon="14.017218"/>
      <trkpt lat="50.987379" lon="14.017259"/>
      <trkpt lat="50.987366" lon="14.017342"/>
      <trkpt lat="50.987325" lon="14.017591"/>
      <trkpt lat="50.987153" lon="14.018622"/>
      <trkpt lat="50.987137" lon="14.018767"/>
      <trkpt lat="50.987102" lon="14.019131"/>
      <trkpt lat="50.987090" lon="14.019503"/>
      <trkpt lat="50.987064" lon="14.019527"/>
      <trkpt lat="50.987016" lon="14.019571"/>
      <trkpt lat="50.986871" lon="14.019863"/>
      <trkpt lat="50.986829" lon="14.019941"/>
      <trkpt lat="50.986774" lon="14.020045"/>
      <trkpt lat="50.986509" lon="14.020520"/>
      <trkpt lat="50.986405" lon="14.020706"/>
      <trkpt lat="50.986276" lon="14.020937"/>
      <trkpt lat="50.986115" lon="14.021225"/>
      <trkpt lat="50.985965" lon="14.021493"/>
      <trkpt lat="50.985926" lon="14.021568"/>
      <trkpt lat="50.985759" lon="14.021887"/>
      <trkpt lat="50.985489" lon="14.022401"/>
      <trkpt lat="50.985432" lon="14.022503"/>
      <trkpt lat="50.985400" lon="14.022722"/>
      <trkpt lat="50.985358" lon="14.023021"/>
      <trkpt lat="50.985328" lon="14.023230"/>
      <trkpt lat="50.985257" lon="14.023607"/>
      <trkpt lat="50.985253" lon="14.023632"/>
      <trkpt lat="50.985235" lon="14.023726"/>
      <trkpt lat="50.985141" lon="14.024232"/>
      <trkpt lat="50.985124" lon="14.024323"/>
      <trkpt lat="50.985083" lon="14.024541"/>
      <trkpt lat="50.985129" lon="14.024560"/>
      <trkpt lat="50.985101" lon="14.025120"/>
      <trkpt lat="50.985072" lon="14.025605"/>
      <trkpt lat="50.985028" lon="14.026002"/>
      <trkpt lat="50.984980" lon="14.026373"/>
      <trkpt lat="50.984922" lon="14.026846"/>
      <trkpt lat="50.984900" lon="14.027014"/>
      <trkpt lat="50.984831" lon="14.027487"/>
      <trkpt lat="50.984738" lon="14.027937"/>
      <trkpt lat="50.984636" lon="14.028282"/>
      <trkpt lat="50.984607" lon="14.028410"/>
      <trkpt lat="50.984505" lon="14.028728"/>
      <trkpt lat="50.984303" lon="14.029190"/>
      <trkpt lat="50.984073" lon="14.029612"/>
      <trkpt lat="50.983751" lon="14.030103"/>
      <trkpt lat="50.983485" lon="14.030816"/>
      <trkpt lat="50.983249" lon="14.031573"/>
      <trkpt lat="50.983036" lon="14.032216"/>
      <trkpt lat="50.982985" lon="14.032526"/>
      <trkpt lat="50.983006" lon="14.033506"/>
      <trkpt lat="50.982948" lon="14.033819"/>
      <trkpt lat="50.982791" lon="14.034294"/>
      <trkpt lat="50.982768" lon="14.034652"/>
      <trkpt lat="50.982717" lon="14.034905"/>
      <trkpt lat="50.982615" lon="14.035161"/>
      <trkpt lat="50.982540" lon="14.035439"/>
      <trkpt lat="50.982268" lon="14.036688"/>
      <trkpt lat="50.982110" lon="14.037288"/>
      <trkpt lat="50.982040" lon="14.037627"/>
      <trkpt lat="50.982020" lon="14.037967"/>
      <trkpt lat="50.982002" lon="14.038042"/>
      <trkpt lat="50.981990" lon="14.038097"/>
      <trkpt lat="50.981937" lon="14.038043"/>
      <trkpt lat="50.981833" lon="14.037926"/>
      <trkpt lat="50.981786" lon="14.037867"/>
      <trkpt lat="50.981762" lon="14.037844"/>
      <trkpt lat="50.981735" lon="14.037830"/>
      <trkpt lat="50.981702" lon="14.037823"/>
      <trkpt lat="50.981674" lon="14.037828"/>
      <trkpt lat="50.981638" lon="14.037844"/>
      <trkpt lat="50.981453" lon="14.037961"/>
      <trkpt lat="50.981123" lon="14.038141"/>
      <trkpt lat="50.981100" lon="14.038159"/>
      <trkpt lat="50.981083" lon="14.038177"/>
      <trkpt lat="50.981068" lon="14.038200"/>
      <trkpt lat="50.980867" lon="14.038556"/>
      <trkpt lat="50.980828" lon="14.038628"/>
      <trkpt lat="50.980792" lon="14.038699"/>
      <trkpt lat="50.980708" lon="14.038886"/>
      <trkpt lat="50.980681" lon="14.038939"/>
      <trkpt lat="50.980657" lon="14.038977"/>
      <trkpt lat="50.980602" lon="14.039044"/>
      <trkpt lat="50.980571" lon="14.039078"/>
      <trkpt lat="50.980535" lon="14.039109"/>
      <trkpt lat="50.980504" lon="14.039128"/>
      <trkpt lat="50.980404" lon="14.039169"/>
      <trkpt lat="50.980319" lon="14.039190"/>
      <trkpt lat="50.980284" lon="14.039194"/>
      <trkpt lat="50.980252" lon="14.039189"/>
      <trkpt lat="50.980128" lon="14.039148"/>
      <trkpt lat="50.980078" lon="14.039130"/>
      <trkpt lat="50.980045" lon="14.039112"/>
      <trkpt lat="50.979836" lon="14.038963"/>
      <trkpt lat="50.979807" lon="14.038940"/>
      <trkpt lat="50.979777" lon="14.038909"/>
      <trkpt lat="50.979622" lon="14.038704"/>
      <trkpt lat="50.979509" lon="14.038544"/>
      <trkpt lat="50.979462" lon="14.038486"/>
      <trkpt lat="50.979351" lon="14.038369"/>
      <trkpt lat="50.979331" lon="14.038353"/>
      <trkpt lat="50.979306" lon="14.038337"/>
      <trkpt lat="50.979289" lon="14.038333"/>
      <trkpt lat="50.979270" lon="14.038336"/>
      <trkpt lat="50.979255" lon="14.038343"/>
      <trkpt lat="50.979147" lon="14.038448"/>
      <trkpt lat="50.978900" lon="14.038657"/>
      <trkpt lat="50.978880" lon="14.038671"/>
      <trkpt lat="50.978861" lon="14.038680"/>
      <trkpt lat="50.978734" lon="14.038725"/>
      <trkpt lat="50.978715" lon="14.038735"/>
      <trkpt lat="50.978601" lon="14.038810"/>
      <trkpt lat="50.978503" lon="14.038879"/>
      <trkpt lat="50.978487" lon="14.038887"/>
      <trkpt lat="50.978378" lon="14.038930"/>
      <trkpt lat="50.978342" lon="14.038949"/>
      <trkpt lat="50.978074" lon="14.039112"/>
    </trkseg>
  </trk>
</gpx>
