<?xml version="1.0" encoding="UTF-8"?>
<gpx version="1.1" creator="hike-recap example data"
     xmlns="http://www.topografix.com/GPX/1/1">
  <metadata>
    <name>Stage 6</name>
    <desc>Derived from OpenStreetMap relation 114289, ODbL. Example data.</desc>
  </metadata>
  <trk>
    <name>Stage 6</name>
    <trkseg>
      <trkpt lat="50.920421" lon="14.237915"/>
      <trkpt lat="50.920329" lon="14.238105"/>
      <trkpt lat="50.920296" lon="14.238209"/>
      <trkpt lat="50.920292" lon="14.238334"/>
      <trkpt lat="50.920311" lon="14.238524"/>
      <trkpt lat="50.920330" lon="14.238649"/>
      <trkpt lat="50.920345" lon="14.238767"/>
      <trkpt lat="50.920346" lon="14.238936"/>
      <trkpt lat="50.920331" lon="14.239052"/>
      <trkpt lat="50.920312" lon="14.239160"/>
      <trkpt lat="50.920301" lon="14.239279"/>
      <trkpt lat="50.920313" lon="14.239371"/>
      <trkpt lat="50.920336" lon="14.239435"/>
      <trkpt lat="50.920374" lon="14.239511"/>
      <trkpt lat="50.920432" lon="14.239547"/>
      <trkpt lat="50.920489" lon="14.239561"/>
      <trkpt lat="50.920570" lon="14.239552"/>
      <trkpt lat="50.920737" lon="14.239471"/>
      <trkpt lat="50.921167" lon="14.239202"/>
      <trkpt lat="50.921345" lon="14.239119"/>
      <trkpt lat="50.921529" lon="14.239076"/>
      <trkpt lat="50.921695" lon="14.239065"/>
      <trkpt lat="50.921950" lon="14.239119"/>
      <trkpt lat="50.922202" lon="14.239235"/>
      <trkpt lat="50.922345" lon="14.239285"/>
      <trkpt lat="50.922490" lon="14.238999"/>
      <trkpt lat="50.922647" lon="14.238779"/>
      <trkpt lat="50.922719" lon="14.238715"/>
      <trkpt lat="50.922770" lon="14.238703"/>
      <trkpt lat="50.922797" lon="14.238697"/>
      <trkpt lat="50.922961" lon="14.238659"/>
      <trkpt lat="50.923150" lon="14.238657"/>
      <trkpt lat="50.924132" lon="14.238551"/>
      <trkpt lat="50.924875" lon="14.238490"/>
      <trkpt lat="50.925307" lon="14.238409"/>
      <trkpt lat="50.925574" lon="14.238281"/>
      <trkpt lat="50.925748" lon="14.238251"/>
      <trkpt lat="50.925868" lon="14.238206"/>
      <trkpt lat="50.925920" lon="14.238170"/>
      <trkpt lat="50.926035" lon="14.237913"/>
      <trkpt lat="50.926090" lon="14.237855"/>
      <trkpt lat="50.926189" lon="14.237697"/>
      <trkpt lat="50.926291" lon="14.237372"/>
      <trkpt lat="50.926327" lon="14.237256"/>
      <trkpt lat="50.926395" lon="14.237094"/>
      <trkpt lat="50.926482" lon="14.236984"/>
      <trkpt lat="50.926552" lon="14.236952"/>
      <trkpt lat="50.926566" lon="14.236948"/>
      <trkpt lat="50.926652" lon="14.236921"/>
      <trkpt lat="50.926707" lon="14.236910"/>
      <trkpt lat="50.926723" lon="14.236908"/>
      <trkpt lat="50.926741" lon="14.236905"/>
      <trkpt lat="50.926741" lon="14.236993"/>
      <trkpt lat="50.926733" lon="14.237084"/>
      <trkpt lat="50.926721" lon="14.237158"/>
      <trkpt lat="50.926702" lon="14.237235"/>
      <trkpt lat="50.926662" lon="14.237369"/>
      <trkpt lat="50.926602" lon="14.237571"/>
      <trkpt lat="50.926546" lon="14.237756"/>
      <trkpt lat="50.926512" lon="14.237872"/>
      <trkpt lat="50.926436" lon="14.238148"/>
      <trkpt lat="50.926430" lon="14.238178"/>
      <trkpt lat="50.926418" lon="14.238267"/>
      <trkpt lat="50.926369" lon="14.238910"/>
      <trkpt lat="50.926308" lon="14.239525"/>
      <trkpt lat="50.926283" lon="14.239847"/>
      <trkpt lat="50.926286" lon="14.239966"/>
      <trkpt lat="50.926298" lon="14.240056"/>
      <trkpt lat="50.926341" lon="14.240210"/>
      <trkpt lat="50.926397" lon="14.240315"/>
      <trkpt lat="50.926489" lon="14.240423"/>
      <trkpt lat="50.926628" lon="14.240522"/>
      <trkpt lat="50.926700" lon="14.240549"/>
      <trkpt lat="50.926761" lon="14.240565"/>
      <trkpt lat="50.927105" lon="14.240669"/>
      <trkpt lat="50.927233" lon="14.240708"/>
      <trkpt lat="50.927326" lon="14.240754"/>
      <trkpt lat="50.927435" lon="14.240821"/>
      <trkpt lat="50.927574" lon="14.240919"/>
      <trkpt lat="50.927664" lon="14.240989"/>
      <trkpt lat="50.927728" lon="14.241061"/>
      <trkpt lat="50.927813" lon="14.241167"/>
      <trkpt lat="50.927875" lon="14.241250"/>
      <trkpt lat="50.928161" lon="14.241628"/>
      <trkpt lat="50.928339" lon="14.241856"/>
      <trkpt lat="50.928518" lon="14.242060"/>
      <trkpt lat="50.928618" lon="14.242170"/>
      <trkpt lat="50.928684" lon="14.242211"/>
      <trkpt lat="50.928872" lon="14.242327"/>
      <trkpt lat="50.928895" lon="14.242340"/>
      <trkpt lat="50.928919" lon="14.242357"/>
      <trkpt lat="50.928977" lon="14.242392"/>
      <trkpt lat="50.929003" lon="14.242418"/>
      <trkpt lat="50.929040" lon="14.242462"/>
      <trkpt lat="50.929057" lon="14.242495"/>
      <trkpt lat="50.929070" lon="14.242528"/>
      <trkpt lat="50.929094" lon="14.242625"/>
      <trkpt lat="50.929105" lon="14.242740"/>
      <trkpt lat="50.929103" lon="14.242806"/>
      <trkpt lat="50.929101" lon="14.242885"/>
      <trkpt lat="50.929095" lon="14.243055"/>
      <trkpt lat="50.929087" lon="14.243244"/>
      <trkpt lat="50.929072" lon="14.243417"/>
      <trkpt lat="50.929055" lon="14.243558"/>
      <trkpt lat="50.929033" lon="14.243724"/>
      <trkpt lat="50.928981" lon="14.243983"/>
      <trkpt lat="50.928873" lon="14.244364"/>
      <trkpt lat="50.928823" lon="14.244319"/>
      <trkpt lat="50.928810" lon="14.244308"/>
      <trkpt lat="50.928771" lon="14.244272"/>
      <trkpt lat="50.928699" lon="14.244440"/>
      <trkpt lat="50.928632" lon="14.244634"/>
      <trkpt lat="50.928561" lon="14.244861"/>
      <trkpt lat="50.928457" lon="14.244840"/>
      <trkpt lat="50.928400" lon="14.244828"/>
      <trkpt lat="50.928382" lon="14.244826"/>
      <trkpt lat="50.928374" lon="14.244834"/>
      <trkpt lat="50.928370" lon="14.244857"/>
      <trkpt lat="50.928330" lon="14.245306"/>
      <trkpt lat="50.928269" lon="14.245848"/>
      <trkpt lat="50.928166" lon="14.246190"/>
      <trkpt lat="50.928066" lon="14.246461"/>
      <trkpt lat="50.927976" lon="14.246778"/>
      <trkpt lat="50.927933" lon="14.247124"/>
      <trkpt lat="50.927926" lon="14.247267"/>
      <trkpt lat="50.927937" lon="14.247569"/>
      <trkpt lat="50.927970" lon="14.247998"/>
      <trkpt lat="50.927989" lon="14.248192"/>
      <trkpt lat="50.928037" lon="14.248319"/>
      <trkpt lat="50.928065" lon="14.248465"/>
      <trkpt lat="50.928049" lon="14.248580"/>
      <trkpt lat="50.928000" lon="14.248682"/>
      <trkpt lat="50.927963" lon="14.248757"/>
      <trkpt lat="50.927952" lon="14.248811"/>
      <trkpt lat="50.927970" lon="14.248905"/>
      <trkpt lat="50.927979" lon="14.248988"/>
      <trkpt lat="50.927782" lon="14.249535"/>
      <trkpt lat="50.927303" lon="14.250394"/>
      <trkpt lat="50.927264" lon="14.250722"/>
      <trkpt lat="50.927279" lon="14.250886"/>
      <trkpt lat="50.927355" lon="14.251031"/>
      <trkpt lat="50.927381" lon="14.251193"/>
      <trkpt lat="50.927414" lon="14.251569"/>
      <trkpt lat="50.927438" lon="14.251847"/>
      <trkpt lat="50.927451" lon="14.252355"/>
      <trkpt lat="50.927400" lon="14.252543"/>
      <trkpt lat="50.927127" lon="14.253096"/>
      <trkpt lat="50.926920" lon="14.253568"/>
      <trkpt lat="50.926873" lon="14.253750"/>
      <trkpt lat="50.926874" lon="14.253878"/>
      <trkpt lat="50.926912" lon="14.253994"/>
      <trkpt lat="50.927033" lon="14.254220"/>
      <trkpt lat="50.927166" lon="14.254402"/>
      <trkpt lat="50.927291" lon="14.254645"/>
      <trkpt lat="50.927322" lon="14.254855"/>
      <trkpt lat="50.927289" lon="14.255153"/>
      <trkpt lat="50.927329" lon="14.255350"/>
      <trkpt lat="50.927362" lon="14.255394"/>
      <trkpt lat="50.927400" lon="14.255427"/>
      <trkpt lat="50.927445" lon="14.255415"/>
      <trkpt lat="50.927615" lon="14.255226"/>
      <trkpt lat="50.927842" lon="14.254964"/>
      <trkpt lat="50.928033" lon="14.254803"/>
      <trkpt lat="50.928150" lon="14.254779"/>
      <trkpt lat="50.928273" lon="14.254809"/>
      <trkpt lat="50.928341" lon="14.254940"/>
      <trkpt lat="50.928368" lon="14.255133"/>
      <trkpt lat="50.928374" lon="14.255434"/>
      <trkpt lat="50.928352" lon="14.255870"/>
      <trkpt lat="50.928284" lon="14.256541"/>
      <trkpt lat="50.928240" lon="14.256838"/>
      <trkpt lat="50.928123" lon="14.257010"/>
      <trkpt lat="50.928007" lon="14.257139"/>
      <trkpt lat="50.927722" lon="14.257491"/>
      <trkpt lat="50.927413" lon="14.257812"/>
      <trkpt lat="50.927147" lon="14.257806"/>
      <trkpt lat="50.927003" lon="14.257742"/>
      <trkpt lat="50.926793" lon="14.257383"/>
      <trkpt lat="50.926710" lon="14.257297"/>
      <trkpt lat="50.926636" lon="14.257240"/>
      <trkpt lat="50.926482" lon="14.256966"/>
      <trkpt lat="50.926431" lon="14.256900"/>
      <trkpt lat="50.926383" lon="14.256870"/>
      <trkpt lat="50.926335" lon="14.256856"/>
      <trkpt lat="50.926301" lon="14.256823"/>
      <trkpt lat="50.926060" lon="14.256889"/>
      <trkpt lat="50.925929" lon="14.256915"/>
      <trkpt lat="50.925878" lon="14.256929"/>
      <trkpt lat="50.925876" lon="14.256986"/>
      <trkpt lat="50.925884" lon="14.257015"/>
      <trkpt lat="50.925905" lon="14.257000"/>
      <trkpt lat="50.925920" lon="14.257007"/>
      <trkpt lat="50.925936" lon="14.257108"/>
      <trkpt lat="50.925912" lon="14.257123"/>
      <trkpt lat="50.925995" lon="14.257435"/>
      <trkpt lat="50.926031" lon="14.257469"/>
      <trkpt lat="50.926066" lon="14.257709"/>
      <trkpt lat="50.926080" lon="14.257818"/>
      <trkpt lat="50.926059" lon="14.257920"/>
      <trkpt lat="50.926001" lon="14.258000"/>
      <trkpt lat="50.925980" lon="14.258062"/>
      <trkpt lat="50.925871" lon="14.258199"/>
      <trkpt lat="50.925771" lon="14.258288"/>
      <trkpt lat="50.925742" lon="14.258302"/>
      <trkpt lat="50.925589" lon="14.258322"/>
      <trkpt lat="50.925533" lon="14.258327"/>
      <trkpt lat="50.925165" lon="14.258364"/>
      <trkpt lat="50.925174" lon="14.258594"/>
      <trkpt lat="50.925058" lon="14.259578"/>
      <trkpt lat="50.925222" lon="14.260240"/>
      <trkpt lat="50.925337" lon="14.260898"/>
      <trkpt lat="50.925352" lon="14.261237"/>
      <trkpt lat="50.925335" lon="14.261638"/>
      <trkpt lat="50.925435" lon="14.262146"/>
      <trkpt lat="50.925485" lon="14.262359"/>
      <trkpt lat="50.925550" lon="14.262950"/>
      <trkpt lat="50.925646" lon="14.264127"/>
      <trkpt lat="50.925551" lon="14.265497"/>
      <trkpt lat="50.925543" lon="14.265611"/>
      <trkpt lat="50.925557" lon="14.266029"/>
      <trkpt lat="50.925560" lon="14.266258"/>
      <trkpt lat="50.925575" lon="14.266334"/>
      <trkpt lat="50.925596" lon="14.266400"/>
      <trkpt lat="50.925692" lon="14.266713"/>
      <trkpt lat="50.925705" lon="14.267039"/>
      <trkpt lat="50.925695" lon="14.267533"/>
      <trkpt lat="50.925438" lon="14.267848"/>
      <trkpt lat="50.925181" lon="14.268210"/>
      <trkpt lat="50.924737" lon="14.268779"/>
      <trkpt lat="50.924638" lon="14.268777"/>
      <trkpt lat="50.924489" lon="14.268621"/>
      <trkpt lat="50.924064" lon="14.268826"/>
      <trkpt lat="50.923981" lon="14.269183"/>
      <trkpt lat="50.924003" lon="14.270468"/>
      <trkpt lat="50.923984" lon="14.270633"/>
      <trkpt lat="50.923884" lon="14.270824"/>
      <trkpt lat="50.923806" lon="14.270908"/>
      <trkpt lat="50.923631" lon="14.271027"/>
      <trkpt lat="50.923307" lon="14.271198"/>
      <trkpt lat="50.923215" lon="14.271255"/>
      <trkpt lat="50.923181" lon="14.271388"/>
      <trkpt lat="50.923191" lon="14.271669"/>
      <trkpt lat="50.923250" lon="14.272028"/>
      <trkpt lat="50.924638" lon="14.273998"/>
      <trkpt lat="50.924817" lon="14.274264"/>
      <trkpt lat="50.925035" lon="14.274533"/>
      <trkpt lat="50.925316" lon="14.274822"/>
      <trkpt lat="50.925252" lon="14.274952"/>
      <trkpt lat="50.925358" lon="14.275177"/>
      <trkpt lat="50.925407" lon="14.275284"/>
      <trkpt lat="50.925400" lon="14.275329"/>
      <trkpt lat="50.925373" lon="14.275392"/>
      <trkpt lat="50.925319" lon="14.275429"/>
      <trkpt lat="50.925264" lon="14.275561"/>
      <trkpt lat="50.925207" lon="14.275681"/>
      <trkpt lat="50.925168" lon="14.275716"/>
      <trkpt lat="50.925123" lon="14.275844"/>
      <trkpt lat="50.925108" lon="14.275966"/>
      <trkpt lat="50.925083" lon="14.276015"/>
      <trkpt lat="50.925034" lon="14.276108"/>
      <trkpt lat="50.925006" lon="14.276182"/>
      <trkpt lat="50.924872" lon="14.276386"/>
      <trkpt lat="50.924635" lon="14.277238"/>
      <trkpt lat="50.924618" lon="14.277522"/>
      <trkpt lat="50.924837" lon="14.277975"/>
      <trkpt lat="50.924692" lon="14.278750"/>
      <trkpt lat="50.924664" lon="14.279224"/>
      <trkpt lat="50.924638" lon="14.279641"/>
      <trkpt lat="50.924706" lon="14.280510"/>
      <trkpt lat="50.924439" lon="14.282081"/>
      <trkpt lat="50.924388" lon="14.282382"/>
      <trkpt lat="50.924172" lon="14.282869"/>
      <trkpt lat="50.923913" lon="14.283312"/>
      <trkpt lat="50.923576" lon="14.283642"/>
      <trkpt lat="50.923462" lon="14.283853"/>
      <trkpt lat="50.923350" lon="14.284089"/>
      <trkpt lat="50.923281" lon="14.284475"/>
      <trkpt lat="50.923273" lon="14.284518"/>
      <trkpt lat="50.923307" lon="14.284516"/>
      <trkpt lat="50.923412" lon="14.284511"/>
      <trkpt lat="50.923479" lon="14.284499"/>
      <trkpt lat="50.923554" lon="14.284488"/>
      <trkpt lat="50.923586" lon="14.284486"/>
      <trkpt lat="50.923584" lon="14.284545"/>
      <trkpt lat="50.923590" lon="14.284946"/>
      <trkpt lat="50.923605" lon="14.285143"/>
      <trkpt lat="50.923611" lon="14.285232"/>
      <trkpt lat="50.923650" lon="14.285733"/>
      <trkpt lat="50.923679" lon="14.285915"/>
      <trkpt lat="50.923717" lon="14.286169"/>
      <trkpt lat="50.923751" lon="14.286416"/>
      <trkpt lat="50.923801" lon="14.286604"/>
      <trkpt lat="50.923863" lon="14.286738"/>
      <trkpt lat="50.923948" lon="14.286862"/>
      <trkpt lat="50.924053" lon="14.286982"/>
      <trkpt lat="50.924151" lon="14.287059"/>
      <trkpt lat="50.924309" lon="14.287165"/>
      <trkpt lat="50.924401" lon="14.287231"/>
      <trkpt lat="50.924475" lon="14.287283"/>
      <trkpt lat="50.924629" lon="14.287409"/>
      <trkpt lat="50.924744" lon="14.287522"/>
      <trkpt lat="50.924818" lon="14.287606"/>
      <trkpt lat="50.924898" lon="14.287719"/>
      <trkpt lat="50.925016" lon="14.287887"/>
      <trkpt lat="50.925095" lon="14.288003"/>
      <trkpt lat="50.925185" lon="14.288152"/>
      <trkpt lat="50.925221" lon="14.288221"/>
      <trkpt lat="50.925253" lon="14.288282"/>
      <trkpt lat="50.925343" lon="14.288483"/>
      <trkpt lat="50.925411" lon="14.288645"/>
      <trkpt lat="50.925433" lon="14.288726"/>
      <trkpt lat="50.925504" lon="14.288773"/>
      <trkpt lat="50.925545" lon="14.288687"/>
      <trkpt lat="50.925653" lon="14.288578"/>
      <trkpt lat="50.925841" lon="14.288295"/>
      <trkpt lat="50.925988" lon="14.287924"/>
      <trkpt lat="50.926200" lon="14.287570"/>
      <trkpt lat="50.926346" lon="14.287367"/>
      <trkpt lat="50.926409" lon="14.287216"/>
      <trkpt lat="50.926507" lon="14.287121"/>
      <trkpt lat="50.926636" lon="14.286953"/>
      <trkpt lat="50.926710" lon="14.286910"/>
      <trkpt lat="50.926827" lon="14.286857"/>
      <trkpt lat="50.926891" lon="14.286811"/>
      <trkpt lat="50.926995" lon="14.286846"/>
      <trkpt lat="50.927135" lon="14.286815"/>
      <trkpt lat="50.927344" lon="14.286813"/>
      <trkpt lat="50.927381" lon="14.286831"/>
      <trkpt lat="50.927392" lon="14.286865"/>
      <trkpt lat="50.927374" lon="14.286927"/>
      <trkpt lat="50.927303" lon="14.287016"/>
      <trkpt lat="50.927208" lon="14.287137"/>
      <trkpt lat="50.927133" lon="14.287292"/>
      <trkpt lat="50.927055" lon="14.287515"/>
      <trkpt lat="50.927000" lon="14.287637"/>
      <trkpt lat="50.926981" lon="14.287697"/>
      <trkpt lat="50.926646" lon="14.288571"/>
      <trkpt lat="50.926351" lon="14.289562"/>
      <trkpt lat="50.926127" lon="14.291085"/>
      <trkpt lat="50.926167" lon="14.291478"/>
      <trkpt lat="50.926055" lon="14.291821"/>
      <trkpt lat="50.926035" lon="14.291973"/>
      <trkpt lat="50.926066" lon="14.292209"/>
      <trkpt lat="50.926206" lon="14.292730"/>
      <trkpt lat="50.926273" lon="14.292906"/>
      <trkpt lat="50.926555" lon="14.293821"/>
      <trkpt lat="50.926723" lon="14.293855"/>
      <trkpt lat="50.926786" lon="14.293940"/>
      <trkpt lat="50.926765" lon="14.294152"/>
      <trkpt lat="50.926782" lon="14.294275"/>
      <trkpt lat="50.926978" lon="14.294876"/>
      <trkpt lat="50.927107" lon="14.295165"/>
      <trkpt lat="50.927216" lon="14.295582"/>
      <trkpt lat="50.927323" lon="14.295920"/>
      <trkpt lat="50.927395" lon="14.296276"/>
      <trkpt lat="50.927404" lon="14.296543"/>
      <trkpt lat="50.927414" lon="14.296959"/>
      <trkpt lat="50.927446" lon="14.297444"/>
      <trkpt lat="50.927520" lon="14.297716"/>
      <trkpt lat="50.927698" lon="14.297879"/>
      <trkpt lat="50.927740" lon="14.298018"/>
      <trkpt lat="50.927751" lon="14.298171"/>
      <trkpt lat="50.927692" lon="14.298300"/>
      <trkpt lat="50.927653" lon="14.298350"/>
      <trkpt lat="50.927187" lon="14.298339"/>
      <trkpt lat="50.927130" lon="14.298357"/>
      <trkpt lat="50.927064" lon="14.298488"/>
      <trkpt lat="50.926992" lon="14.298731"/>
      <trkpt lat="50.926968" lon="14.298957"/>
      <trkpt lat="50.926977" lon="14.299192"/>
      <trkpt lat="50.927011" lon="14.299247"/>
      <trkpt lat="50.927617" lon="14.299361"/>
      <trkpt lat="50.927759" lon="14.299446"/>
      <trkpt lat="50.927864" lon="14.299554"/>
      <trkpt lat="50.927884" lon="14.299653"/>
      <trkpt lat="50.927860" lon="14.300008"/>
      <trkpt lat="50.927874" lon="14.300653"/>
      <trkpt lat="50.927817" lon="14.300738"/>
      <trkpt lat="50.927729" lon="14.300723"/>
      <trkpt lat="50.927598" lon="14.300503"/>
      <trkpt lat="50.927426" lon="14.300387"/>
      <trkpt lat="50.927152" lon="14.300454"/>
      <trkpt lat="50.927115" lon="14.300533"/>
      <trkpt lat="50.927066" lon="14.301058"/>
      <trkpt lat="50.927116" lon="14.301318"/>
      <trkpt lat="50.927244" lon="14.301872"/>
      <trkpt lat="50.927396" lon="14.302264"/>
      <trkpt lat="50.927543" lon="14.302769"/>
      <trkpt lat="50.927707" lon="14.303053"/>
      <trkpt lat="50.927857" lon="14.303116"/>
      <trkpt lat="50.928015" lon="14.303130"/>
      <trkpt lat="50.928153" lon="14.303074"/>
      <trkpt lat="50.928224" lon="14.303111"/>
      <trkpt lat="50.928265" lon="14.303213"/>
      <trkpt lat="50.928256" lon="14.303355"/>
      <trkpt lat="50.928159" lon="14.303648"/>
      <trkpt lat="50.928069" lon="14.303993"/>
      <trkpt lat="50.928015" lon="14.304366"/>
      <trkpt lat="50.927990" lon="14.304832"/>
      <trkpt lat="50.928025" lon="14.304985"/>
      <trkpt lat="50.928052" lon="14.305228"/>
      <trkpt lat="50.928028" lon="14.305521"/>
      <trkpt lat="50.928037" lon="14.305696"/>
      <trkpt lat="50.928087" lon="14.305771"/>
      <trkpt lat="50.928144" lon="14.305772"/>
      <trkpt lat="50.928241" lon="14.305738"/>
      <trkpt lat="50.928477" lon="14.305611"/>
      <trkpt lat="50.928764" lon="14.305506"/>
      <trkpt lat="50.928896" lon="14.305469"/>
      <trkpt lat="50.928913" lon="14.305555"/>
      <trkpt lat="50.928916" lon="14.305609"/>
      <trkpt lat="50.928924" lon="14.305692"/>
      <trkpt lat="50.928904" lon="14.305967"/>
      <trkpt lat="50.928858" lon="14.306208"/>
      <trkpt lat="50.928767" lon="14.306315"/>
      <trkpt lat="50.928554" lon="14.306546"/>
      <trkpt lat="50.928475" lon="14.306700"/>
      <trkpt lat="50.928418" lon="14.306914"/>
      <trkpt lat="50.928391" lon="14.307909"/>
      <trkpt lat="50.928395" lon="14.308766"/>
      <trkpt lat="50.928418" lon="14.309071"/>
      <trkpt lat="50.928514" lon="14.309369"/>
      <trkpt lat="50.928505" lon="14.309552"/>
      <trkpt lat="50.928453" lon="14.309692"/>
      <trkpt lat="50.928329" lon="14.309899"/>
      <trkpt lat="50.928283" lon="14.310121"/>
      <trkpt lat="50.928270" lon="14.310380"/>
      <trkpt lat="50.928337" lon="14.310722"/>
      <trkpt lat="50.928516" lon="14.311168"/>
      <trkpt lat="50.928652" lon="14.311332"/>
      <trkpt lat="50.928763" lon="14.311518"/>
      <trkpt lat="50.928929" lon="14.311632"/>
      <trkpt lat="50.929006" lon="14.311773"/>
      <trkpt lat="50.929081" lon="14.311938"/>
      <trkpt lat="50.929155" lon="14.312150"/>
      <trkpt lat="50.929223" lon="14.312346"/>
      <trkpt lat="50.929265" lon="14.312464"/>
      <trkpt lat="50.929280" lon="14.312550"/>
      <trkpt lat="50.929277" lon="14.312668"/>
      <trkpt lat="50.929238" lon="14.312943"/>
      <trkpt lat="50.929195" lon="14.313159"/>
      <trkpt lat="50.929116" lon="14.313381"/>
      <trkpt lat="50.928994" lon="14.313593"/>
      <trkpt lat="50.928904" lon="14.313731"/>
      <trkpt lat="50.928844" lon="14.313802"/>
      <trkpt lat="50.928790" lon="14.313845"/>
      <trkpt lat="50.928712" lon="14.313865"/>
      <trkpt lat="50.928703" lon="14.313893"/>
      <trkpt lat="50.928677" lon="14.313970"/>
      <trkpt lat="50.928634" lon="14.314093"/>
      <trkpt lat="50.928510" lon="14.314440"/>
      <trkpt lat="50.928453" lon="14.314622"/>
      <trkpt lat="50.928406" lon="14.314816"/>
      <trkpt lat="50.928381" lon="14.314963"/>
      <trkpt lat="50.928359" lon="14.315105"/>
      <trkpt lat="50.928344" lon="14.315263"/>
      <trkpt lat="50.928337" lon="14.315423"/>
      <trkpt lat="50.928352" lon="14.315691"/>
      <trkpt lat="50.928402" lon="14.315967"/>
      <trkpt lat="50.928420" lon="14.316066"/>
      <trkpt lat="50.928737" lon="14.317404"/>
      <trkpt lat="50.928800" lon="14.317769"/>
      <trkpt lat="50.928836" lon="14.318067"/>
      <trkpt lat="50.928852" lon="14.318348"/>
      <trkpt lat="50.928847" lon="14.318686"/>
      <trkpt lat="50.928840" lon="14.319109"/>
      <trkpt lat="50.928842" lon="14.319494"/>
      <trkpt lat="50.928861" lon="14.319810"/>
      <trkpt lat="50.928885" lon="14.320106"/>
      <trkpt lat="50.929004" lon="14.320160"/>
      <trkpt lat="50.929032" lon="14.320217"/>
      <trkpt lat="50.929148" lon="14.320449"/>
      <trkpt lat="50.929335" lon="14.320814"/>
      <trkpt lat="50.929445" lon="14.321263"/>
      <trkpt lat="50.929412" lon="14.321602"/>
      <trkpt lat="50.929349" lon="14.321867"/>
      <trkpt lat="50.929044" lon="14.322675"/>
      <trkpt lat="50.928887" lon="14.323284"/>
      <trkpt lat="50.928716" lon="14.323901"/>
      <trkpt lat="50.928626" lon="14.324273"/>
      <trkpt lat="50.928595" lon="14.324352"/>
      <trkpt lat="50.928549" lon="14.324459"/>
      <trkpt lat="50.928518" lon="14.324655"/>
      <trkpt lat="50.928486" lon="14.324396"/>
      <trkpt lat="50.928483" lon="14.324269"/>
      <trkpt lat="50.928495" lon="14.324106"/>
      <trkpt lat="50.928548" lon="14.323732"/>
      <trkpt lat="50.928613" lon="14.323417"/>
      <trkpt lat="50.928288" lon="14.323337"/>
      <trkpt lat="50.928005" lon="14.323202"/>
      <trkpt lat="50.927853" lon="14.323190"/>
      <trkpt lat="50.927704" lon="14.323193"/>
      <trkpt lat="50.927283" lon="14.323203"/>
      <trkpt lat="50.927061" lon="14.323221"/>
      <trkpt lat="50.926870" lon="14.323015"/>
      <trkpt lat="50.926751" lon="14.322883"/>
      <trkpt lat="50.926466" lon="14.322799"/>
      <trkpt lat="50.926211" lon="14.322768"/>
      <trkpt lat="50.925801" lon="14.322857"/>
      <trkpt lat="50.925258" lon="14.323065"/>
      <trkpt lat="50.924659" lon="14.323350"/>
      <trkpt lat="50.924187" lon="14.323899"/>
      <trkpt lat="50.924119" lon="14.324018"/>
      <trkpt lat="50.923944" lon="14.324323"/>
      <trkpt lat="50.923881" lon="14.324434"/>
      <trkpt lat="50.923370" lon="14.324809"/>
      <trkpt lat="50.923040" lon="14.324867"/>
      <trkpt lat="50.922964" lon="14.324888"/>
      <trkpt lat="50.922913" lon="14.324912"/>
      <trkpt lat="50.922806" lon="14.325061"/>
      <trkpt lat="50.922782" lon="14.325070"/>
      <trkpt lat="50.922758" lon="14.325088"/>
      <trkpt lat="50.922662" lon="14.325074"/>
      <trkpt lat="50.922249" lon="14.324990"/>
      <trkpt lat="50.922128" lon="14.324954"/>
      <trkpt lat="50.921988" lon="14.324835"/>
      <trkpt lat="50.921763" lon="14.324390"/>
      <trkpt lat="50.921497" lon="14.323655"/>
      <trkpt lat="50.921123" lon="14.322621"/>
      <trkpt lat="50.920864" lon="14.322028"/>
      <trkpt lat="50.920685" lon="14.321551"/>
      <trkpt lat="50.920581" lon="14.320858"/>
      <trkpt lat="50.920588" lon="14.320708"/>
      <trkpt lat="50.920526" lon="14.320467"/>
      <trkpt lat="50.920367" lon="14.320212"/>
      <trkpt lat="50.920266" lon="14.319909"/>
      <trkpt lat="50.920214" lon="14.319735"/>
      <trkpt lat="50.920181" lon="14.319531"/>
      <trkpt lat="50.920071" lon="14.319362"/>
      <trkpt lat="50.920017" lon="14.319228"/>
      <trkpt lat="50.919990" lon="14.319067"/>
      <trkpt lat="50.919930" lon="14.318946"/>
      <trkpt lat="50.919887" lon="14.318782"/>
      <trkpt lat="50.919865" lon="14.318554"/>
      <trkpt lat="50.919830" lon="14.318442"/>
      <trkpt lat="50.919634" lon="14.318085"/>
      <trkpt lat="50.919563" lon="14.317825"/>
      <trkpt lat="50.919425" lon="14.317420"/>
      <trkpt lat="50.919272" lon="14.317194"/>
      <trkpt lat="50.919178" lon="14.316924"/>
      <trkpt lat="50.919093" lon="14.316867"/>
      <trkpt lat="50.918932" lon="14.316717"/>
      <trkpt lat="50.918912" lon="14.316748"/>
      <trkpt lat="50.918910" lon="14.316833"/>
      <trkpt lat="50.918922" lon="14.316975"/>
      <trkpt lat="50.918928" lon="14.317051"/>
      <trkpt lat="50.918904" lon="14.317065"/>
      <trkpt lat="50.918830" lon="14.317023"/>
      <trkpt lat="50.918605" lon="14.316737"/>
      <trkpt lat="50.918267" lon="14.316717"/>
      <trkpt lat="50.918089" lon="14.316696"/>
      <trkpt lat="50.917888" lon="14.316709"/>
      <trkpt lat="50.917510" lon="14.316680"/>
      <trkpt lat="50.917352" lon="14.316668"/>
      <trkpt lat="50.917314" lon="14.316508"/>
      <trkpt lat="50.917306" lon="14.316404"/>
      <trkpt lat="50.917308" lon="14.316306"/>
      <trkpt lat="50.917381" lon="14.315893"/>
      <trkpt lat="50.917346" lon="14.315726"/>
      <trkpt lat="50.917327" lon="14.315553"/>
      <trkpt lat="50.917347" lon="14.315395"/>
      <trkpt lat="50.917347" lon="14.315191"/>
      <trkpt lat="50.917330" lon="14.315133"/>
      <trkpt lat="50.917305" lon="14.315047"/>
      <trkpt lat="50.917313" lon="14.314950"/>
      <trkpt lat="50.917311" lon="14.314799"/>
      <trkpt lat="50.917318" lon="14.314670"/>
      <trkpt lat="50.917280" lon="14.314665"/>
      <trkpt lat="50.917275" lon="14.314512"/>
      <trkpt lat="50.917235" lon="14.314508"/>
      <trkpt lat="50.917225" lon="14.314448"/>
      <trkpt lat="50.917166" lon="14.314349"/>
      <trkpt lat="50.917151" lon="14.314271"/>
      <trkpt lat="50.917147" lon="14.314193"/>
      <trkpt lat="50.917153" lon="14.314093"/>
      <trkpt lat="50.917170" lon="14.313844"/>
      <trkpt lat="50.917136" lon="14.313717"/>
      <trkpt lat="50.917081" lon="14.313545"/>
      <trkpt lat="50.917013" lon="14.313411"/>
      <trkpt lat="50.917018" lon="14.313191"/>
      <trkpt lat="50.917030" lon="14.312971"/>
      <trkpt lat="50.917009" lon="14.312686"/>
      <trkpt lat="50.916960" lon="14.312468"/>
      <trkpt lat="50.916920" lon="14.312247"/>
      <trkpt lat="50.916833" lon="14.312019"/>
      <trkpt lat="50.916737" lon="14.311892"/>
      <trkpt lat="50.916649" lon="14.311807"/>
      <trkpt lat="50.916619" lon="14.311648"/>
      <trkpt lat="50.916528" lon="14.311492"/>
      <trkpt lat="50.916492" lon="14.311481"/>
      <trkpt lat="50.916344" lon="14.311423"/>
      <trkpt lat="50.916347" lon="14.311346"/>
      <trkpt lat="50.916336" lon="14.311214"/>
      <trkpt lat="50.916320" lon="14.310874"/>
      <trkpt lat="50.916243" lon="14.310564"/>
      <trkpt lat="50.916148" lon="14.310301"/>
      <trkpt lat="50.915821" lon="14.309961"/>
      <trkpt lat="50.915534" lon="14.309421"/>
      <trkpt lat="50.915404" lon="14.309104"/>
    </trkseg>
  </trk>
</gpx>
