<?xml version="1.0" encoding="UTF-8"?>
<gpx version="1.1" creator="hike-recap example data"
     xmlns="http://www.topografix.com/GPX/1/1">
  <metadata>
    <name>Stage 8</name>
    <desc>Derived from OpenStreetMap relation 114289, ODbL. Example data.</desc>
  </metadata>
  <trk>
    <name>Stage 8</name>
    <trkseg>
      <trkpt lat="50.885833" lon="14.209455"/>
      <trkpt lat="50.885868" lon="14.209396"/>
      <trkpt lat="50.885911" lon="14.209267"/>
      <trkpt lat="50.885937" lon="14.209152"/>
      <trkpt lat="50.885958" lon="14.209095"/>
      <trkpt lat="50.885984" lon="14.209051"/>
      <trkpt lat="50.886024" lon="14.209017"/>
      <trkpt lat="50.886346" lon="14.208925"/>
      <trkpt lat="50.886508" lon="14.208787"/>
      <trkpt lat="50.886717" lon="14.208626"/>
      <trkpt lat="50.886743" lon="14.208610"/>
      <trkpt lat="50.887024" lon="14.208410"/>
      <trkpt lat="50.887146" lon="14.208305"/>
      <trkpt lat="50.887319" lon="14.208144"/>
      <trkpt lat="50.887393" lon="14.208091"/>
      <trkpt lat="50.887431" lon="14.208076"/>
      <trkpt lat="50.887527" lon="14.208069"/>
      <trkpt lat="50.887566" lon="14.208072"/>
      <trkpt lat="50.887585" lon="14.208077"/>
      <trkpt lat="50.887600" lon="14.208084"/>
      <trkpt lat="50.887620" lon="14.208103"/>
      <trkpt lat="50.887645" lon="14.208148"/>
      <trkpt lat="50.887661" lon="14.208191"/>
      <trkpt lat="50.887671" lon="14.208264"/>
      <trkpt lat="50.887671" lon="14.208333"/>
      <trkpt lat="50.887654" lon="14.208438"/>
      <trkpt lat="50.887603" lon="14.208622"/>
      <trkpt lat="50.887535" lon="14.208811"/>
      <trkpt lat="50.887450" lon="14.208983"/>
      <trkpt lat="50.887369" lon="14.209165"/>
      <trkpt lat="50.887354" lon="14.209250"/>
      <trkpt lat="50.887674" lon="14.208834"/>
      <trkpt lat="50.887772" lon="14.208690"/>
      <trkpt lat="50.887843" lon="14.208569"/>
      <trkpt lat="50.887996" lon="14.208354"/>
      <trkpt lat="50.888021" lon="14.208278"/>
      <trkpt lat="50.888044" lon="14.208210"/>
      <trkpt lat="50.888057" lon="14.208130"/>
      <trkpt lat="50.888067" lon="14.208053"/>
      <trkpt lat="50.888078" lon="14.207782"/>
      <trkpt lat="50.888097" lon="14.207378"/>
      <trkpt lat="50.888143" lon="14.206979"/>
      <trkpt lat="50.888157" lon="14.206679"/>
      <trkpt lat="50.888221" lon="14.206229"/>
      <trkpt lat="50.888279" lon="14.205652"/>
      <trkpt lat="50.888292" lon="14.205155"/>
      <trkpt lat="50.888273" lon="14.204902"/>
      <trkpt lat="50.888211" lon="14.204691"/>
      <trkpt lat="50.888134" lon="14.204501"/>
      <trkpt lat="50.888054" lon="14.204275"/>
      <trkpt lat="50.887990" lon="14.204178"/>
      <trkpt lat="50.887887" lon="14.204062"/>
      <trkpt lat="50.887836" lon="14.203989"/>
      <trkpt lat="50.887800" lon="14.203937"/>
      <trkpt lat="50.887760" lon="14.203908"/>
      <trkpt lat="50.887725" lon="14.203883"/>
      <trkpt lat="50.887673" lon="14.203845"/>
      <trkpt lat="50.887131" lon="14.203516"/>
      <trkpt lat="50.886932" lon="14.203367"/>
      <trkpt lat="50.886745" lon="14.203198"/>
      <trkpt lat="50.886519" lon="14.202998"/>
      <trkpt lat="50.886303" lon="14.202784"/>
      <trkpt lat="50.886156" lon="14.202670"/>
      <trkpt lat="50.885993" lon="14.202602"/>
      <trkpt lat="50.885833" lon="14.202561"/>
      <trkpt lat="50.885684" lon="14.202531"/>
      <trkpt lat="50.885522" lon="14.202509"/>
      <trkpt lat="50.885369" lon="14.202493"/>
      <trkpt lat="50.885170" lon="14.202512"/>
      <trkpt lat="50.885008" lon="14.202524"/>
      <trkpt lat="50.884526" lon="14.202580"/>
      <trkpt lat="50.884542" lon="14.202502"/>
      <trkpt lat="50.884562" lon="14.202420"/>
      <trkpt lat="50.884591" lon="14.202314"/>
      <trkpt lat="50.884856" lon="14.201777"/>
      <trkpt lat="50.885104" lon="14.201274"/>
      <trkpt lat="50.885227" lon="14.201027"/>
      <trkpt lat="50.885517" lon="14.200311"/>
      <trkpt lat="50.885576" lon="14.200149"/>
      <trkpt lat="50.885693" lon="14.199836"/>
      <trkpt lat="50.885816" lon="14.199513"/>
      <trkpt lat="50.885919" lon="14.199258"/>
      <trkpt lat="50.886149" lon="14.198694"/>
      <trkpt lat="50.886280" lon="14.198369"/>
      <trkpt lat="50.886399" lon="14.198076"/>
      <trkpt lat="50.886431" lon="14.197998"/>
      <trkpt lat="50.886484" lon="14.197819"/>
      <trkpt lat="50.886510" lon="14.197736"/>
      <trkpt lat="50.886538" lon="14.197647"/>
      <trkpt lat="50.886565" lon="14.197561"/>
      <trkpt lat="50.886644" lon="14.197312"/>
      <trkpt lat="50.886738" lon="14.196969"/>
      <trkpt lat="50.886846" lon="14.196567"/>
      <trkpt lat="50.886895" lon="14.196442"/>
      <trkpt lat="50.886974" lon="14.196350"/>
      <trkpt lat="50.887063" lon="14.196271"/>
      <trkpt lat="50.887170" lon="14.196141"/>
      <trkpt lat="50.887256" lon="14.195972"/>
      <trkpt lat="50.887305" lon="14.195903"/>
      <trkpt lat="50.887465" lon="14.195735"/>
      <trkpt lat="50.887711" lon="14.195499"/>
      <trkpt lat="50.887760" lon="14.195475"/>
      <trkpt lat="50.887779" lon="14.195228"/>
      <trkpt lat="50.887789" lon="14.195184"/>
      <trkpt lat="50.887820" lon="14.195147"/>
      <trkpt lat="50.887827" lon="14.195075"/>
      <trkpt lat="50.887931" lon="14.194540"/>
      <trkpt lat="50.887929" lon="14.194409"/>
      <trkpt lat="50.888019" lon="14.193751"/>
      <trkpt lat="50.888165" lon="14.193247"/>
      <trkpt lat="50.888256" lon="14.193004"/>
      <trkpt lat="50.888340" lon="14.192681"/>
      <trkpt lat="50.888460" lon="14.192157"/>
      <trkpt lat="50.888475" lon="14.191854"/>
      <trkpt lat="50.888450" lon="14.191585"/>
      <trkpt lat="50.888358" lon="14.191115"/>
      <trkpt lat="50.888263" lon="14.190676"/>
      <trkpt lat="50.888233" lon="14.190386"/>
      <trkpt lat="50.888240" lon="14.190187"/>
      <trkpt lat="50.888286" lon="14.189803"/>
      <trkpt lat="50.888413" lon="14.188953"/>
      <trkpt lat="50.888494" lon="14.188100"/>
      <trkpt lat="50.888537" lon="14.187242"/>
      <trkpt lat="50.888562" lon="14.186350"/>
      <trkpt lat="50.888568" lon="14.186207"/>
      <trkpt lat="50.888762" lon="14.186296"/>
      <trkpt lat="50.888790" lon="14.186313"/>
      <trkpt lat="50.889257" lon="14.186606"/>
      <trkpt lat="50.889787" lon="14.186990"/>
      <trkpt lat="50.890260" lon="14.187368"/>
      <trkpt lat="50.890461" lon="14.187567"/>
      <trkpt lat="50.890583" lon="14.187686"/>
      <trkpt lat="50.890836" lon="14.188064"/>
      <trkpt lat="50.891005" lon="14.188242"/>
      <trkpt lat="50.891302" lon="14.188515"/>
      <trkpt lat="50.891589" lon="14.188608"/>
      <trkpt lat="50.891878" lon="14.188665"/>
      <trkpt lat="50.892002" lon="14.188662"/>
      <trkpt lat="50.892087" lon="14.188667"/>
      <trkpt lat="50.892189" lon="14.188705"/>
      <trkpt lat="50.892353" lon="14.188771"/>
      <trkpt lat="50.892607" lon="14.188873"/>
      <trkpt lat="50.892710" lon="14.188924"/>
      <trkpt lat="50.893205" lon="14.189149"/>
      <trkpt lat="50.893337" lon="14.189192"/>
      <trkpt lat="50.893454" lon="14.189194"/>
      <trkpt lat="50.893866" lon="14.189187"/>
      <trkpt lat="50.894203" lon="14.189178"/>
      <trkpt lat="50.894261" lon="14.189187"/>
      <trkpt lat="50.894231" lon="14.189271"/>
      <trkpt lat="50.894221" lon="14.189377"/>
      <trkpt lat="50.894246" lon="14.189473"/>
      <trkpt lat="50.894258" lon="14.189519"/>
      <trkpt lat="50.894468" lon="14.189242"/>
      <trkpt lat="50.894585" lon="14.189165"/>
      <trkpt lat="50.894733" lon="14.189018"/>
      <trkpt lat="50.894810" lon="14.188911"/>
      <trkpt lat="50.894944" lon="14.188672"/>
      <trkpt lat="50.895009" lon="14.188524"/>
      <trkpt lat="50.895094" lon="14.188330"/>
      <trkpt lat="50.895158" lon="14.188222"/>
      <trkpt lat="50.895238" lon="14.188109"/>
      <trkpt lat="50.895312" lon="14.188033"/>
      <trkpt lat="50.895433" lon="14.188035"/>
      <trkpt lat="50.895526" lon="14.188107"/>
      <trkpt lat="50.895705" lon="14.188400"/>
      <trkpt lat="50.895871" lon="14.188751"/>
      <trkpt lat="50.895927" lon="14.188795"/>
      <trkpt lat="50.896330" lon="14.188942"/>
      <trkpt lat="50.896507" lon="14.188755"/>
      <trkpt lat="50.896588" lon="14.188626"/>
      <trkpt lat="50.897079" lon="14.188717"/>
      <trkpt lat="50.897331" lon="14.188764"/>
      <trkpt lat="50.897446" lon="14.188560"/>
      <trkpt lat="50.897674" lon="14.188023"/>
      <trkpt lat="50.897822" lon="14.187729"/>
      <trkpt lat="50.897950" lon="14.187334"/>
      <trkpt lat="50.897996" lon="14.187099"/>
      <trkpt lat="50.898016" lon="14.186405"/>
      <trkpt lat="50.897999" lon="14.185756"/>
      <trkpt lat="50.897961" lon="14.185042"/>
      <trkpt lat="50.898047" lon="14.183543"/>
      <trkpt lat="50.898053" lon="14.182770"/>
      <trkpt lat="50.898119" lon="14.181591"/>
      <trkpt lat="50.898129" lon="14.181124"/>
      <trkpt lat="50.898164" lon="14.180562"/>
      <trkpt lat="50.897785" lon="14.180725"/>
      <trkpt lat="50.897608" lon="14.180802"/>
      <trkpt lat="50.897500" lon="14.180881"/>
      <trkpt lat="50.897467" lon="14.180897"/>
      <trkpt lat="50.897427" lon="14.179927"/>
      <trkpt lat="50.897422" lon="14.179807"/>
      <trkpt lat="50.897420" lon="14.179500"/>
      <trkpt lat="50.897439" lon="14.179217"/>
      <trkpt lat="50.897444" lon="14.178991"/>
      <trkpt lat="50.897481" lon="14.178664"/>
      <trkpt lat="50.897538" lon="14.178412"/>
      <trkpt lat="50.897594" lon="14.178123"/>
      <trkpt lat="50.897707" lon="14.177670"/>
      <trkpt lat="50.897756" lon="14.177512"/>
      <trkpt lat="50.897826" lon="14.177294"/>
      <trkpt lat="50.897957" lon="14.176915"/>
      <trkpt lat="50.898053" lon="14.176643"/>
      <trkpt lat="50.898158" lon="14.176220"/>
      <trkpt lat="50.898184" lon="14.176065"/>
      <trkpt lat="50.898211" lon="14.175849"/>
      <trkpt lat="50.898299" lon="14.175399"/>
      <trkpt lat="50.898407" lon="14.174929"/>
      <trkpt lat="50.898495" lon="14.174648"/>
      <trkpt lat="50.898651" lon="14.174297"/>
      <trkpt lat="50.898713" lon="14.174194"/>
      <trkpt lat="50.899013" lon="14.173861"/>
      <trkpt lat="50.899033" lon="14.173616"/>
      <trkpt lat="50.899078" lon="14.173375"/>
      <trkpt lat="50.899279" lon="14.173127"/>
      <trkpt lat="50.899340" lon="14.172979"/>
      <trkpt lat="50.899397" lon="14.172705"/>
      <trkpt lat="50.899586" lon="14.172296"/>
      <trkpt lat="50.899763" lon="14.172196"/>
      <trkpt lat="50.900019" lon="14.172317"/>
      <trkpt lat="50.900102" lon="14.172312"/>
      <trkpt lat="50.900179" lon="14.172137"/>
      <trkpt lat="50.900330" lon="14.171882"/>
      <trkpt lat="50.900530" lon="14.171773"/>
      <trkpt lat="50.900685" lon="14.171805"/>
      <trkpt lat="50.900860" lon="14.171793"/>
      <trkpt lat="50.901168" lon="14.171413"/>
      <trkpt lat="50.901346" lon="14.171354"/>
      <trkpt lat="50.901538" lon="14.171240"/>
      <trkpt lat="50.901599" lon="14.171150"/>
      <trkpt lat="50.901727" lon="14.170927"/>
      <trkpt lat="50.901818" lon="14.170866"/>
      <trkpt lat="50.902148" lon="14.170878"/>
      <trkpt lat="50.902214" lon="14.170814"/>
      <trkpt lat="50.902242" lon="14.170762"/>
      <trkpt lat="50.902251" lon="14.170685"/>
      <trkpt lat="50.902216" lon="14.170104"/>
      <trkpt lat="50.902304" lon="14.169748"/>
      <trkpt lat="50.902480" lon="14.169532"/>
      <trkpt lat="50.902531" lon="14.169425"/>
      <trkpt lat="50.902580" lon="14.169071"/>
      <trkpt lat="50.902769" lon="14.168992"/>
      <trkpt lat="50.902896" lon="14.168849"/>
      <trkpt lat="50.902980" lon="14.168859"/>
      <trkpt lat="50.903140" lon="14.169197"/>
      <trkpt lat="50.903221" lon="14.169209"/>
      <trkpt lat="50.903316" lon="14.169148"/>
      <trkpt lat="50.903623" lon="14.168641"/>
      <trkpt lat="50.903735" lon="14.168580"/>
      <trkpt lat="50.903857" lon="14.168569"/>
      <trkpt lat="50.903921" lon="14.168525"/>
      <trkpt lat="50.904046" lon="14.168335"/>
      <trkpt lat="50.904108" lon="14.168178"/>
      <trkpt lat="50.904174" lon="14.168102"/>
      <trkpt lat="50.904256" lon="14.168082"/>
      <trkpt lat="50.904294" lon="14.167844"/>
      <trkpt lat="50.904343" lon="14.167481"/>
      <trkpt lat="50.904380" lon="14.167230"/>
      <trkpt lat="50.904353" lon="14.166925"/>
      <trkpt lat="50.904362" lon="14.166818"/>
      <trkpt lat="50.904363" lon="14.166740"/>
      <trkpt lat="50.904335" lon="14.166709"/>
      <trkpt lat="50.904343" lon="14.166609"/>
      <trkpt lat="50.904393" lon="14.166572"/>
      <trkpt lat="50.904398" lon="14.166503"/>
      <trkpt lat="50.904409" lon="14.166460"/>
      <trkpt lat="50.904512" lon="14.166443"/>
      <trkpt lat="50.904525" lon="14.166129"/>
      <trkpt lat="50.904513" lon="14.166008"/>
      <trkpt lat="50.904563" lon="14.165922"/>
      <trkpt lat="50.904566" lon="14.165888"/>
      <trkpt lat="50.904507" lon="14.165899"/>
      <trkpt lat="50.904383" lon="14.166072"/>
      <trkpt lat="50.904207" lon="14.166280"/>
      <trkpt lat="50.903912" lon="14.166779"/>
      <trkpt lat="50.903483" lon="14.167247"/>
      <trkpt lat="50.903044" lon="14.167541"/>
      <trkpt lat="50.902807" lon="14.167390"/>
      <trkpt lat="50.902634" lon="14.167437"/>
      <trkpt lat="50.902473" lon="14.167534"/>
      <trkpt lat="50.902303" lon="14.167822"/>
      <trkpt lat="50.901776" lon="14.168495"/>
      <trkpt lat="50.901463" lon="14.168625"/>
      <trkpt lat="50.901203" lon="14.168818"/>
      <trkpt lat="50.901073" lon="14.168796"/>
      <trkpt lat="50.900674" lon="14.168669"/>
      <trkpt lat="50.900678" lon="14.168633"/>
      <trkpt lat="50.900670" lon="14.168592"/>
      <trkpt lat="50.900639" lon="14.168561"/>
      <trkpt lat="50.900671" lon="14.168339"/>
      <trkpt lat="50.900916" lon="14.168362"/>
      <trkpt lat="50.901064" lon="14.168349"/>
      <trkpt lat="50.901165" lon="14.168317"/>
      <trkpt lat="50.901195" lon="14.168308"/>
      <trkpt lat="50.901335" lon="14.168214"/>
      <trkpt lat="50.901439" lon="14.168086"/>
      <trkpt lat="50.901530" lon="14.167941"/>
      <trkpt lat="50.901613" lon="14.167734"/>
      <trkpt lat="50.901703" lon="14.167446"/>
      <trkpt lat="50.901834" lon="14.166999"/>
      <trkpt lat="50.901911" lon="14.166833"/>
      <trkpt lat="50.901852" lon="14.166769"/>
      <trkpt lat="50.901811" lon="14.166719"/>
      <trkpt lat="50.901791" lon="14.166697"/>
      <trkpt lat="50.901735" lon="14.166721"/>
      <trkpt lat="50.901552" lon="14.166819"/>
      <trkpt lat="50.901401" lon="14.166965"/>
      <trkpt lat="50.901185" lon="14.167175"/>
      <trkpt lat="50.901066" lon="14.167240"/>
      <trkpt lat="50.900787" lon="14.167288"/>
      <trkpt lat="50.900527" lon="14.167167"/>
      <trkpt lat="50.899909" lon="14.166595"/>
      <trkpt lat="50.899197" lon="14.165565"/>
      <trkpt lat="50.898866" lon="14.164904"/>
      <trkpt lat="50.898650" lon="14.164477"/>
      <trkpt lat="50.898517" lon="14.164265"/>
      <trkpt lat="50.898344" lon="14.164063"/>
      <trkpt lat="50.898135" lon="14.163927"/>
      <trkpt lat="50.897889" lon="14.163855"/>
      <trkpt lat="50.898021" lon="14.163752"/>
      <trkpt lat="50.898258" lon="14.163800"/>
      <trkpt lat="50.898725" lon="14.164237"/>
      <trkpt lat="50.899214" lon="14.165107"/>
      <trkpt lat="50.899451" lon="14.165446"/>
      <trkpt lat="50.899917" lon="14.165987"/>
      <trkpt lat="50.900582" lon="14.166353"/>
      <trkpt lat="50.900774" lon="14.166313"/>
      <trkpt lat="50.901657" lon="14.164811"/>
      <trkpt lat="50.902503" lon="14.164214"/>
      <trkpt lat="50.902558" lon="14.164124"/>
      <trkpt lat="50.902590" lon="14.164020"/>
      <trkpt lat="50.902580" lon="14.163880"/>
      <trkpt lat="50.902401" lon="14.163035"/>
      <trkpt lat="50.902322" lon="14.162488"/>
      <trkpt lat="50.902317" lon="14.160973"/>
      <trkpt lat="50.902358" lon="14.160713"/>
      <trkpt lat="50.902306" lon="14.160275"/>
      <trkpt lat="50.902249" lon="14.159809"/>
      <trkpt lat="50.902204" lon="14.159379"/>
      <trkpt lat="50.902217" lon="14.159013"/>
      <trkpt lat="50.902274" lon="14.158573"/>
      <trkpt lat="50.902330" lon="14.157946"/>
      <trkpt lat="50.902338" lon="14.157697"/>
      <trkpt lat="50.902278" lon="14.157396"/>
      <trkpt lat="50.902211" lon="14.157084"/>
      <trkpt lat="50.902235" lon="14.156708"/>
      <trkpt lat="50.902234" lon="14.156436"/>
      <trkpt lat="50.902197" lon="14.156234"/>
      <trkpt lat="50.902133" lon="14.155814"/>
      <trkpt lat="50.902106" lon="14.155504"/>
      <trkpt lat="50.902056" lon="14.155283"/>
      <trkpt lat="50.901978" lon="14.155092"/>
      <trkpt lat="50.901935" lon="14.154984"/>
      <trkpt lat="50.901877" lon="14.154791"/>
      <trkpt lat="50.901918" lon="14.154218"/>
      <trkpt lat="50.901695" lon="14.153473"/>
      <trkpt lat="50.901707" lon="14.152779"/>
      <trkpt lat="50.901656" lon="14.152283"/>
      <trkpt lat="50.901663" lon="14.151991"/>
      <trkpt lat="50.901736" lon="14.151870"/>
      <trkpt lat="50.901784" lon="14.151754"/>
      <trkpt lat="50.901864" lon="14.151678"/>
      <trkpt lat="50.901948" lon="14.151420"/>
      <trkpt lat="50.901992" lon="14.151146"/>
      <trkpt lat="50.902040" lon="14.150909"/>
      <trkpt lat="50.902204" lon="14.150607"/>
      <trkpt lat="50.902255" lon="14.150383"/>
      <trkpt lat="50.902269" lon="14.150331"/>
      <trkpt lat="50.902319" lon="14.150141"/>
      <trkpt lat="50.902342" lon="14.150077"/>
      <trkpt lat="50.902364" lon="14.150035"/>
      <trkpt lat="50.902419" lon="14.149958"/>
      <trkpt lat="50.902432" lon="14.149795"/>
      <trkpt lat="50.902509" lon="14.149566"/>
      <trkpt lat="50.902579" lon="14.149497"/>
      <trkpt lat="50.902713" lon="14.148983"/>
      <trkpt lat="50.902851" lon="14.148599"/>
      <trkpt lat="50.902968" lon="14.148443"/>
      <trkpt lat="50.903057" lon="14.148037"/>
      <trkpt lat="50.903352" lon="14.147699"/>
      <trkpt lat="50.903506" lon="14.147438"/>
      <trkpt lat="50.903773" lon="14.147176"/>
      <trkpt lat="50.904049" lon="14.146804"/>
      <trkpt lat="50.904170" lon="14.146598"/>
      <trkpt lat="50.904359" lon="14.146280"/>
      <trkpt lat="50.904672" lon="14.145914"/>
      <trkpt lat="50.904639" lon="14.145797"/>
      <trkpt lat="50.904443" lon="14.145561"/>
      <trkpt lat="50.904384" lon="14.145489"/>
      <trkpt lat="50.904310" lon="14.145324"/>
      <trkpt lat="50.904142" lon="14.144840"/>
    </trkseg>
  </trk>
</gpx>
